{
"type": "FeatureCollection",
"name": "URL_H_Hallazgos",
"crs": { "type": "name", "properties": { "name": "urn:ogc:def:crs:OGC:1.3:CRS84" } },
"features": [
{ "type": "Feature", "properties": { "OBJECTID": 1, "FECHA": "18/02/2026 00:00:00 (UTC)", "DEPTO": "(SANTANDER)", "MUNICIPIO": "SIMACOTA", "VEREDA": "PULPAPEL", "GASODUCTO": "(CENTRO - ORIENTE)", "TRAMO": "Barrancabermeja - Sebastopol", "TP_DUCTO": "(Troncal)", "DISTRITO": "1", "DIAMETRO": "20\"", "TRM_REG": "(BARRANCABERMEJA - SEBASTOPOL)", "ZONA": "1", "PK": "045+674", "PK_PAT": "", "ID_EVENTO": " ", "TP_EVENTO": "OTRO", "LONG_EVENT": 4.0, "PRIORIDAD": "Alto", "AMENAZA": "Extremo", "ESTADO_EG": " ", "FX2": " ", "OBSERVACION_GEOTECNISTA": "", "OBSERVACIO": "Tubería expuesta por excavación mecánica de la firma 'Periotécnica' durante obras de perforación horizontal dirigida (PHD). La intervención busca el cambio de trazado del cruce subfluvial bajo el río Opón.", "PROFUNDIDA": 0.0, "COD_ID": "HALL-1", "ENTREGA": "E05_R2", "HRMS": " ", "LATITUD": 6.7750794940000674, "LONGITUD": -73.926062333999937, "ALTURA": 96.414300000004005, "NORTE": 2306732.1924399999, "ESTE": 4897703.8610699996, "IMAGEN_1": "C001_IMG_20260218_095714.jpg", "IMAGEN_2": "C001_IMG_20260218_095721.jpg", "IMAGEN_3": "C001_IMG_20260218_095733.jpg", "VISUALIZAR_IMAGEN_1": "https://drive.google.com/uc?export=view&id=1kush5-SMiQ3f29xtUHGZPsRIU7h15p8h", "VISUALIZAR_IMAGEN_2": "https://drive.google.com/uc?export=view&id=1WGApBgDHCen3xN6p1eovNEY7PGSCi7VV", "VISUALIZAR_IMAGEN_3": "https://drive.google.com/uc?export=view&id=17azTlCbJDQj4AovMV4Z72ujlGsy32ILg", "FUENTE": "IEDDV" }, "geometry": { "type": "Point", "coordinates": [ -73.926062333999937, 6.775079494000067, 96.414300000004005 ] } },
{ "type": "Feature", "properties": { "OBJECTID": 2, "FECHA": "19/02/2026 00:00:00 (UTC)", "DEPTO": "(SANTANDER)", "MUNICIPIO": "PUERTO PARRA", "VEREDA": "PATIO BONITO", "GASODUCTO": "(CENTRO - ORIENTE)", "TRAMO": "Barrancabermeja - Sebastopol", "TP_DUCTO": "(Troncal)", "DISTRITO": "1", "DIAMETRO": "20\"", "TRM_REG": "(BARRANCABERMEJA - SEBASTOPOL)", "ZONA": "1", "PK": "055+506", "PK_PAT": "", "ID_EVENTO": "", "TP_EVENTO": "SOCAVACIÓN DE FONDO", "LONG_EVENT": 50.0, "PRIORIDAD": "Alto", "AMENAZA": "Alto", "ESTADO_EG": "", "FX2": "", "OBSERVACION_GEOTECNISTA": "", "OBSERVACIO": "Se identifica tubería expuesta en lecho de cuerpo hídrico menor con obras geotécnicas recientes. Se recomienda el lastrado en concreto de la línea para mitigar riesgos de socavación o desplazamiento ante posibles crecientes súbitas.", "PROFUNDIDA": 0.0, "COD_ID": "HALL-2", "ENTREGA": "E05_R2", "HRMS": " ", "LATITUD": 6.7090543190000744, "LONGITUD": -73.979789379999943, "ALTURA": 118.98510000000533, "NORTE": 2299446.9397399998, "ESTE": 4891753.7790400004, "IMAGEN_1": "C001_IMG_20260219_084441.jpg", "IMAGEN_2": "C001_IMG_20260219_084447.jpg", "IMAGEN_3": "C001_IMG_20260219_084503.jpg", "VISUALIZAR_IMAGEN_1": "https://drive.google.com/uc?export=view&id=10wuf1alMVtWqkkRdPRhD8Z1nVppZlIFj", "VISUALIZAR_IMAGEN_2": "https://drive.google.com/uc?export=view&id=1otDlX4CsIUY4_Q2UxubrUNHGNE8saRbF", "VISUALIZAR_IMAGEN_3": "https://drive.google.com/uc?export=view&id=1vTxRzLg3c1RdOcb13QR6NFfQhxh-tiKD", "FUENTE": "IEDDV" }, "geometry": { "type": "Point", "coordinates": [ -73.979789379999943, 6.709054319000074, 118.985100000005332 ] } },
{ "type": "Feature", "properties": { "OBJECTID": 3, "FECHA": "24/02/2026 00:00:00 (UTC)", "DEPTO": "(SANTANDER)", "MUNICIPIO": "CIMITARRA", "VEREDA": "LOS MORROS", "GASODUCTO": "(CENTRO - ORIENTE)", "TRAMO": "Barrancabermeja - Sebastopol", "TP_DUCTO": "(Troncal)", "DISTRITO": "1", "DIAMETRO": "20\"", "TRM_REG": "(BARRANCABERMEJA - SEBASTOPOL)", "ZONA": "1", "PK": "091+016", "PK_PAT": " ", "ID_EVENTO": " ", "TP_EVENTO": "CARCAVAS", "LONG_EVENT": 30.0, "PRIORIDAD": "Bajo", "AMENAZA": "Bajo", "ESTADO_EG": " ", "FX2": " ", "OBSERVACION_GEOTECNISTA": "", "OBSERVACIO": "Cárcavas en el DDV por erosión hídrica superficial. La escorrentía degrada el suelo, compuesto por materiales altamente erosionables, generando inestabilidad geotécnica que compromete la cobertura y seguridad del gasoducto enterrado.", "PROFUNDIDA": 1.46, "COD_ID": "HALL-3", "ENTREGA": "E05_R2", "HRMS": " ", "LATITUD": 6.5549571090000427, "LONGITUD": -74.241938296999933, "ALTURA": 124.60550000000512, "NORTE": 2282480.8013200001, "ESTE": 4862745.19252, "IMAGEN_1": "C001_IMG_20260224_094759.jpg", "IMAGEN_2": "C001_IMG_20260224_094807.jpg", "IMAGEN_3": "C001_IMG_20260224_094818.jpg", "VISUALIZAR_IMAGEN_1": "https://drive.google.com/uc?export=view&id=1BjlEkiDGu182lq-7_vEuASztyjAPYozK", "VISUALIZAR_IMAGEN_2": "https://drive.google.com/uc?export=view&id=1JrY8S9pyH4QWgiT7ZBN_AFF983ncWvq5", "VISUALIZAR_IMAGEN_3": "https://drive.google.com/uc?export=view&id=1GBUD8Et_RVww-Mz92sNb8e2i3U_avi7K", "FUENTE": "IEDDV" }, "geometry": { "type": "Point", "coordinates": [ -74.241938296999933, 6.554957109000043, 124.605500000005122 ] } },
{ "type": "Feature", "properties": { "OBJECTID": 4, "FECHA": "22/01/2026 00:00:00 (UTC)", "DEPTO": "(CUNDINAMARCA)", "MUNICIPIO": "GUADUAS", "VEREDA": "CEDRALES", "GASODUCTO": "(CENTRO - ORIENTE)", "TRAMO": "Puerto Salgar - Mariquita", "TP_DUCTO": "(Troncal)", "DISTRITO": "2", "DIAMETRO": "20\"", "TRM_REG": "(VASCONIA - MARIQUITA)", "ZONA": "2", "PK": "256+490", "PK_PAT": " ", "ID_EVENTO": " ", "TP_EVENTO": "SOCAVACIÓN LATERAL", "LONG_EVENT": 10.0, "PRIORIDAD": "Medio", "AMENAZA": "Medio", "ESTADO_EG": " ", "FX2": " ", "OBSERVACION_GEOTECNISTA": "", "OBSERVACIO": "Se observa socavación en las márgenes del cauce por escorrentía de aguas lluvias ocasionales; la naturaleza arenosa del material facilita el arrastre de finos, generando este proceso erosivo que compromete la estabilidad del área del gasoducto.", "PROFUNDIDA": 0.95, "COD_ID": "HALL-1", "ENTREGA": "E01_R2", "HRMS": " ", "LATITUD": 5.3858949950000579, "LONGITUD": -74.67229471099995, "ALTURA": 190.41, "NORTE": 2153385.8753599999, "ESTE": 4814779.6753799999, "IMAGEN_1": "C001_IMG_20260122_070834.jpg", "IMAGEN_2": "C001_IMG_20260122_070847.jpg", "IMAGEN_3": "C001_IMG_20260122_070857.jpg", "VISUALIZAR_IMAGEN_1": "https://drive.google.com/uc?export=view&id=1ifXhisCjhHXuz6eo5Tox-tghwdsmRNvL", "VISUALIZAR_IMAGEN_2": "https://drive.google.com/uc?export=view&id=1_neajD1la2cjbRysiG_8TZLblH5xlmai", "VISUALIZAR_IMAGEN_3": "https://drive.google.com/uc?export=view&id=1HlS207u0UnPce68XSwJPC5p4uufof-mB", "FUENTE": "IEDDV" }, "geometry": { "type": "Point", "coordinates": [ -74.67229471099995, 5.385894995000058, 190.410000000003492 ] } },
{ "type": "Feature", "properties": { "OBJECTID": 5, "FECHA": "24/01/2026 00:00:00 (UTC)", "DEPTO": "(CALDAS)", "MUNICIPIO": "LA DORADA", "VEREDA": "PURNIO", "GASODUCTO": "(CENTRO - ORIENTE)", "TRAMO": "Termodorada", "TP_DUCTO": "(Ramal)", "DISTRITO": "2", "DIAMETRO": "12\"", "TRM_REG": "(VASCONIA - MARIQUITA)", "ZONA": "2", "PK": "006+075", "PK_PAT": " ", "ID_EVENTO": " ", "TP_EVENTO": "SURCOS", "LONG_EVENT": 20.0, "PRIORIDAD": "Medio", "AMENAZA": "Medio", "ESTADO_EG": " ", "FX2": " ", "OBSERVACION_GEOTECNISTA": "", "OBSERVACIO": "Surcos en pendiente pronunciada por flujo de agua lluvia. El suelo es altamente erosionable y arenoso, lo que genera surcos y desprendimiento de material, afectando la estabilidad de la ladera y la cobertura vegetal en esta zona montañosa.", "PROFUNDIDA": 3.47, "COD_ID": "HALL-2", "ENTREGA": "E01_R2", "HRMS": " ", "LATITUD": 5.4164340690000472, "LONGITUD": -74.688262900999973, "ALTURA": 207.391, "NORTE": 2156766.6304500001, "ESTE": 4813019.9296899997, "IMAGEN_1": "C001_IMG_20260124_082815.jpg", "IMAGEN_2": "C001_IMG_20260124_082833.jpg", "IMAGEN_3": "C001_IMG_20260124_082857.jpg", "VISUALIZAR_IMAGEN_1": "https://drive.google.com/uc?export=view&id=10IY3WVXyxNCZaC49jmKLUi03AoDZEsA9", "VISUALIZAR_IMAGEN_2": "https://drive.google.com/uc?export=view&id=1bHpCKZaw2ayLv61atPEll3XwPFG8xJYs", "VISUALIZAR_IMAGEN_3": "https://drive.google.com/uc?export=view&id=1XmjPlqCi-LSzTjB75Id1ARQ8Rp71CLdu", "FUENTE": "IEDDV" }, "geometry": { "type": "Point", "coordinates": [ -74.688262900999973, 5.416434069000047, 207.39100000000326 ] } },
{ "type": "Feature", "properties": { "OBJECTID": 6, "FECHA": "26/01/2026 00:00:00 (UTC)", "DEPTO": "(CALDAS)", "MUNICIPIO": "LA DORADA", "VEREDA": "LAS CAMELIAS", "GASODUCTO": "(CENTRO - ORIENTE)", "TRAMO": "Puerto Salgar - Mariquita", "TP_DUCTO": "(Troncal)", "DISTRITO": "2", "DIAMETRO": "20\"", "TRM_REG": "(VASCONIA - MARIQUITA)", "ZONA": "2", "PK": "270+693", "PK_PAT": " ", "ID_EVENTO": " ", "TP_EVENTO": "CARCAVAS", "LONG_EVENT": 5.0, "PRIORIDAD": "Bajo", "AMENAZA": "Bajo", "ESTADO_EG": " ", "FX2": " ", "OBSERVACION_GEOTECNISTA": "", "OBSERVACIO": "Erosión pronunciada en DDV. Litología arenosa friable vulnerable a flujos de escorrentía por topografía circundante. Riesgo de pérdida de cobertura. Sugerido: Reconformación y revegetalización. L=5m, An=5m, Al=0.5m. Evento perpendicular al ducto.", "PROFUNDIDA": 2.19, "COD_ID": "HALL-3", "ENTREGA": "E01_R2", "HRMS": " ", "LATITUD": 5.3061143140000695, "LONGITUD": -74.744138201999988, "ALTURA": 216.06, "NORTE": 2144588.7124800002, "ESTE": 4806795.0178800002, "IMAGEN_1": "C001_IMG_20260126_080912.jpg", "IMAGEN_2": "C001_IMG_20260126_080918.jpg", "IMAGEN_3": "C001_IMG_20260126_080924.jpg", "VISUALIZAR_IMAGEN_1": "https://drive.google.com/uc?export=view&id=1aJPXdffs8y4i6EXfKMDjOg8by7xihJIV", "VISUALIZAR_IMAGEN_2": "https://drive.google.com/uc?export=view&id=18dYCKlzrB_9viWVovAMdSSCW9JsNMy5j", "VISUALIZAR_IMAGEN_3": "https://drive.google.com/uc?export=view&id=12t97BVYG1VMJf_qUT0i0zRssNR0wx-Kd", "FUENTE": "IEDDV" }, "geometry": { "type": "Point", "coordinates": [ -74.744138201999988, 5.306114314000069, 216.059999999997672 ] } },
{ "type": "Feature", "properties": { "OBJECTID": 7, "FECHA": "26/01/2026 00:00:00 (UTC)", "DEPTO": "(CALDAS)", "MUNICIPIO": "LA DORADA", "VEREDA": "HORIZONTES", "GASODUCTO": "(CENTRO - ORIENTE)", "TRAMO": "Puerto Salgar - Mariquita", "TP_DUCTO": "(Troncal)", "DISTRITO": "2", "DIAMETRO": "20\"", "TRM_REG": "(VASCONIA - MARIQUITA)", "ZONA": "2", "PK": "272+299", "PK_PAT": " ", "ID_EVENTO": " ", "TP_EVENTO": "SOCAVACIÓN LATERAL", "LONG_EVENT": 10.0, "PRIORIDAD": "Medio", "AMENAZA": "Medio", "ESTADO_EG": " ", "FX2": " ", "OBSERVACION_GEOTECNISTA": "", "OBSERVACIO": "Socavación lateral en margen izquierda de cauce estacional. El flujo invernal genera erosión regresiva en el talud, incrementando la vulnerabilidad del sector y la exposición de la tubería. L=10m, An=1m, Al=2.5m. Evento Perpendicular al ducto.", "PROFUNDIDA": 0.89, "COD_ID": "HALL-4", "ENTREGA": "E01_R2", "HRMS": " ", "LATITUD": 5.2968041490000246, "LONGITUD": -74.752293269999939, "ALTURA": 209.298, "NORTE": 2143562.0574500002, "ESTE": 4805888.4618699998, "IMAGEN_1": "C001_IMG_20260126_085736.jpg", "IMAGEN_2": "C001_IMG_20260126_085742.jpg", "IMAGEN_3": "C001_IMG_20260126_085755.jpg", "VISUALIZAR_IMAGEN_1": "https://drive.google.com/uc?export=view&id=1ovyzuJxTf2vhrX14KDlFrnfcVoF7LGjY", "VISUALIZAR_IMAGEN_2": "https://drive.google.com/uc?export=view&id=14DtiCYzbGzWFZ-jg7OdFuI9mEk4V3Q-m", "VISUALIZAR_IMAGEN_3": "https://drive.google.com/uc?export=view&id=1yj77LhZreS2VcaTIuT9vnkbdO8rcUiJz", "FUENTE": "IEDDV" }, "geometry": { "type": "Point", "coordinates": [ -74.752293269999939, 5.296804149000025, 209.297999999995227 ] } },
{ "type": "Feature", "properties": { "OBJECTID": 8, "FECHA": "19/01/2026 00:00:00 (UTC)", "DEPTO": "(CUNDINAMARCA)", "MUNICIPIO": "PUERTO SALGAR", "VEREDA": "YERBABUENA", "GASODUCTO": "(CENTRO - ORIENTE)", "TRAMO": "Vasconia - Puerto Salgar", "TP_DUCTO": "(Troncal)", "DISTRITO": "1", "DIAMETRO": "20\"", "TRM_REG": "(VASCONIA - MARIQUITA)", "ZONA": "1", "PK": "238+184", "PK_PAT": " ", "ID_EVENTO": " ", "TP_EVENTO": "SOCAVACIÓN LATERAL", "LONG_EVENT": 4.0, "PRIORIDAD": "Medio", "AMENAZA": "Medio", "ESTADO_EG": " ", "FX2": " ", "OBSERVACION_GEOTECNISTA": "", "OBSERVACIO": "Socavación lateral en margen derecha por avenida torrencial. El evento provocó el volcamiento de un árbol y desprendimiento masivo de suelo en el talud, generando una pérdida severa de sección y material en el caño. L=4m, An=1m, Al=3m. Evento perpend", "PROFUNDIDA": 1.89, "COD_ID": "HALL-5", "ENTREGA": "E01_R2", "HRMS": " ", "LATITUD": 5.5314501480000331, "LONGITUD": -74.623700982999935, "ALTURA": 177.08900000000722, "NORTE": 2169460.9642599998, "ESTE": 4820206.6616200004, "IMAGEN_1": "C001_IMG_20260119_100012.jpg", "IMAGEN_2": "C001_IMG_20260119_100027.jpg", "IMAGEN_3": "C001_IMG_20260119_100036.jpg", "VISUALIZAR_IMAGEN_1": "https://drive.google.com/uc?export=view&id=1v9_7Op4Pp3GaPheJoMw7m2FPTQ0LHORy", "VISUALIZAR_IMAGEN_2": "https://drive.google.com/uc?export=view&id=10uUIvsq5mz9mtIPVJC1MhIt_hBMyj25-", "VISUALIZAR_IMAGEN_3": "https://drive.google.com/uc?export=view&id=1vdTIbVZRZUSgd_XaxPCixCrbTQXgDDhc", "FUENTE": "IEDDV" }, "geometry": { "type": "Point", "coordinates": [ -74.623700982999935, 5.531450148000033, 177.089000000007218 ] } },
{ "type": "Feature", "properties": { "OBJECTID": 9, "FECHA": "21/01/2026 00:00:00 (UTC)", "DEPTO": "(CUNDINAMARCA)", "MUNICIPIO": "GUADUAS", "VEREDA": "CEDRALES", "GASODUCTO": "(CENTRO - ORIENTE)", "TRAMO": "Puerto Salgar - Mariquita", "TP_DUCTO": "(Troncal)", "DISTRITO": "2", "DIAMETRO": "20\"", "TRM_REG": "(VASCONIA - MARIQUITA)", "ZONA": "2", "PK": "251+544", "PK_PAT": " ", "ID_EVENTO": " ", "TP_EVENTO": "CARCAVAS", "LONG_EVENT": 10.0, "PRIORIDAD": "Medio", "AMENAZA": "Medio", "ESTADO_EG": " ", "FX2": " ", "OBSERVACION_GEOTECNISTA": "", "OBSERVACIO": "Cárcavas por erosión hídrica localizadas sobre el derecho de vía. Los agujeros en el terreno evidencian una degradación progresiva por escorrentía, lo que podría derivar en la exposición del ducto si no se implementan obras de canalizacion.", "PROFUNDIDA": 2.57, "COD_ID": "HALL-6", "ENTREGA": "E01_R2", "HRMS": " ", "LATITUD": 5.4219250780000721, "LONGITUD": -74.650239515999942, "ALTURA": 186.505, "NORTE": 2157362.0247, "ESTE": 4817233.94771, "IMAGEN_1": "C001_IMG_20260121_085436.jpg", "IMAGEN_2": "C001_IMG_20260121_085449.jpg", "IMAGEN_3": "C001_IMG_20260121_085505.jpg", "VISUALIZAR_IMAGEN_1": "https://drive.google.com/uc?export=view&id=19-jpcxD5ebhrkrfWOrwOpQtQo4Mtqn2F", "VISUALIZAR_IMAGEN_2": "https://drive.google.com/uc?export=view&id=1yHDAX64iWXuAYQBpR3J3DZRLyG9A9XAn", "VISUALIZAR_IMAGEN_3": "https://drive.google.com/uc?export=view&id=14FEeITBGIEBZlS8NjQj70SLhwgScA-fP", "FUENTE": "IEDDV" }, "geometry": { "type": "Point", "coordinates": [ -74.650239515999942, 5.421925078000072, 186.505000000004657 ] } },
{ "type": "Feature", "properties": { "OBJECTID": 10, "FECHA": "19/01/2026 00:00:00 (UTC)", "DEPTO": "(BOYACÁ)", "MUNICIPIO": "PUERTO BOYACÁ", "VEREDA": "EL PESCADO", "GASODUCTO": "(CENTRO - ORIENTE)", "TRAMO": "Vasconia - Puerto Salgar", "TP_DUCTO": "(Troncal)", "DISTRITO": "1", "DIAMETRO": "20\"", "TRM_REG": "(VASCONIA - MARIQUITA)", "ZONA": "1", "PK": "189+377", "PK_PAT": " ", "ID_EVENTO": " ", "TP_EVENTO": "DESLIZAMIENTO ROTACIONAL", "LONG_EVENT": 10.0, "PRIORIDAD": "Medio", "AMENAZA": "Medio", "ESTADO_EG": " ", "FX2": " ", "OBSERVACION_GEOTECNISTA": "", "OBSERVACIO": "Deslizamiento cerca a la tubería", "PROFUNDIDA": 1.69, "COD_ID": "HALL-1", "ENTREGA": "E02_R2", "HRMS": " ", "LATITUD": 5.9147311110000373, "LONGITUD": -74.566600555999969, "ALTURA": 155.861, "NORTE": 2211810.9536299999, "ESTE": 4826646.5569799999, "IMAGEN_1": "C002_IMG_20260119_084506.jpg", "IMAGEN_2": "C002_IMG_20260119_084517.jpg", "IMAGEN_3": "C002_IMG_20260119_084525.jpg", "VISUALIZAR_IMAGEN_1": "https://drive.google.com/uc?export=view&id=1-PCr2DbDlmNAmjbei9vBbHivLbwl5XUq", "VISUALIZAR_IMAGEN_2": "https://drive.google.com/uc?export=view&id=1QKaACKsy4oXkjAbzFP1AHf2CXL0joyfI", "VISUALIZAR_IMAGEN_3": "https://drive.google.com/uc?export=view&id=1riufHARGbLe5EJAXxDwXoJ1gkyH-8h0A", "FUENTE": "IEDDV" }, "geometry": { "type": "Point", "coordinates": [ -74.566600555999969, 5.914731111000037, 155.861000000004424 ] } },
{ "type": "Feature", "properties": { "OBJECTID": 11, "FECHA": "2/02/2026 00:00:00 (UTC)", "DEPTO": "(BOYACÁ)", "MUNICIPIO": "PUERTO BOYACÁ", "VEREDA": "PALAGUA", "GASODUCTO": "(CENTRO - ORIENTE)", "TRAMO": "Sebastopol - Vasconia", "TP_DUCTO": "(Troncal)", "DISTRITO": "1", "DIAMETRO": "20\"", "TRM_REG": "(SEBASTOPOL - VASCONIA)", "ZONA": "1", "PK": "164+341", "PK_PAT": " ", "ID_EVENTO": "", "TP_EVENTO": "CARCAVAS", "LONG_EVENT": 10.0, "PRIORIDAD": "( )", "AMENAZA": "( )", "ESTADO_EG": " ", "FX2": " ", "OBSERVACION_GEOTECNISTA": "", "OBSERVACIO": "Carvavas en suelo arenoso", "PROFUNDIDA": 1.24, "COD_ID": "HALL-2", "ENTREGA": "E02_R2", "HRMS": " ", "LATITUD": 6.1178271940000286, "LONGITUD": -74.556451486999947, "ALTURA": 166.10030000000552, "NORTE": 2234257.6657799999, "ESTE": 4827833.8190799998, "IMAGEN_1": "C002_IMG_20260202_095937.jpg", "IMAGEN_2": "C002_IMG_20260202_095944.jpg", "IMAGEN_3": "C002_IMG_20260202_095949.jpg", "VISUALIZAR_IMAGEN_1": "https://drive.google.com/uc?export=view&id=13YESNzpaxZcjIOPcz3FK-WELOTtdMW9s", "VISUALIZAR_IMAGEN_2": "https://drive.google.com/uc?export=view&id=1mxCpBuqHqnneJGgGFvw4v43p1bQn3gNH", "VISUALIZAR_IMAGEN_3": "https://drive.google.com/uc?export=view&id=1tJF3eSsRrX2sxMrZ0CcVX0dI7hMcYs0C", "FUENTE": "IEDDV" }, "geometry": { "type": "Point", "coordinates": [ -74.556451486999947, 6.117827194000029, 166.100300000005518 ] } },
{ "type": "Feature", "properties": { "OBJECTID": 12, "FECHA": "25/01/2026 00:00:00 (UTC)", "DEPTO": "(SANTANDER)", "MUNICIPIO": "CIMITARRA", "VEREDA": "TIERRADENTRO", "GASODUCTO": "(CENTRO - ORIENTE)", "TRAMO": "Sebastopol - Vasconia", "TP_DUCTO": "(Troncal)", "DISTRITO": "1", "DIAMETRO": "20\"", "TRM_REG": "(SEBASTOPOL - VASCONIA)", "ZONA": "1", "PK": "128+292", "PK_PAT": " ", "ID_EVENTO": "", "TP_EVENTO": "DESLIZAMIENTO TRASLACIONAL", "LONG_EVENT": 4.0, "PRIORIDAD": "( )", "AMENAZA": "( )", "ESTADO_EG": " ", "FX2": " ", "OBSERVACION_GEOTECNISTA": "", "OBSERVACIO": "Deslizamiento cerca a cuerpo de agua", "PROFUNDIDA": 2.3, "COD_ID": "HALL-3", "ENTREGA": "E02_R2", "HRMS": " ", "LATITUD": 6.3676571850000414, "LONGITUD": -74.417485764999981, "ALTURA": 143.7638, "NORTE": 2261829.38625, "ESTE": 4843282.9913999997, "IMAGEN_1": "C002_IMG_20260125_090128.jpg", "IMAGEN_2": "C002_IMG_20260125_090134.jpg", "IMAGEN_3": "C002_IMG_20260125_090139.jpg", "VISUALIZAR_IMAGEN_1": "https://drive.google.com/uc?export=view&id=1Z50-ZnwRCLr3678Y87qMcJC6EieYzD2Y", "VISUALIZAR_IMAGEN_2": "https://drive.google.com/uc?export=view&id=1jcqk-KwEzrqLB3uCTx2od97VkRibFEYw", "VISUALIZAR_IMAGEN_3": "https://drive.google.com/uc?export=view&id=1wFhK_4KnVw7M9gHomnI4soz7_p4yYmHA", "FUENTE": "IEDDV" }, "geometry": { "type": "Point", "coordinates": [ -74.417485764999981, 6.367657185000041, 143.763800000000629 ] } },
{ "type": "Feature", "properties": { "OBJECTID": 13, "FECHA": "31/01/2026 00:00:00 (UTC)", "DEPTO": "(BOYACÁ)", "MUNICIPIO": "PUERTO BOYACÁ", "VEREDA": "ERMITANO", "GASODUCTO": "(CENTRO - ORIENTE)", "TRAMO": "Sebastopol - Vasconia", "TP_DUCTO": "(Troncal)", "DISTRITO": "1", "DIAMETRO": "20\"", "TRM_REG": "(SEBASTOPOL - VASCONIA)", "ZONA": "1", "PK": "154+078", "PK_PAT": " ", "ID_EVENTO": " ", "TP_EVENTO": "OTRO", "LONG_EVENT": 4.0, "PRIORIDAD": "( )", "AMENAZA": "( )", "ESTADO_EG": " ", "FX2": " ", "OBSERVACION_GEOTECNISTA": " ", "OBSERVACIO": "Excavación sobre la tuberia de Cenit (10 mts) al costado derecho de la tubería", "PROFUNDIDA": 1.6, "COD_ID": "HALL-4", "ENTREGA": "E02_R2", "HRMS": " ", "LATITUD": 6.2056604850000667, "LONGITUD": -74.557929660999946, "ALTURA": 126.8321, "NORTE": 2243967.1251500002, "ESTE": 4827698.6152799996, "IMAGEN_1": "C002_IMG_20260131_091830.jpg", "IMAGEN_2": "C002_IMG_20260131_091837.jpg", "IMAGEN_3": "C002_IMG_20260131_091843.jpg", "VISUALIZAR_IMAGEN_1": "https://drive.google.com/uc?export=view&id=1nnQN5L-JAzQMoXsYJL7Zn0vIR_5enEVc", "VISUALIZAR_IMAGEN_2": "https://drive.google.com/uc?export=view&id=1hyp0olWDIFdzOM_RPv1ec5XNq4UlnSL_", "VISUALIZAR_IMAGEN_3": "https://drive.google.com/uc?export=view&id=1F3NiPF1SOrBsWxoM_1BWc7cLQFINqPEw", "FUENTE": "IEDDV" }, "geometry": { "type": "Point", "coordinates": [ -74.557929660999946, 6.205660485000067, 126.832099999999627 ] } },
{ "type": "Feature", "properties": { "OBJECTID": 14, "FECHA": "31/01/2026 00:00:00 (UTC)", "DEPTO": "(BOYACÁ)", "MUNICIPIO": "PUERTO BOYACÁ", "VEREDA": "ERMITANO", "GASODUCTO": "(CENTRO - ORIENTE)", "TRAMO": "Sebastopol - Vasconia", "TP_DUCTO": "(Troncal)", "DISTRITO": "1", "DIAMETRO": "20\"", "TRM_REG": "(SEBASTOPOL - VASCONIA)", "ZONA": "1", "PK": "154+949", "PK_PAT": " ", "ID_EVENTO": " ", "TP_EVENTO": "SOCAVACIÓN DE FONDO", "LONG_EVENT": 4.0, "PRIORIDAD": "( )", "AMENAZA": "( )", "ESTADO_EG": " ", "FX2": " ", "OBSERVACION_GEOTECNISTA": " ", "OBSERVACIO": "Ciénaga cercana, con salida fluvial perpendicular la tuberia, se observa socavación de fondo", "PROFUNDIDA": 1.8, "COD_ID": "HALL-5", "ENTREGA": "E02_R2", "HRMS": " ", "LATITUD": 6.1980525210000224, "LONGITUD": -74.55931783799997, "ALTURA": 132.3388, "NORTE": 2243126.6, "ESTE": 4827542.5774800004, "IMAGEN_1": "C002_IMG_20260131_094710.jpg", "IMAGEN_2": "C002_IMG_20260131_094717.jpg", "IMAGEN_3": "C002_IMG_20260131_094723.jpg", "VISUALIZAR_IMAGEN_1": "https://drive.google.com/uc?export=view&id=1kBGxpG7m-hAuq3LnVyHmFvk59QWedD1h", "VISUALIZAR_IMAGEN_2": "https://drive.google.com/uc?export=view&id=1bQJvVn9dcvHLDuqBnVmBOx_GUUOYdGLm", "VISUALIZAR_IMAGEN_3": "https://drive.google.com/uc?export=view&id=1XJxnDCderFLZ3F2g7hxOmceA4v1xX57I", "FUENTE": "IEDDV" }, "geometry": { "type": "Point", "coordinates": [ -74.55931783799997, 6.198052521000022, 132.338799999997718 ] } },
{ "type": "Feature", "properties": { "OBJECTID": 15, "FECHA": "3/02/2026 00:00:00 (UTC)", "DEPTO": "(BOYACÁ)", "MUNICIPIO": "PUERTO BOYACÁ", "VEREDA": "PALAGUA", "GASODUCTO": "(CENTRO - ORIENTE)", "TRAMO": "Sebastopol - Vasconia", "TP_DUCTO": "(Troncal)", "DISTRITO": "1", "DIAMETRO": "20\"", "TRM_REG": "(SEBASTOPOL - VASCONIA)", "ZONA": "1", "PK": "165+510", "PK_PAT": " ", "ID_EVENTO": " ", "TP_EVENTO": "OTRO", "LONG_EVENT": 40.0, "PRIORIDAD": "( )", "AMENAZA": "( )", "ESTADO_EG": " ", "FX2": " ", "OBSERVACION_GEOTECNISTA": " ", "OBSERVACIO": "Excavación", "PROFUNDIDA": 1.24, "COD_ID": "HALL-6", "ENTREGA": "E02_R2", "HRMS": " ", "LATITUD": 6.1080353510000691, "LONGITUD": -74.553838278999933, "ALTURA": 149.7343, "NORTE": 2233174.4546500002, "ESTE": 4828119.8211099999, "IMAGEN_1": "C002_IMG_20260203_072243.jpg", "IMAGEN_2": "C002_IMG_20260203_072255.jpg", "IMAGEN_3": "C002_IMG_20260203_072301.jpg", "VISUALIZAR_IMAGEN_1": "https://drive.google.com/uc?export=view&id=1Mci_fsq5fzMA7Z4Xd26XmQeyyQt9cDrh", "VISUALIZAR_IMAGEN_2": "https://drive.google.com/uc?export=view&id=1luyCiqK5_QnJgzh5Ohowq2KfdXCyNXe-", "VISUALIZAR_IMAGEN_3": "https://drive.google.com/uc?export=view&id=1IgcIJgKO7xGxopqNZEfS4P_iknBs_5zQ", "FUENTE": "IEDDV" }, "geometry": { "type": "Point", "coordinates": [ -74.553838278999933, 6.108035351000069, 149.734299999996438 ] } },
{ "type": "Feature", "properties": { "OBJECTID": 16, "FECHA": "3/02/2026 00:00:00 (UTC)", "DEPTO": "(BOYACÁ)", "MUNICIPIO": "PUERTO BOYACÁ", "VEREDA": "PALAGUA", "GASODUCTO": "(CENTRO - ORIENTE)", "TRAMO": "Sebastopol - Vasconia", "TP_DUCTO": "(Troncal)", "DISTRITO": "1", "DIAMETRO": "20\"", "TRM_REG": "(SEBASTOPOL - VASCONIA)", "ZONA": "1", "PK": "165+595", "PK_PAT": " ", "ID_EVENTO": " ", "TP_EVENTO": "OTRO", "LONG_EVENT": 40.0, "PRIORIDAD": "( )", "AMENAZA": "( )", "ESTADO_EG": " ", "FX2": " ", "OBSERVACION_GEOTECNISTA": " ", "OBSERVACIO": "Botadero de tierra de la excavación, altura aproximada de 3 mts", "PROFUNDIDA": 4.2, "COD_ID": "HALL-7", "ENTREGA": "E02_R2", "HRMS": " ", "LATITUD": 6.1073994590000211, "LONGITUD": -74.553433977999987, "ALTURA": 151.10890000000654, "NORTE": 2233104.0351, "ESTE": 4828164.3514400003, "IMAGEN_1": "C002_IMG_20260203_072740.jpg", "IMAGEN_2": "C002_IMG_20260203_072746.jpg", "IMAGEN_3": "C002_IMG_20260203_072752.jpg", "VISUALIZAR_IMAGEN_1": "https://drive.google.com/uc?export=view&id=1nBmYJSvlrmTD2RU6bMfQiw01tZX-IYIB", "VISUALIZAR_IMAGEN_2": "https://drive.google.com/uc?export=view&id=1T1xgJkx5C0ypN2I1z3CGjMjtbvihvbhG", "VISUALIZAR_IMAGEN_3": "https://drive.google.com/uc?export=view&id=1IMrClrX9WroSaACTSSZMIs4OKJW5FWnh", "FUENTE": "IEDDV" }, "geometry": { "type": "Point", "coordinates": [ -74.553433977999987, 6.107399459000021, 151.108900000006543 ] } },
{ "type": "Feature", "properties": { "OBJECTID": 17, "FECHA": "3/02/2026 00:00:00 (UTC)", "DEPTO": "(BOYACÁ)", "MUNICIPIO": "PUERTO BOYACÁ", "VEREDA": "PALAGUA", "GASODUCTO": "(CENTRO - ORIENTE)", "TRAMO": "Sebastopol - Vasconia", "TP_DUCTO": "(Troncal)", "DISTRITO": "1", "DIAMETRO": "20\"", "TRM_REG": "(SEBASTOPOL - VASCONIA)", "ZONA": "1", "PK": "168+262", "PK_PAT": " ", "ID_EVENTO": " ", "TP_EVENTO": "CARCAVAS", "LONG_EVENT": 10.0, "PRIORIDAD": "( )", "AMENAZA": "( )", "ESTADO_EG": " ", "FX2": " ", "OBSERVACION_GEOTECNISTA": " ", "OBSERVACIO": "Carcava, paralela a Cenit y TGI", "PROFUNDIDA": 1.2, "COD_ID": "HALL-8", "ENTREGA": "E02_R2", "HRMS": " ", "LATITUD": 6.0842396310000595, "LONGITUD": -74.551539177999985, "ALTURA": 149.8777, "NORTE": 2230543.3847099999, "ESTE": 4828366.63478, "IMAGEN_1": "C002_IMG_20260203_090950.jpg", "IMAGEN_2": "C002_IMG_20260203_091035.jpg", "IMAGEN_3": "C002_IMG_20260203_091042.jpg", "VISUALIZAR_IMAGEN_1": "https://drive.google.com/uc?export=view&id=1Ptgf9spsMxb03FzB84vixEEs25i_CiG-", "VISUALIZAR_IMAGEN_2": "https://drive.google.com/uc?export=view&id=11uUD4cKY_YYhYPDoX5tMi0fsWbRzpqnu", "VISUALIZAR_IMAGEN_3": "https://drive.google.com/uc?export=view&id=19Yr_DXppyHI8owFWSrn508Aiue9-XenB", "FUENTE": "IEDDV" }, "geometry": { "type": "Point", "coordinates": [ -74.551539177999985, 6.084239631000059, 149.877699999997276 ] } },
{ "type": "Feature", "properties": { "OBJECTID": 18, "FECHA": "28/01/2026 00:00:00 (UTC)", "DEPTO": "(TOLIMA)", "MUNICIPIO": "SAN SEBASTIÁN DE MARIQUITA", "VEREDA": "SAN ANTONIO", "GASODUCTO": "(CENTRO - ORIENTE)", "TRAMO": "Puerto Salgar - Mariquita", "TP_DUCTO": "(Troncal)", "DISTRITO": "2", "DIAMETRO": "20\"", "TRM_REG": "(VASCONIA - MARIQUITA)", "ZONA": "2", "PK": "290+332", "PK_PAT": " ", "ID_EVENTO": " ", "TP_EVENTO": "SOCAVACIÓN LATERAL", "LONG_EVENT": 100.0, "PRIORIDAD": "Medio", "AMENAZA": "Medio", "ESTADO_EG": " ", "FX2": " ", "OBSERVACION_GEOTECNISTA": "", "OBSERVACIO": "Se observa socavación lateral en margen izquierda del cauce por fuerza del agua y crecientes recientes. El proceso erosivo desestabiliza el talud, requiriendo evaluación técnica en la zona para mitigar riesgos de colapso de la banca", "PROFUNDIDA": 2.8, "COD_ID": "HALL-1", "ENTREGA": "E03_R2", "HRMS": " ", "LATITUD": 5.2548093460000587, "LONGITUD": -74.854911525999967, "ALTURA": 360.50840000000608, "NORTE": 2138952.48184, "ESTE": 4794503.2034400003, "IMAGEN_1": "C001_IMG_20260128_073156.jpg", "IMAGEN_2": "C001_IMG_20260128_073207.jpg", "IMAGEN_3": "C001_IMG_20260128_073127.jpg", "VISUALIZAR_IMAGEN_1": "https://drive.google.com/uc?export=view&id=1mWCc_jYs1gu3r96PjGhFwDXGVflYMC4O", "VISUALIZAR_IMAGEN_2": "https://drive.google.com/uc?export=view&id=1TWU5uEIeJ2YEHRJgu5tXa15wV6rsrPkK", "VISUALIZAR_IMAGEN_3": "https://drive.google.com/uc?export=view&id=15ad88e6hFmnn1aq5iUQFoCb2sC4j5u0Y", "FUENTE": "IEDDV" }, "geometry": { "type": "Point", "coordinates": [ -74.854911525999967, 5.254809346000059, 360.508400000006077 ] } },
{ "type": "Feature", "properties": { "OBJECTID": 1, "FECHA": "3/03/2026 00:00:00 (UTC)", "DEPTO": "(VALLE DEL CAUCA)", "MUNICIPIO": "LA VICTORIA", "VEREDA": "SAN JOSÉ", "GASODUCTO": "(MARIQUITA - CALI)", "TRAMO": "Obando - Tulua", "TP_DUCTO": "(Troncal)", "DISTRITO": "8", "DIAMETRO": "20\"", "TRM_REG": "(ARMENIA - CALI)", "ZONA": "2", "PK": "208+176", "PK_PAT": " ", "ID_EVENTO": " ", "TP_EVENTO": "DESLIZAMIENTO TRASLACIONAL", "LONG_EVENT": 20.0, "PRIORIDAD": "Bajo", "AMENAZA": "Bajo", "ESTADO_EG": " ", "FX2": " ", "OBSERVACION_GEOTECNISTA": "", "OBSERVACIO": "Deslizamiento traslacional activo por saturación y escorrentía sobre un talud de fuerte inclinación. La proximidad al eje del ducto (2m) exige medidas de estabilización y control de aguas para evitar el compromiso estructural por empuje lateral.", "PROFUNDIDA": 2.17, "COD_ID": "HALL-1", "ENTREGA": "E06_R2", "HRMS": " ", "LATITUD": 4.4871642630000679, "LONGITUD": -76.028615080999941, "ALTURA": 963.764, "NORTE": 2054522.966, "ESTE": 4663995.8699899996, "IMAGEN_1": "C001_IMG_20260303_073432.jpg", "IMAGEN_2": "C001_IMG_20260303_073439.jpg", "IMAGEN_3": "C001_IMG_20260303_073445.jpg", "VISUALIZAR_IMAGEN_1": "https://drive.google.com/uc?export=view&id=15femWGXkPbeR2ClbCaT-rqOMNcfOUpEw", "VISUALIZAR_IMAGEN_2": "https://drive.google.com/uc?export=view&id=1n-Q__x9kKENbbtoTcGWHw5cQ8zHS0_5n", "VISUALIZAR_IMAGEN_3": "https://drive.google.com/uc?export=view&id=1bpdJFcBJGR0IPj7zKHot8zdyjZyDDAEI", "FUENTE": "IEDDV" }, "geometry": { "type": "Point", "coordinates": [ -76.028615080999941, 4.487164263000068, 963.763999999995576 ] } },
{ "type": "Feature", "properties": { "OBJECTID": 2, "FECHA": "3/03/2026 00:00:00 (UTC)", "DEPTO": "(VALLE DEL CAUCA)", "MUNICIPIO": "LA VICTORIA", "VEREDA": "SAN JOSÉ", "GASODUCTO": "(MARIQUITA - CALI)", "TRAMO": "Obando - Tulua", "TP_DUCTO": "(Troncal)", "DISTRITO": "8", "DIAMETRO": "20\"", "TRM_REG": "(ARMENIA - CALI)", "ZONA": "2", "PK": "209+154", "PK_PAT": " ", "ID_EVENTO": " ", "TP_EVENTO": "DESLIZAMIENTO ROTACIONAL", "LONG_EVENT": 4.0, "PRIORIDAD": "Bajo", "AMENAZA": "Bajo", "ESTADO_EG": " ", "FX2": " ", "OBSERVACION_GEOTECNISTA": "", "OBSERVACIO": "Se identificó un deslizamiento rotacional a 5m del eje del ducto (costado derecho). La inestabilidad es producto de la pendiente crítica del talud combinada con procesos de erosión hídrica superficial.", "PROFUNDIDA": 1.15, "COD_ID": "HALL-2", "ENTREGA": "E06_R2", "HRMS": " ", "LATITUD": 4.4785297370000308, "LONGITUD": -76.030922585999974, "ALTURA": 964.3937, "NORTE": 2053568.6469099999, "ESTE": 4663735.6765599996, "IMAGEN_1": "C001_IMG_20260303_075444.jpg", "IMAGEN_2": "C001_IMG_20260303_075450.jpg", "IMAGEN_3": "C001_IMG_20260303_075456.jpg", "VISUALIZAR_IMAGEN_1": "https://drive.google.com/uc?export=view&id=1J_9i3TrSAiiFemebGrEQwvpzp1kiBdrm", "VISUALIZAR_IMAGEN_2": "https://drive.google.com/uc?export=view&id=1V2CcGzNs6-L7XfzxvtQ74glzUnL2-Onm", "VISUALIZAR_IMAGEN_3": "https://drive.google.com/uc?export=view&id=1jiwCzMv2C0ERIk7AyFr0wsqbvFJ6nHD1", "FUENTE": "IEDDV" }, "geometry": { "type": "Point", "coordinates": [ -76.030922585999974, 4.478529737000031, 964.393700000000536 ] } },
{ "type": "Feature", "properties": { "OBJECTID": 3, "FECHA": "3/03/2026 00:00:00 (UTC)", "DEPTO": "(VALLE DEL CAUCA)", "MUNICIPIO": "LA VICTORIA", "VEREDA": "SAN JOSÉ", "GASODUCTO": "(MARIQUITA - CALI)", "TRAMO": "Obando - Tulua", "TP_DUCTO": "(Troncal)", "DISTRITO": "8", "DIAMETRO": "20\"", "TRM_REG": "(ARMENIA - CALI)", "ZONA": "2", "PK": "210+055", "PK_PAT": " ", "ID_EVENTO": " ", "TP_EVENTO": "SURCOS", "LONG_EVENT": 5.0, "PRIORIDAD": "Bajo", "AMENAZA": "Bajo", "ESTADO_EG": " ", "FX2": " ", "OBSERVACION_GEOTECNISTA": "", "OBSERVACIO": "Se observan surcos erosivos sobre el DDV, originados por la acción combinada de la escorrentía superficial y el tránsito recurrente de ganado. Este factor degrada la cobertura vegetal y acelera la pérdida de suelo en la zona.", "PROFUNDIDA": 2.24, "COD_ID": "HALL-3", "ENTREGA": "E06_R2", "HRMS": " ", "LATITUD": 4.4740258150000614, "LONGITUD": -76.036798398999963, "ALTURA": 951.2670000000071, "NORTE": 2053073.00147, "ESTE": 4663081.1167000001, "IMAGEN_1": "C001_IMG_20260303_081541.jpg", "IMAGEN_2": "C001_IMG_20260303_081549.jpg", "IMAGEN_3": "C001_IMG_20260303_081600.jpg", "VISUALIZAR_IMAGEN_1": "https://drive.google.com/uc?export=view&id=1636p1dN8JgIBeFhft4H0dMBGXh-yzozh", "VISUALIZAR_IMAGEN_2": "https://drive.google.com/uc?export=view&id=1zwhdvS9igC41UOQwvUakQa2UBvphRTFm", "VISUALIZAR_IMAGEN_3": "https://drive.google.com/uc?export=view&id=1OxtBMmd7RWk4LCnm3XXSC_YRnxzgVDcF", "FUENTE": "IEDDV" }, "geometry": { "type": "Point", "coordinates": [ -76.036798398999963, 4.474025815000061, 951.267000000007101 ] } },
{ "type": "Feature", "properties": { "OBJECTID": 4, "FECHA": "21/03/2026 00:00:00 (UTC)", "DEPTO": "(VALLE DEL CAUCA)", "MUNICIPIO": "ZARZAL", "VEREDA": "LA PILA", "GASODUCTO": "(MARIQUITA - CALI)", "TRAMO": "Obando - Tulua", "TP_DUCTO": "(Troncal)", "DISTRITO": "8", "DIAMETRO": "20\"", "TRM_REG": "(ARMENIA - CALI)", "ZONA": "2", "PK": "237+397", "PK_PAT": " ", "ID_EVENTO": " ", "TP_EVENTO": "SOCAVACIÓN LATERAL", "LONG_EVENT": 8.0, "PRIORIDAD": "( )", "AMENAZA": "( )", "ESTADO_EG": " ", "FX2": " ", "OBSERVACION_GEOTECNISTA": " ", "OBSERVACIO": "Existe una excavación sobre el costado derecho del subfluvial, para construir gaviones.", "PROFUNDIDA": 1.4, "COD_ID": "HALL-4", "ENTREGA": "E06_R2", "HRMS": " ", "LATITUD": 4.2684806880000679, "LONGITUD": -76.113416159999986, "ALTURA": 941.0, "NORTE": 2030364.10843, "ESTE": 4654478.2055500001, "IMAGEN_1": "C002_IMG_20260321_074202.jpg", "IMAGEN_2": "C002_IMG_20260321_074206.jpg", "IMAGEN_3": "C002_IMG_20260321_074212.jpg", "VISUALIZAR_IMAGEN_1": "https://drive.google.com/uc?export=view&id=1FfnRWdOtBo6Y9ZxSjqunZr96crK1udQn", "VISUALIZAR_IMAGEN_2": "https://drive.google.com/uc?export=view&id=1EfHKF5x9VlJQB77xZpieeIztr5JIuGDG", "VISUALIZAR_IMAGEN_3": "https://drive.google.com/uc?export=view&id=1FQk9FuVODvrqNr6HfaKEiVjtblcpvxzm", "FUENTE": "IEDDV" }, "geometry": { "type": "Point", "coordinates": [ -76.113416159999986, 4.268480688000068, 941.0 ] } },
{ "type": "Feature", "properties": { "OBJECTID": 5, "FECHA": "21/03/2026 00:00:00 (UTC)", "DEPTO": "(VALLE DEL CAUCA)", "MUNICIPIO": "BUGALAGRANDE", "VEREDA": "URIBE URIBE", "GASODUCTO": "(MARIQUITA - CALI)", "TRAMO": "Obando - Tulua", "TP_DUCTO": "(Troncal)", "DISTRITO": "8", "DIAMETRO": "20\"", "TRM_REG": "(ARMENIA - CALI)", "ZONA": "2", "PK": "238+682", "PK_PAT": " ", "ID_EVENTO": " ", "TP_EVENTO": "SOCAVACIÓN LATERAL", "LONG_EVENT": 3.0, "PRIORIDAD": "( )", "AMENAZA": "( )", "ESTADO_EG": " ", "FX2": " ", "OBSERVACION_GEOTECNISTA": " ", "OBSERVACIO": "Socavacion lateral destruyó costado derecho del canal.", "PROFUNDIDA": 1.4, "COD_ID": "HALL-5", "ENTREGA": "E06_R2", "HRMS": " ", "LATITUD": 4.2596001280000451, "LONGITUD": -76.119804555999963, "ALTURA": 942.29919999999402, "NORTE": 2029384.30412, "ESTE": 4653764.5518699996, "IMAGEN_1": "C002_IMG_20260321_083625.jpg", "IMAGEN_2": "C002_IMG_20260321_083630.jpg", "IMAGEN_3": "C002_IMG_20260321_083637.jpg", "VISUALIZAR_IMAGEN_1": "https://drive.google.com/uc?export=view&id=1adb2-tqL_-2FZoKtLGoJc1Bh_-K_UQ6B", "VISUALIZAR_IMAGEN_2": "https://drive.google.com/uc?export=view&id=1Q0XbVmbNidJZnTJknzjO6xX4ObxXbcwy", "VISUALIZAR_IMAGEN_3": "https://drive.google.com/uc?export=view&id=1-EnT9j4yEiCdfWNesedQbX7fkL9wKjmp", "FUENTE": "IEDDV" }, "geometry": { "type": "Point", "coordinates": [ -76.119804555999963, 4.259600128000045, 942.299199999994016 ] } },
{ "type": "Feature", "properties": { "OBJECTID": 6, "FECHA": "27/02/2026 00:00:00 (UTC)", "DEPTO": "(VALLE DEL CAUCA)", "MUNICIPIO": "ANSERMANUEVO", "VEREDA": "LA PEDRERA", "GASODUCTO": "(MARIQUITA - CALI)", "TRAMO": "Ansermanuevo", "TP_DUCTO": "(Ramal)", "DISTRITO": "8", "DIAMETRO": "2\"", "TRM_REG": "(PEREIRA - ARMENIA)", "ZONA": "2", "PK": "011+067", "PK_PAT": "011+067", "ID_EVENTO": " ", "TP_EVENTO": "SURCOS", "LONG_EVENT": 3.0, "PRIORIDAD": "( )", "AMENAZA": "( )", "ESTADO_EG": " ", "FX2": " ", "OBSERVACION_GEOTECNISTA": null, "OBSERVACIO": " ", "PROFUNDIDA": 1.9, "COD_ID": "HALL-1", "ENTREGA": "E04_R2", "HRMS": " ", "LATITUD": 4.814599923, "LONGITUD": -75.969562405999994, "ALTURA": 925.06020000000717, "NORTE": 2090723.80314, "ESTE": 4670705.6423399998, "IMAGEN_1": "C002_IMG_20260227_093611.jpg", "IMAGEN_2": "C002_IMG_20260227_093616.jpg", "IMAGEN_3": "C002_IMG_20260227_093622.jpg", "VISUALIZAR_IMAGEN_1": "https://drive.google.com/uc?export=view&id=1_K2Y9vAwvVdbRXuyakzM1QrppeqAoluT", "VISUALIZAR_IMAGEN_2": "https://drive.google.com/uc?export=view&id=1EwGEAT-wDx8rXjvthG-jv68NLq5bj61n", "VISUALIZAR_IMAGEN_3": "https://drive.google.com/uc?export=view&id=17GMx6n4oVGckuDfXlo8HLk1cMIqlx9OU", "FUENTE": "IEDDV" }, "geometry": { "type": "Point", "coordinates": [ -75.969562405999966, 4.81459992300006, 925.060200000007171 ] } },
{ "type": "Feature", "properties": { "OBJECTID": 7, "FECHA": "26/02/2026 00:00:00 (UTC)", "DEPTO": "(VALLE DEL CAUCA)", "MUNICIPIO": "ANSERMANUEVO", "VEREDA": "ANACARO", "GASODUCTO": "(MARIQUITA - CALI)", "TRAMO": "Ansermanuevo", "TP_DUCTO": "(Ramal)", "DISTRITO": "8", "DIAMETRO": "2\"", "TRM_REG": "(PEREIRA - ARMENIA)", "ZONA": "2", "PK": "014+466", "PK_PAT": "014+466", "ID_EVENTO": " ", "TP_EVENTO": "DESLIZAMIENTO TRASLACIONAL", "LONG_EVENT": 20.0, "PRIORIDAD": "( )", "AMENAZA": "( )", "ESTADO_EG": " ", "FX2": " ", "OBSERVACION_GEOTECNISTA": null, "OBSERVACIO": " ", "PROFUNDIDA": 2.8, "COD_ID": "HALL-2", "ENTREGA": "E04_R2", "HRMS": " ", "LATITUD": 4.800262658, "LONGITUD": -75.991290417000002, "ALTURA": 952.9512, "NORTE": 2089148.0202299999, "ESTE": 4668287.1122099999, "IMAGEN_1": "C002_IMG_20260226_114709.jpg", "IMAGEN_2": "C002_IMG_20260226_114717.jpg", "IMAGEN_3": "C002_IMG_20260226_114722.jpg", "VISUALIZAR_IMAGEN_1": "https://drive.google.com/uc?export=view&id=1lIDVlDvVm0gD9LT1W9jrC58-_PRbHwc-", "VISUALIZAR_IMAGEN_2": "https://drive.google.com/uc?export=view&id=1DmmCK8BETfFYkx1gv2DoM87LKt4uY6o0", "VISUALIZAR_IMAGEN_3": "https://drive.google.com/uc?export=view&id=1mbOLD_NjUkLHLUkKy1152q-8EJHEwzXk", "FUENTE": "IEDDV" }, "geometry": { "type": "Point", "coordinates": [ -75.991290416999959, 4.800262658000065, 952.951199999995879 ] } },
{ "type": "Feature", "properties": { "OBJECTID": 8, "FECHA": "5/03/2026 00:00:00 (UTC)", "DEPTO": "(VALLE DEL CAUCA)", "MUNICIPIO": "LA VICTORIA", "VEREDA": "CHONTADURO", "GASODUCTO": "(MARIQUITA - CALI)", "TRAMO": "Obando - Tulua", "TP_DUCTO": "(Troncal)", "DISTRITO": "8", "DIAMETRO": "20\"", "TRM_REG": "(ARMENIA - CALI)", "ZONA": "2", "PK": "200+938", "PK_PAT": "200+938", "ID_EVENTO": " ", "TP_EVENTO": "SOCAVACIÓN LATERAL", "LONG_EVENT": 6.0, "PRIORIDAD": "( )", "AMENAZA": "( )", "ESTADO_EG": " ", "FX2": " ", "OBSERVACION_GEOTECNISTA": null, "OBSERVACIO": " ", "PROFUNDIDA": 2.03, "COD_ID": "HALL-3", "ENTREGA": "E04_R2", "HRMS": " ", "LATITUD": 4.543587628, "LONGITUD": -75.999365385000004, "ALTURA": 920.5974, "NORTE": 2060752.4585800001, "ESTE": 4667269.6408700002, "IMAGEN_1": "C002_IMG_20260305_091106.jpg", "IMAGEN_2": "C002_IMG_20260305_091114.jpg", "IMAGEN_3": "C002_IMG_20260305_091120.jpg", "VISUALIZAR_IMAGEN_1": "https://drive.google.com/uc?export=view&id=1VZwePMFvdSbbdbtIy6jQuLCE3xc2mN-4", "VISUALIZAR_IMAGEN_2": "https://drive.google.com/uc?export=view&id=1GhKu_3gAiRPq1alf6hu2ecx4fm_bLaS-", "VISUALIZAR_IMAGEN_3": "https://drive.google.com/uc?export=view&id=1w1llA0AJIwI98doKIemOCAKi6NAdkOoN", "FUENTE": "IEDDV" }, "geometry": { "type": "Point", "coordinates": [ -75.999365384999976, 4.543587628000068, 920.597399999998743 ] } },
{ "type": "Feature", "properties": { "OBJECTID": 9, "FECHA": "2/03/2026 00:00:00 (UTC)", "DEPTO": "(VALLE DEL CAUCA)", "MUNICIPIO": "CARTAGO", "VEREDA": "ZARAGOZA", "GASODUCTO": "(MARIQUITA - CALI)", "TRAMO": "Cartago", "TP_DUCTO": "(Ramal)", "DISTRITO": "8", "DIAMETRO": "3\"", "TRM_REG": "(PEREIRA - ARMENIA)", "ZONA": "2", "PK": "002+521", "PK_PAT": "002+521", "ID_EVENTO": " ", "TP_EVENTO": "SURCOS", "LONG_EVENT": 20.0, "PRIORIDAD": "Bajo", "AMENAZA": "Bajo", "ESTADO_EG": " ", "FX2": " ", "OBSERVACION_GEOTECNISTA": null, "OBSERVACIO": " ", "PROFUNDIDA": 1.42, "COD_ID": "HALL-4", "ENTREGA": "E04_R2", "HRMS": " ", "LATITUD": 4.719480958, "LONGITUD": -75.905702118999997, "ALTURA": 974.4213, "NORTE": 2080169.8178000001, "ESTE": 4677748.8070799997, "IMAGEN_1": "C001_IMG_20260302_085548.jpg", "IMAGEN_2": "C001_IMG_20260302_085559.jpg", "IMAGEN_3": "C001_IMG_20260302_085618.jpg", "VISUALIZAR_IMAGEN_1": "https://drive.google.com/uc?export=view&id=147oFPnxP4JEfk9o4IgjQZkl8_8tWHLe8", "VISUALIZAR_IMAGEN_2": "https://drive.google.com/uc?export=view&id=1qecop8kx-HQAdva-awRLTR9UwxpX8MTt", "VISUALIZAR_IMAGEN_3": "https://drive.google.com/uc?export=view&id=1oCE0AOyj7V9FPjYVKMW67AKDXHV4UCb3", "FUENTE": "IEDDV" }, "geometry": { "type": "Point", "coordinates": [ -75.905702118999955, 4.719480958000076, 974.421300000001793 ] } },
{ "type": "Feature", "properties": { "OBJECTID": 10, "FECHA": "20/02/2026 00:00:00 (UTC)", "DEPTO": "(RISARALDA)", "MUNICIPIO": "BALBOA", "VEREDA": "LA BODEGA", "GASODUCTO": "(MARIQUITA - CALI)", "TRAMO": "La Celia", "TP_DUCTO": "(Ramal)", "DISTRITO": "7", "DIAMETRO": "2\"", "TRM_REG": "(PEREIRA - ARMENIA)", "ZONA": "2", "PK": "002+838", "PK_PAT": "002+838", "ID_EVENTO": " ", "TP_EVENTO": "SURCOS", "LONG_EVENT": 20.0, "PRIORIDAD": "( )", "AMENAZA": "( )", "ESTADO_EG": " ", "FX2": " ", "OBSERVACION_GEOTECNISTA": null, "OBSERVACIO": " ", "PROFUNDIDA": 0.0, "COD_ID": "HALL-5", "ENTREGA": "E04_R2", "HRMS": " ", "LATITUD": 4.900210738, "LONGITUD": -75.932076171000006, "ALTURA": 927.2307, "NORTE": 2100177.56886, "ESTE": 4674907.1936100004, "IMAGEN_1": "C002_IMG_20260220_123151.jpg", "IMAGEN_2": "C002_IMG_20260220_123156.jpg", "IMAGEN_3": "C002_IMG_20260220_123202.jpg", "VISUALIZAR_IMAGEN_1": "https://drive.google.com/uc?export=view&id=1o2GGyrAR_jvne7iggc1NgG2T0MVPr4g9", "VISUALIZAR_IMAGEN_2": "https://drive.google.com/uc?export=view&id=1EY6lfcllNKvMDVHoLlmjfuld1NakebFf", "VISUALIZAR_IMAGEN_3": "https://drive.google.com/uc?export=view&id=1DH81-fq958ENSUfo98-oQAJhxSqo_4zG", "FUENTE": "IEDDV" }, "geometry": { "type": "Point", "coordinates": [ -75.932076170999949, 4.900210738000055, 927.2307 ] } },
{ "type": "Feature", "properties": { "OBJECTID": 11, "FECHA": "16/02/2026 00:00:00 (UTC)", "DEPTO": "(RISARALDA)", "MUNICIPIO": "LA CELIA", "VEREDA": "PATIO BONITO", "GASODUCTO": "(MARIQUITA - CALI)", "TRAMO": "La Celia", "TP_DUCTO": "(Ramal)", "DISTRITO": "7", "DIAMETRO": "2\"", "TRM_REG": "(PEREIRA - ARMENIA)", "ZONA": "2", "PK": "007+283", "PK_PAT": "007+283", "ID_EVENTO": " ", "TP_EVENTO": "DESLIZAMIENTO TRASLACIONAL", "LONG_EVENT": 8.0, "PRIORIDAD": "( )", "AMENAZA": "( )", "ESTADO_EG": " ", "FX2": " ", "OBSERVACION_GEOTECNISTA": null, "OBSERVACIO": " ", "PROFUNDIDA": 2.5, "COD_ID": "HALL-6", "ENTREGA": "E04_R2", "HRMS": " ", "LATITUD": 4.991272587, "LONGITUD": -75.982471331, "ALTURA": 1635.257, "NORTE": 2110277.57651, "ESTE": 4669359.9378500003, "IMAGEN_1": "C002_IMG_20260216_093811.jpg", "IMAGEN_2": "C002_IMG_20260216_093820.jpg", "IMAGEN_3": "C002_IMG_20260216_093826.jpg", "VISUALIZAR_IMAGEN_1": "https://drive.google.com/uc?export=view&id=1hdpx_iTF19Djx3iQ_VRogaiwk0c7Fmgy", "VISUALIZAR_IMAGEN_2": "https://drive.google.com/uc?export=view&id=1L5ArjvN-A6lY1YxE_ach88GVboztmxrX", "VISUALIZAR_IMAGEN_3": "https://drive.google.com/uc?export=view&id=1ZPdQ_e_K4Hn1YyZL2McV5vByDwRgq8_y", "FUENTE": "IEDDV" }, "geometry": { "type": "Point", "coordinates": [ -75.982471330999942, 4.991272587000026, 1635.256999999997788 ] } },
{ "type": "Feature", "properties": { "OBJECTID": 1, "FECHA": "16\/04\/2026 00:00:00 (UTC)", "DEPTO": "(TOLIMA)", "MUNICIPIO": "ESPINAL", "VEREDA": "LA ARENOSA", "GASODUCTO": "CENTRO - ORIENTE", "TRAMO": "Gualanday - Guasimal", "TP_DUCTO": "Troncal", "DISTRITO": "2", "DIAMETRO": "12\"", "TRM_REG": "GUALANDAY - NEIVA", "ZONA": "2", "PK": "424+154", "PK_PAT": " ", "ID_EVENTO": " ", "TP_EVENTO": "SOCAVACIÓN DE FONDO", "LONG_EVENT": 4.0, "PRIORIDAD": "Medio", "AMENAZA": "Medio", "ESTADO_EG": " ", "FX2": " ", "OBSERVACION_GEOTECNISTA": "", "OBSERVACIO": "Exposición de tuberia por excavación mecanica en canal de irrigación. L=1m. Zona con vegetación espesa.", "PROFUNDIDA": 0.0, "COD_ID": "HALL-1", "ENTREGA": "E09_R2", "HRMS": "0,891", "LATITUD": 4.2161759720000305, "LONGITUD": -74.996210596999958, "ALTURA": 404.5341999999946, "NORTE": 2024169.3624499999, "ESTE": 4778512.8841399997, "IMAGEN_1": "C001_IMG_20260416_084840.jpg", "IMAGEN_2": "C001_IMG_20260416_084846.jpg", "IMAGEN_3": "C001_IMG_20260416_084855.jpg", "VISUALIZAR_IMAGEN_1": "https:\/\/drive.google.com\/uc?export=view&id=11Jk_Tcmlo2zfDlBxY5QrholeqCXyZTAq", "VISUALIZAR_IMAGEN_2": "https:\/\/drive.google.com\/uc?export=view&id=1IzfRG59UA1Vr7K0nXUQ5IAFtnHLTg-ln", "VISUALIZAR_IMAGEN_3": "https:\/\/drive.google.com\/uc?export=view&id=1-kA9fmX1xWQHql82YMvnrQBOu28XoUoc", "FUENTE": "IEDDV" }, "geometry": { "type": "Point", "coordinates": [ -74.996210596999958, 4.21617597200003, 404.534199999994598 ] } },
{ "type": "Feature", "properties": { "OBJECTID": 2, "FECHA": "17\/04\/2026 00:00:00 (UTC)", "DEPTO": "(TOLIMA)", "MUNICIPIO": "GUAMO", "VEREDA": "LAS MERCEDES EL OVAL", "GASODUCTO": "CENTRO - ORIENTE", "TRAMO": "Gualanday - Guasimal", "TP_DUCTO": "Troncal", "DISTRITO": "2", "DIAMETRO": "12\"", "TRM_REG": "GUALANDAY - NEIVA", "ZONA": "2", "PK": "429+773", "PK_PAT": " ", "ID_EVENTO": " ", "TP_EVENTO": "SOCAVACIÓN DE FONDO", "LONG_EVENT": 1.0, "PRIORIDAD": "Medio", "AMENAZA": "Medio", "ESTADO_EG": " ", "FX2": " ", "OBSERVACION_GEOTECNISTA": "", "OBSERVACIO": "Socavación en el fondo del cauce por flujo hidráulico. La limpieza mecánica del canal reduce el recubrimiento protector de la tubería, comprometiendo su integridad estructural y aumentando el riesgo de exposición y daño directo a la infraestructura", "PROFUNDIDA": 0.4, "COD_ID": "HALL-2", "ENTREGA": "E09_R2", "HRMS": "0,705", "LATITUD": 4.1664432490000536, "LONGITUD": -74.987967143999981, "ALTURA": 361.9451, "NORTE": 2018668.6713399999, "ESTE": 4779413.94405, "IMAGEN_1": "C001_IMG_20260417_085159.jpg", "IMAGEN_2": "C001_IMG_20260417_085216.jpg", "IMAGEN_3": "C001_IMG_20260417_085224.jpg", "VISUALIZAR_IMAGEN_1": "https:\/\/drive.google.com\/uc?export=view&id=1ug3q4OMo81OvD-J7ewkoHch6mvw0nZnU", "VISUALIZAR_IMAGEN_2": "https:\/\/drive.google.com\/uc?export=view&id=1-uxYLpU8iw_ynQrRseCb5FnJZ2jRLZbR", "VISUALIZAR_IMAGEN_3": "https:\/\/drive.google.com\/uc?export=view&id=1oJHkUIR7CqjNk3J2W1RJqcPKMBTNB6qt", "FUENTE": "IEDDV" }, "geometry": { "type": "Point", "coordinates": [ -74.987967143999981, 4.166443249000054, 361.945099999997183 ] } },
{ "type": "Feature", "properties": { "OBJECTID": 3, "FECHA": "21\/04\/2026 00:00:00 (UTC)", "DEPTO": "(TOLIMA)", "MUNICIPIO": "PURIFICACIÓN", "VEREDA": "BAURA", "GASODUCTO": "CENTRO - ORIENTE", "TRAMO": "Purificacion", "TP_DUCTO": "Ramal", "DISTRITO": "2", "DIAMETRO": "2\"", "TRM_REG": "GUALANDAY - NEIVA", "ZONA": "2", "PK": "001+414", "PK_PAT": " ", "ID_EVENTO": " ", "TP_EVENTO": "SURCOS", "LONG_EVENT": 10.0, "PRIORIDAD": "Medio", "AMENAZA": "Medio", "ESTADO_EG": " ", "FX2": " ", "OBSERVACION_GEOTECNISTA": "", "OBSERVACIO": "Se evidencian surcos y erosión superficial por escorrentía. La textura arenosa del suelo eleva su erodabilidad, facilitando el arrastre de partículas. L=5m, An=2m, Al=5m", "PROFUNDIDA": 1.15, "COD_ID": "HALL-3", "ENTREGA": "E09_R2", "HRMS": "0,963", "LATITUD": 3.8773656580000306, "LONGITUD": -74.932246785999951, "ALTURA": 293.3824, "NORTE": 1986694.6256899999, "ESTE": 4785523.4565099999, "IMAGEN_1": "C001_IMG_20260421_081125.jpg", "IMAGEN_2": "C001_IMG_20260421_081136.jpg", "IMAGEN_3": "C001_IMG_20260421_081148.jpg", "VISUALIZAR_IMAGEN_1": "https:\/\/drive.google.com\/uc?export=view&id=1SQV72TRqALXunwmGZYBMHJxnKSy1le0k", "VISUALIZAR_IMAGEN_2": "https:\/\/drive.google.com\/uc?export=view&id=1P44U0KP6TbEmkp1gDrxumY_8nskGOZC9", "VISUALIZAR_IMAGEN_3": "https:\/\/drive.google.com\/uc?export=view&id=1-FTkRKf6hO4fscypYVhv5_RqJ9IN6P69", "FUENTE": "IEDDV" }, "geometry": { "type": "Point", "coordinates": [ -74.932246785999951, 3.877365658000031, 293.382400000002235 ] } },
{ "type": "Feature", "properties": { "OBJECTID": 4, "FECHA": "22\/04\/2026 00:00:00 (UTC)", "DEPTO": "(TOLIMA)", "MUNICIPIO": "SALDAÑA", "VEREDA": "JABALCÓN", "GASODUCTO": "CENTRO - ORIENTE", "TRAMO": "Gualanday - Guasimal", "TP_DUCTO": "Troncal", "DISTRITO": "2", "DIAMETRO": "12\"", "TRM_REG": "GUALANDAY - NEIVA", "ZONA": "2", "PK": "468+690", "PK_PAT": " ", "ID_EVENTO": " ", "TP_EVENTO": "SURCOS", "LONG_EVENT": 20.0, "PRIORIDAD": "Bajo", "AMENAZA": "Bajo", "ESTADO_EG": " ", "FX2": " ", "OBSERVACION_GEOTECNISTA": "", "OBSERVACIO": "Se observan surcos por erosión hidrica y acción del viento, con formaciones rectas paralelas al ducto.", "PROFUNDIDA": 1.77, "COD_ID": "HALL-4", "ENTREGA": "E09_R2", "HRMS": "0,776", "LATITUD": 3.8637732650000203, "LONGITUD": -75.051233837999973, "ALTURA": 318.7727, "NORTE": 1985222.9016400001, "ESTE": 4772306.9682, "IMAGEN_1": "C001_IMG_20260422_084548.jpg", "IMAGEN_2": "C001_IMG_20260422_084555.jpg", "IMAGEN_3": "C001_IMG_20260422_084608.jpg", "VISUALIZAR_IMAGEN_1": "https:\/\/drive.google.com\/uc?export=view&id=17zGB0jCiDDetsGi6q0UZKZ5vEqdFvsgY", "VISUALIZAR_IMAGEN_2": "https:\/\/drive.google.com\/uc?export=view&id=1vJKVpBX_PpkmfFjk4I3um_NfEYlgQlAF", "VISUALIZAR_IMAGEN_3": "https:\/\/drive.google.com\/uc?export=view&id=1369wnZGfFSALljj6DlmWChnrEdotbxFJ", "FUENTE": "IEDDV" }, "geometry": { "type": "Point", "coordinates": [ -75.051233837999973, 3.86377326500002, 318.77270000000135 ] } },
{ "type": "Feature", "properties": { "OBJECTID": 5, "FECHA": "20\/04\/2026 00:00:00 (UTC)", "DEPTO": "(TOLIMA)", "MUNICIPIO": "GUAMO", "VEREDA": "CARACOLI E IGUAES", "GASODUCTO": "CENTRO - ORIENTE", "TRAMO": "Gualanday - Guasimal", "TP_DUCTO": "Troncal", "DISTRITO": "2", "DIAMETRO": "12\"", "TRM_REG": "GUALANDAY - NEIVA", "ZONA": "2", "PK": "452+197", "PK_PAT": " ", "ID_EVENTO": " ", "TP_EVENTO": "SOCAVACIÓN DE FONDO", "LONG_EVENT": 1.0, "PRIORIDAD": "Medio", "AMENAZA": "Medio", "ESTADO_EG": " ", "FX2": " ", "OBSERVACION_GEOTECNISTA": "", "OBSERVACIO": "Se observa tuberia expuesta en el fondo del cauce debido al flujo hidraulico y a la poca profundidad del ducto en este cauce.", "PROFUNDIDA": 0.0, "COD_ID": "HALL-5", "ENTREGA": "E09_R2", "HRMS": "0,54", "LATITUD": 3.9800167360000387, "LONGITUD": -74.994239449999952, "ALTURA": 335.4427, "NORTE": 1998059.46001, "ESTE": 4778666.7075500004, "IMAGEN_1": "C001_IMG_20260420_075203.jpg", "IMAGEN_2": "C001_IMG_20260420_075212.jpg", "IMAGEN_3": "C001_IMG_20260420_075221.jpg", "VISUALIZAR_IMAGEN_1": "https:\/\/drive.google.com\/uc?export=view&id=1gMXQdh7ruXntAMcBeR3qb4QgmW-ojh-Q", "VISUALIZAR_IMAGEN_2": "https:\/\/drive.google.com\/uc?export=view&id=1lNqEZ5O5TbViP6A1Qi65VrU6Ce2KHM2p", "VISUALIZAR_IMAGEN_3": "https:\/\/drive.google.com\/uc?export=view&id=14hAikvgjAFHldCjXfSBhKPv39MklbcBN", "FUENTE": "IEDDV" }, "geometry": { "type": "Point", "coordinates": [ -74.994239449999952, 3.980016736000039, 335.442699999999604 ] } },
{ "type": "Feature", "properties": { "OBJECTID": 6, "FECHA": "17\/04\/2026 00:00:00 (UTC)", "DEPTO": "(TOLIMA)", "MUNICIPIO": "GUAMO", "VEREDA": "CALLEJON DE GUADUAS", "GASODUCTO": "CENTRO - ORIENTE", "TRAMO": "Gualanday - Guasimal", "TP_DUCTO": "Troncal", "DISTRITO": "2", "DIAMETRO": "12\"", "TRM_REG": "GUALANDAY - NEIVA", "ZONA": "2", "PK": "433+589", "PK_PAT": " ", "ID_EVENTO": " ", "TP_EVENTO": "SOCAVACIÓN DE FONDO", "LONG_EVENT": 2.0, "PRIORIDAD": "Medio", "AMENAZA": "Medio", "ESTADO_EG": " ", "FX2": " ", "OBSERVACION_GEOTECNISTA": "", "OBSERVACIO": "Socavación de fondo. El acceso al cauce está restringido por la alta pendiente de los márgenes. No obstante, dada la cota del detector 2.32 m frente a la profundidad visual del canal 2m, se supone un riesgo alto de exposición de la tubería.", "PROFUNDIDA": 2.32, "COD_ID": "HALL-6", "ENTREGA": "E09_R2", "HRMS": "0,531", "LATITUD": 4.1352447240000743, "LONGITUD": -74.974598606999962, "ALTURA": 372.3838, "NORTE": 2015215.72535, "ESTE": 4780889.3046599999, "IMAGEN_1": "C001_IMG_20260417_120204.jpg", "IMAGEN_2": "C001_IMG_20260417_120213.jpg", "IMAGEN_3": "C001_IMG_20260417_120219.jpg", "VISUALIZAR_IMAGEN_1": "https:\/\/drive.google.com\/uc?export=view&id=1iIQJ7Zexh_R5R2bzBYtnruy3ysUKVE8B", "VISUALIZAR_IMAGEN_2": "https:\/\/drive.google.com\/uc?export=view&id=1RFg9Hwhgw50MYmYL0XL3dCMcrPvjiXfu", "VISUALIZAR_IMAGEN_3": "https:\/\/drive.google.com\/uc?export=view&id=1-UNuANnp8pT0d2wmey-_VaILc952f0ue", "FUENTE": "IEDDV" }, "geometry": { "type": "Point", "coordinates": [ -74.974598606999962, 4.135244724000074, 372.383799999995972 ] } },
{ "type": "Feature", "properties": { "OBJECTID": 7, "FECHA": "18\/04\/2026 00:00:00 (UTC)", "DEPTO": "(TOLIMA)", "MUNICIPIO": "GUAMO", "VEREDA": "JAGUALITO PUEBLO NUEVO", "GASODUCTO": "CENTRO - ORIENTE", "TRAMO": "Gualanday - Guasimal", "TP_DUCTO": "Troncal", "DISTRITO": "2", "DIAMETRO": "12\"", "TRM_REG": "GUALANDAY - NEIVA", "ZONA": "2", "PK": "436+617", "PK_PAT": " ", "ID_EVENTO": " ", "TP_EVENTO": "SOCAVACIÓN LATERAL", "LONG_EVENT": 1.5, "PRIORIDAD": "Medio", "AMENAZA": "Medio", "ESTADO_EG": " ", "FX2": " ", "OBSERVACION_GEOTECNISTA": "", "OBSERVACIO": "Socavación en margen izquierda con tubería expuesta. Aunque el diámetro observado (4\") difiere del registrado en la base de datos (12\"), el KMZ y localizador confirman que es el ducto de TGI. Se requiere verificación y obras de protección.", "PROFUNDIDA": 0.0, "COD_ID": "HALL-7", "ENTREGA": "E09_R2", "HRMS": "0,57", "LATITUD": 4.1086984440000265, "LONGITUD": -74.972902501999954, "ALTURA": 351.6566, "NORTE": 2012280.3844900001, "ESTE": 4781070.3195700003, "IMAGEN_1": "C001_IMG_20260418_084255.jpg", "IMAGEN_2": "C001_IMG_20260418_084301.jpg", "IMAGEN_3": "C001_IMG_20260418_084321.jpg", "VISUALIZAR_IMAGEN_1": "https:\/\/drive.google.com\/uc?export=view&id=1Blw6Acfb8e_OKNdmvMmkI7bZxe2HQJ2l", "VISUALIZAR_IMAGEN_2": "https:\/\/drive.google.com\/uc?export=view&id=1zyfjGZtucZZttLPmoTWoy_q1Lq4EMAEL", "VISUALIZAR_IMAGEN_3": "https:\/\/drive.google.com\/uc?export=view&id=1bwhW0sejMH6zu2yOXhykkpA6W1YyTdAV", "FUENTE": "IEDDV" }, "geometry": { "type": "Point", "coordinates": [ -74.972902501999954, 4.108698444000026, 351.656600000002072 ] } },
{ "type": "Feature", "properties": { "OBJECTID": 8, "FECHA": "20\/04\/2026 00:00:00 (UTC)", "DEPTO": "(TOLIMA)", "MUNICIPIO": "SALDAÑA", "VEREDA": "PALMAR ARENOSA", "GASODUCTO": "CENTRO - ORIENTE", "TRAMO": "Gualanday - Guasimal", "TP_DUCTO": "Troncal", "DISTRITO": "2", "DIAMETRO": "12\"", "TRM_REG": "GUALANDAY - NEIVA", "ZONA": "2", "PK": "455+900", "PK_PAT": " ", "ID_EVENTO": " ", "TP_EVENTO": "SOCAVACIÓN LATERAL", "LONG_EVENT": 3.0, "PRIORIDAD": "Medio", "AMENAZA": "Medio", "ESTADO_EG": " ", "FX2": " ", "OBSERVACION_GEOTECNISTA": "", "OBSERVACIO": "Se observa socavacion en el margen inicial debido a flujo de agua de escorrentia proveniente del terreno circundante", "PROFUNDIDA": 2.84, "COD_ID": "HALL-8", "ENTREGA": "E09_R2", "HRMS": "0,985", "LATITUD": 3.9506923480000751, "LONGITUD": -75.009608428999968, "ALTURA": 346.2257, "NORTE": 1994821.5273200001, "ESTE": 4776952.3992100004, "IMAGEN_1": "C001_IMG_20260420_093147.jpg", "IMAGEN_2": "C001_IMG_20260420_093155.jpg", "IMAGEN_3": "C001_IMG_20260420_093209.jpg", "VISUALIZAR_IMAGEN_1": "https:\/\/drive.google.com\/uc?export=view&id=1g9s7hPJxNOQnzi1eNWi2M4rvxtAf1Ara", "VISUALIZAR_IMAGEN_2": "https:\/\/drive.google.com\/uc?export=view&id=16NcGA5tvOGqKKew0eopnmTJ9lme7Fl7J", "VISUALIZAR_IMAGEN_3": "https:\/\/drive.google.com\/uc?export=view&id=1msA-4BrM3tWBTKPXcktvqDgq_wdG_xrJ", "FUENTE": "IEDDV" }, "geometry": { "type": "Point", "coordinates": [ -75.009608428999968, 3.950692348000075, 346.225699999995413 ] } },
{ "type": "Feature", "properties": { "OBJECTID": 9, "FECHA": "20\/04\/2026 00:00:00 (UTC)", "DEPTO": "(TOLIMA)", "MUNICIPIO": "SALDAÑA", "VEREDA": "PALMAR ARENOSA", "GASODUCTO": "CENTRO - ORIENTE", "TRAMO": "Gualanday - Guasimal", "TP_DUCTO": "Troncal", "DISTRITO": "2", "DIAMETRO": "12\"", "TRM_REG": "GUALANDAY - NEIVA", "ZONA": "2", "PK": "457+335", "PK_PAT": " ", "ID_EVENTO": " ", "TP_EVENTO": "SOCAVACIÓN LATERAL", "LONG_EVENT": 3.0, "PRIORIDAD": "Medio", "AMENAZA": "Medio", "ESTADO_EG": " ", "FX2": " ", "OBSERVACION_GEOTECNISTA": "", "OBSERVACIO": "Se observa gavión en mal estado con perdida de material por socavación en la margen derecha del cauce.", "PROFUNDIDA": 1.12, "COD_ID": "HALL-9", "ENTREGA": "E09_R2", "HRMS": "0,964", "LATITUD": 3.9410630020000212, "LONGITUD": -75.018022546999987, "ALTURA": 321.09540000000561, "NORTE": 1993759.17554, "ESTE": 4776015.5455400003, "IMAGEN_1": "C001_IMG_20260420_100808.jpg", "IMAGEN_2": "C001_IMG_20260420_100813.jpg", "IMAGEN_3": "C001_IMG_20260420_100819.jpg", "VISUALIZAR_IMAGEN_1": "https:\/\/drive.google.com\/uc?export=view&id=1V33ifqN0zQSsKsoLyFdeONk7mYiMtVaD", "VISUALIZAR_IMAGEN_2": "https:\/\/drive.google.com\/uc?export=view&id=1JtgWwT0EwMPH-sfq3Aq3LmYnf9xqbo5I", "VISUALIZAR_IMAGEN_3": "https:\/\/drive.google.com\/uc?export=view&id=1YX60oHZ1apUUJdDr-73O1DzkQ4zp-Zly", "FUENTE": "IEDDV" }, "geometry": { "type": "Point", "coordinates": [ -75.018022546999987, 3.941063002000021, 321.095400000005611 ] } },
{ "type": "Feature", "properties": { "OBJECTID": 10, "FECHA": "19\/04\/2026 00:00:00 (UTC)", "DEPTO": "(HUILA)", "MUNICIPIO": "AIPE", "VEREDA": "DINDAL", "GASODUCTO": "CENTRO - ORIENTE", "TRAMO": "Guasimal - Dina", "TP_DUCTO": "Troncal", "DISTRITO": "2", "DIAMETRO": "12\"", "TRM_REG": "GUALANDAY - NEIVA", "ZONA": "2", "PK": "561+280", "PK_PAT": "", "ID_EVENTO": "", "TP_EVENTO": "OTRO", "LONG_EVENT": 5.0, "PRIORIDAD": "()", "AMENAZA": "()", "ESTADO_EG": "", "FX2": "", "OBSERVACION_GEOTECNISTA": "", "OBSERVACIO": "Excavación sobre el eje de tubería.", "PROFUNDIDA": 4.2, "COD_ID": "HALL-1", "ENTREGA": "E12_R2", "HRMS": " ", "LATITUD": 3.1043593320000582, "LONGITUD": -75.287634347999983, "ALTURA": 427.3873, "NORTE": 1901315.4521000001, "ESTE": 4745848.7492699996, "IMAGEN_1": "C002_IMG_20260419_102457.jpg", "IMAGEN_2": "C002_IMG_20260419_102502.jpg", "IMAGEN_3": "C002_IMG_20260419_102506.jpg", "VISUALIZAR_IMAGEN_1": "https:\/\/drive.google.com\/uc?export=view&id=1Pb0P42zxZ6Nf4u4D_P9gNBgu7AVsish_", "VISUALIZAR_IMAGEN_2": "https:\/\/drive.google.com\/uc?export=view&id=1SeQBivAFhTKur0OzeQcSs0Y6iXD8Xu1N", "VISUALIZAR_IMAGEN_3": "https:\/\/drive.google.com\/uc?export=view&id=1Jxi4RjaDdckv-b1hWtKK5iObZQju4hMd", "FUENTE": "IEDDV" }, "geometry": { "type": "Point", "coordinates": [ -75.287634347999983, 3.104359332000058, 427.387300000002142 ] } },
{ "type": "Feature", "properties": { "OBJECTID": 11, "FECHA": "18\/04\/2026 00:00:00 (UTC)", "DEPTO": "(HUILA)", "MUNICIPIO": "AIPE", "VEREDA": "DINDAL", "GASODUCTO": "CENTRO - ORIENTE", "TRAMO": "Guasimal - Dina", "TP_DUCTO": "Troncal", "DISTRITO": "2", "DIAMETRO": "12\"", "TRM_REG": "GUALANDAY - NEIVA", "ZONA": "2", "PK": "556+225", "PK_PAT": "", "ID_EVENTO": "", "TP_EVENTO": "DESLIZAMIENTO ROTACIONAL", "LONG_EVENT": 3.0, "PRIORIDAD": "()", "AMENAZA": "()", "ESTADO_EG": "", "FX2": "", "OBSERVACION_GEOTECNISTA": "", "OBSERVACIO": "Deslizamiento rotacional por saturación del suelo en cercanías al subfluvial.", "PROFUNDIDA": 1.2, "COD_ID": "HALL-2", "ENTREGA": "E12_R2", "HRMS": " ", "LATITUD": 3.148285908000048, "LONGITUD": -75.278860256999963, "ALTURA": 392.9569, "NORTE": 1906170.5990800001, "ESTE": 4746834.5894099995, "IMAGEN_1": "C002_IMG_20260418_094930.jpg", "IMAGEN_2": "C002_IMG_20260418_094919.jpg", "IMAGEN_3": "C002_IMG_20260418_094935.jpg", "VISUALIZAR_IMAGEN_1": "https:\/\/drive.google.com\/uc?export=view&id=1ZrmBNqagmlwsMK1G4Q_EgdpPlt8ZgwnY", "VISUALIZAR_IMAGEN_2": "https:\/\/drive.google.com\/uc?export=view&id=1sJjlGGShOglOXtJGhyTvWL5ZVLfat39S", "VISUALIZAR_IMAGEN_3": "https:\/\/drive.google.com\/uc?export=view&id=1GQOjAVsfnpZTqUVNE1FUriCXtCIjv3xV", "FUENTE": "IEDDV" }, "geometry": { "type": "Point", "coordinates": [ -75.278860256999963, 3.148285908000048, 392.95690000000468 ] } },
{ "type": "Feature", "properties": { "OBJECTID": 12, "FECHA": "20\/04\/2026 00:00:00 (UTC)", "DEPTO": "(HUILA)", "MUNICIPIO": "NEIVA", "VEREDA": "GUACIRCO - SAN JORGE", "GASODUCTO": "CENTRO - ORIENTE", "TRAMO": "Dina - Tello", "TP_DUCTO": "Troncal", "DISTRITO": "2", "DIAMETRO": "6\"", "TRM_REG": "GUALANDAY - NEIVA", "ZONA": "2", "PK": "002+172", "PK_PAT": "", "ID_EVENTO": "", "TP_EVENTO": "SOCAVACIÓN LATERAL", "LONG_EVENT": 3.0, "PRIORIDAD": "()", "AMENAZA": "()", "ESTADO_EG": "", "FX2": "", "OBSERVACION_GEOTECNISTA": "", "OBSERVACIO": "Socavación lateral en margen derecha del cruce subfluvial.  ", "PROFUNDIDA": 1.8, "COD_ID": "HALL-3", "ENTREGA": "E12_R2", "HRMS": "", "LATITUD": 3.0623911540000677, "LONGITUD": -75.282692433999955, "ALTURA": 447.8333, "NORTE": 1896673.5559400001, "ESTE": 4746388.1261400003, "IMAGEN_1": "C002_IMG_20260420_074828.jpg", "IMAGEN_2": "C002_IMG_20260420_074840.jpg", "IMAGEN_3": "C002_IMG_20260420_074845.jpg", "VISUALIZAR_IMAGEN_1": "https:\/\/drive.google.com\/uc?export=view&id=17Mox9SsIKARnbCVrVrBHRDETSjWJGNE9", "VISUALIZAR_IMAGEN_2": "https:\/\/drive.google.com\/uc?export=view&id=1c5t3P6z3jaDa1zQkzmMnbwb1uMipAuyy", "VISUALIZAR_IMAGEN_3": "https:\/\/drive.google.com\/uc?export=view&id=1mbq17k7zrEgw0LfDSs0gqtvgfm6jwDcM", "FUENTE": "IEDDV" }, "geometry": { "type": "Point", "coordinates": [ -75.282692433999955, 3.062391154000068, 447.833299999998417 ] } },
{ "type": "Feature", "properties": { "OBJECTID": 13, "FECHA": "30\/03\/2026 00:00:00 (UTC)", "DEPTO": "(VALLE DEL CAUCA)", "MUNICIPIO": "GUADALAJARA DE BUGA", "VEREDA": "EL VINCULO", "GASODUCTO": "(MARIQUITA - CALI)", "TRAMO": "Tulua - Cali", "TP_DUCTO": "(Troncal)", "DISTRITO": "8", "DIAMETRO": "20\"", "TRM_REG": "(ARMENIA - CALI)", "ZONA": "2", "PK": " ", "PK_PAT": " ", "ID_EVENTO": "", "TP_EVENTO": "OTRO", "LONG_EVENT": 20.0, "PRIORIDAD": "( )", "AMENAZA": "( )", "ESTADO_EG": " ", "FX2": " ", "OBSERVACION_GEOTECNISTA": "", "OBSERVACIO": "Trabajós temporales tubería expuesta", "PROFUNDIDA": 2.5, "COD_ID": "HALL-1", "ENTREGA": "E10_R2", "HRMS": " ", "LATITUD": 3.8332153470000208, "LONGITUD": -76.318577627999957, "ALTURA": 0.0, "NORTE": 1982285.8616200001, "ESTE": 4631487.8021, "IMAGEN_1": "C002_IMG_20260330_102055.jpg", "IMAGEN_2": "C002_IMG_20260330_102100.jpg", "IMAGEN_3": "C002_IMG_20260330_102105.jpg", "VISUALIZAR_IMAGEN_1": "https:\/\/drive.google.com\/uc?export=view&id=1hVNj-AbrrDHDi9NOguXSGNRT0dOGopvD", "VISUALIZAR_IMAGEN_2": "https:\/\/drive.google.com\/uc?export=view&id=1hRt9xYAZ1fTuyVS147ns9JZb8IoHGS1Y", "VISUALIZAR_IMAGEN_3": "https:\/\/drive.google.com\/uc?export=view&id=1vgoAgGrPLFMX4fPVEo4tJSdhbtcggDJd", "FUENTE": "IEDDV" }, "geometry": { "type": "Point", "coordinates": [ -76.318577627999957, 3.833215347000021, 0.0 ] } }
]
}
