{
"type": "FeatureCollection",
"name": "URL_H_ProcesoMenor",
"crs": { "type": "name", "properties": { "name": "urn:ogc:def:crs:OGC:1.3:CRS84" } },
"features": [
{ "type": "Feature", "properties": { "OBJECTID": 1, "FECHA": "20/02/2026 00:00:00 (UTC)", "DEPTO": "SANTANDER", "MUNICIPIO": "PUERTO PARRA", "VEREDA": "CARRILERA", "GASODUCTO": "CENTRO - ORIENTE", "TRAMO": "Barrancabermeja - Sebastopol", "TP_DUCTO": "Troncal", "DISTRITO": "1", "DIAMETRO": "20\"", "TRM_REG": "BARRANCABERMEJA - SEBASTOPOL", "ZONA": "1", "PK": "062+291", "PK_PAT": "62299", "ID_EVENTO": "190", "TP_EVENTO": "OTRO", "LONG_EVENT": 0.0, "PRIORIDAD": "Bajo", "AMENAZA": "Bajo", "ESTADO_EG": "Antiguo", "FX2": " ", "OBSERVACION_GEOTECNISTA": "", "OBSERVACIO": "No se evidencia proceso menor", "PROFUNDIDA": 1.93, "COD_ID": "PROC-1", "ENTREGA": "E05_R2", "HRMS": " ", "LATITUD": 6.6735190000000557, "LONGITUD": -74.028988, "ALTURA": 157.8285, "NORTE": 2295530.76932, "ESTE": 4886309.5833599996, "IMAGEN_1": "C001_IMG_20260220_093401.jpg", "IMAGEN_2": "C001_IMG_20260220_093412.jpg", "IMAGEN_3": "C001_IMG_20260220_093417.jpg", "VISUALIZAR_IMAGEN_1": "https://drive.google.com/uc?export=view&id=1vCcyZGePxIONDSQCwVcUZ-CUd-Xpqu-R", "VISUALIZAR_IMAGEN_2": "https://drive.google.com/uc?export=view&id=1aq5VU08orA42fJl1hPoaCNRUtdkrooBs", "VISUALIZAR_IMAGEN_3": "https://drive.google.com/uc?export=view&id=1eNLcZoE0iid9HtSUqEjVxmqtwX9jNLFH", "FUENTE": "IEDDV" }, "geometry": { "type": "Point", "coordinates": [ -74.028988, 6.673519, 157.82850000000326 ] } },
{ "type": "Feature", "properties": { "OBJECTID": 2, "FECHA": "20/02/2026 00:00:00 (UTC)", "DEPTO": "SANTANDER", "MUNICIPIO": "PUERTO PARRA", "VEREDA": "CARRILERA", "GASODUCTO": "CENTRO - ORIENTE", "TRAMO": "Barrancabermeja - Sebastopol", "TP_DUCTO": "Troncal", "DISTRITO": "1", "DIAMETRO": "20\"", "TRM_REG": "BARRANCABERMEJA - SEBASTOPOL", "ZONA": "1", "PK": "063+472", "PK_PAT": "63472", "ID_EVENTO": "191", "TP_EVENTO": "OTRO", "LONG_EVENT": 0.0, "PRIORIDAD": "Bajo", "AMENAZA": "Bajo", "ESTADO_EG": "Antiguo", "FX2": " ", "OBSERVACION_GEOTECNISTA": "", "OBSERVACIO": "No se evidencia proceso menor", "PROFUNDIDA": 1.89, "COD_ID": "PROC-2", "ENTREGA": "E05_R2", "HRMS": " ", "LATITUD": 6.6679050000000757, "LONGITUD": -74.03776, "ALTURA": 122.039, "NORTE": 2294912.35005, "ESTE": 4885338.9771699999, "IMAGEN_1": "C001_IMG_20260220_101054.jpg", "IMAGEN_2": "C001_IMG_20260220_101100.jpg", "IMAGEN_3": "C001_IMG_20260220_101114.jpg", "VISUALIZAR_IMAGEN_1": "https://drive.google.com/uc?export=view&id=1M-lwgnErAebtpHAKGg6yQ7_9mKyhS5Vr", "VISUALIZAR_IMAGEN_2": "https://drive.google.com/uc?export=view&id=1npopQbikU-IV01QlqfEo-PUaunH6oZhF", "VISUALIZAR_IMAGEN_3": "https://drive.google.com/uc?export=view&id=1OS-BOcOq5Dp29AJx0qatCTJRXy2G2Aff", "FUENTE": "IEDDV" }, "geometry": { "type": "Point", "coordinates": [ -74.03776, 6.667905, 122.039000000004307 ] } },
{ "type": "Feature", "properties": { "OBJECTID": 3, "FECHA": "17/02/2026 00:00:00 (UTC)", "DEPTO": "SANTANDER", "MUNICIPIO": "SIMACOTA", "VEREDA": "VIZCAINA ALTA", "GASODUCTO": "CENTRO - ORIENTE", "TRAMO": "Barrancabermeja - Sebastopol", "TP_DUCTO": "Troncal", "DISTRITO": "1", "DIAMETRO": "20\"", "TRM_REG": "BARRANCABERMEJA - SEBASTOPOL", "ZONA": "1", "PK": "038+562", "PK_PAT": "38562", "ID_EVENTO": "N025", "TP_EVENTO": "SURCOS", "LONG_EVENT": 5.0, "PRIORIDAD": "( )", "AMENAZA": "( )", "ESTADO_EG": "Antiguo", "FX2": " ", "OBSERVACION_GEOTECNISTA": "", "OBSERVACIO": "Se cambia respecto a linea base de tipo de evento carcavas a surcos. Se presenta una erosión laminar que derivó en pequeños surcos de escasa profundidad por la lluvia. El material del terreno y la pendiente permitieron este desgaste superficial del suelo entre la vegetación.", "PROFUNDIDA": 1.71, "COD_ID": "PROC-3", "ENTREGA": "E05_R2", "HRMS": " ", "LATITUD": 6.830025, "LONGITUD": -73.895894, "ALTURA": 117.11259999999311, "NORTE": 2312798.2213900001, "ESTE": 4901047.8801999995, "IMAGEN_1": "C001_IMG_20260217_084240.jpg", "IMAGEN_2": "C001_IMG_20260217_084254.jpg", "IMAGEN_3": "C001_IMG_20260217_084307.jpg", "VISUALIZAR_IMAGEN_1": "https://drive.google.com/uc?export=view&id=1N90vsLi8kbhCrMJU2gk-yEoeBykyK2vg", "VISUALIZAR_IMAGEN_2": "https://drive.google.com/uc?export=view&id=1Rn0bhUU5CBzcrOoUrGUDhLGPcyxbQBin", "VISUALIZAR_IMAGEN_3": "https://drive.google.com/uc?export=view&id=10zDPhnhKPDDPdr4zsZIy4mSC-7Rh_DCx", "FUENTE": "IEDDV" }, "geometry": { "type": "Point", "coordinates": [ -73.895894, 6.830025, 117.112599999993108 ] } },
{ "type": "Feature", "properties": { "OBJECTID": 4, "FECHA": "17/02/2026 00:00:00 (UTC)", "DEPTO": "SANTANDER", "MUNICIPIO": "SIMACOTA", "VEREDA": "VIZCAINA BAJA", "GASODUCTO": "CENTRO - ORIENTE", "TRAMO": "Barrancabermeja - Sebastopol", "TP_DUCTO": "Troncal", "DISTRITO": "1", "DIAMETRO": "20\"", "TRM_REG": "BARRANCABERMEJA - SEBASTOPOL", "ZONA": "1", "PK": "038+460", "PK_PAT": "38460", "ID_EVENTO": "N114", "TP_EVENTO": "SURCOS", "LONG_EVENT": 10.0, "PRIORIDAD": "( )", "AMENAZA": "( )", "ESTADO_EG": "Antiguo", "FX2": " ", "OBSERVACION_GEOTECNISTA": "", "OBSERVACIO": "Se observa erosión la cual formo surcos debido a la accion del agua lluvia que junto con el tipo de material produjeron este fenomeno. Se aprecia el terreno degradado por la escorrentia en una zona de ladera con maleza.", "PROFUNDIDA": 2.17, "COD_ID": "PROC-4", "ENTREGA": "E05_R2", "HRMS": " ", "LATITUD": 6.8307530000000725, "LONGITUD": -73.895407, "ALTURA": 112.1023, "NORTE": 2312878.5760900001, "ESTE": 4901101.8235299997, "IMAGEN_1": "C001_IMG_20260217_083856.jpg", "IMAGEN_2": "C001_IMG_20260217_083918.jpg", "IMAGEN_3": "C001_IMG_20260217_083926.jpg", "VISUALIZAR_IMAGEN_1": "https://drive.google.com/uc?export=view&id=1tZMOms22piC-nt0i3CY9ZNmcz1ft8f6u", "VISUALIZAR_IMAGEN_2": "https://drive.google.com/uc?export=view&id=1IzSYZcHs_Xm8vtyMqK-XZSRPHiqAWBL5", "VISUALIZAR_IMAGEN_3": "https://drive.google.com/uc?export=view&id=1gxZSNBZ0Brw-X47WKZqeXz1xBfNXLQ7d", "FUENTE": "IEDDV" }, "geometry": { "type": "Point", "coordinates": [ -73.895407, 6.830753, 112.10229999999865 ] } },
{ "type": "Feature", "properties": { "OBJECTID": 5, "FECHA": "17/02/2026 00:00:00 (UTC)", "DEPTO": "SANTANDER", "MUNICIPIO": "SIMACOTA", "VEREDA": "VIZCAINA ALTA", "GASODUCTO": "CENTRO - ORIENTE", "TRAMO": "Barrancabermeja - Sebastopol", "TP_DUCTO": "Troncal", "DISTRITO": "1", "DIAMETRO": "20\"", "TRM_REG": "BARRANCABERMEJA - SEBASTOPOL", "ZONA": "1", "PK": "039+083", "PK_PAT": "39085", "ID_EVENTO": "N115", "TP_EVENTO": "SURCOS", "LONG_EVENT": 0.0, "PRIORIDAD": "( )", "AMENAZA": "( )", "ESTADO_EG": "Antiguo", "FX2": " ", "OBSERVACION_GEOTECNISTA": "", "OBSERVACIO": "Se observa control de evento geotecnico mediante trinchos y sacos de suelo-cemento.", "PROFUNDIDA": 1.97, "COD_ID": "PROC-5", "ENTREGA": "E05_R2", "HRMS": " ", "LATITUD": 6.826629, "LONGITUD": -73.899067, "ALTURA": 119.3008, "NORTE": 2312423.56605, "ESTE": 4900696.69178, "IMAGEN_1": "C001_IMG_20260217_091048.jpg", "IMAGEN_2": "C001_IMG_20260217_091100.jpg", "IMAGEN_3": "C001_IMG_20260217_091107.jpg", "VISUALIZAR_IMAGEN_1": "https://drive.google.com/uc?export=view&id=1GrHHp_ctGKf9i1PUIiufLW1wtQqXm2g3", "VISUALIZAR_IMAGEN_2": "https://drive.google.com/uc?export=view&id=14bkfCbs1VaKMSesXBVVMwzU54qcbU2Eb", "VISUALIZAR_IMAGEN_3": "https://drive.google.com/uc?export=view&id=1Yv7wWoJbESg0RfEuT0WtxI1Itk4-AdHz", "FUENTE": "IEDDV" }, "geometry": { "type": "Point", "coordinates": [ -73.899067, 6.826629, 119.300799999997253 ] } },
{ "type": "Feature", "properties": { "OBJECTID": 6, "FECHA": "17/02/2026 00:00:00 (UTC)", "DEPTO": "SANTANDER", "MUNICIPIO": "SIMACOTA", "VEREDA": "VIZCAINA ALTA", "GASODUCTO": "CENTRO - ORIENTE", "TRAMO": "Barrancabermeja - Sebastopol", "TP_DUCTO": "Troncal", "DISTRITO": "1", "DIAMETRO": "20\"", "TRM_REG": "BARRANCABERMEJA - SEBASTOPOL", "ZONA": "1", "PK": "039+531", "PK_PAT": "39518", "ID_EVENTO": "N118", "TP_EVENTO": "SURCOS", "LONG_EVENT": 0.0, "PRIORIDAD": "( )", "AMENAZA": "( )", "ESTADO_EG": "Antiguo", "FX2": " ", "OBSERVACION_GEOTECNISTA": "", "OBSERVACIO": "No se observa evento geotecnico debido a la vegetacion espesa.", "PROFUNDIDA": 1.6, "COD_ID": "PROC-6", "ENTREGA": "E05_R2", "HRMS": " ", "LATITUD": 6.8236630000000673, "LONGITUD": -73.901669, "ALTURA": 131.148, "NORTE": 2312096.3158399998, "ESTE": 4900408.6607, "IMAGEN_1": "C001_IMG_20260217_093742.jpg", "IMAGEN_2": "C001_IMG_20260217_093758.jpg", "IMAGEN_3": "C001_IMG_20260217_093816.jpg", "VISUALIZAR_IMAGEN_1": "https://drive.google.com/uc?export=view&id=1wRd5gUQczn0M8ROf6RKeJWDa_AweI_RT", "VISUALIZAR_IMAGEN_2": "https://drive.google.com/uc?export=view&id=1wGMnDkBp5Fzb33KSdoVyveCDRr5nBvEm", "VISUALIZAR_IMAGEN_3": "https://drive.google.com/uc?export=view&id=17TopaILKzJf7O60BFrufGRyeUQQ6W2K3", "FUENTE": "IEDDV" }, "geometry": { "type": "Point", "coordinates": [ -73.901669, 6.823663, 131.148000000001048 ] } },
{ "type": "Feature", "properties": { "OBJECTID": 7, "FECHA": "20/02/2026 00:00:00 (UTC)", "DEPTO": "SANTANDER", "MUNICIPIO": "PUERTO PARRA", "VEREDA": "PATIO BONITO", "GASODUCTO": "CENTRO - ORIENTE", "TRAMO": "Barrancabermeja - Sebastopol", "TP_DUCTO": "Troncal", "DISTRITO": "1", "DIAMETRO": "20\"", "TRM_REG": "BARRANCABERMEJA - SEBASTOPOL", "ZONA": "1", "PK": "059+583", "PK_PAT": "59575", "ID_EVENTO": "N137", "TP_EVENTO": "SOCAVACIÓN LATERAL", "LONG_EVENT": 0.0, "PRIORIDAD": "( )", "AMENAZA": "( )", "ESTADO_EG": "Antiguo", "FX2": " ", "OBSERVACION_GEOTECNISTA": "", "OBSERVACIO": "No se evidencia proceso menor", "PROFUNDIDA": 2.27, "COD_ID": "PROC-7", "ENTREGA": "E05_R2", "HRMS": " ", "LATITUD": 6.687057, "LONGITUD": -74.008825, "ALTURA": 135.6586, "NORTE": 2297022.35182, "ESTE": 4888540.6375399996, "IMAGEN_1": "C001_IMG_20260220_075137.jpg", "IMAGEN_2": "C001_IMG_20260220_075143.jpg", "IMAGEN_3": "C001_IMG_20260220_075150.jpg", "VISUALIZAR_IMAGEN_1": "https://drive.google.com/uc?export=view&id=1SQNdTQjLju-SOIRPMTso0n30tHrXiTbn", "VISUALIZAR_IMAGEN_2": "https://drive.google.com/uc?export=view&id=1AoZOvJVz6RP7ASE9xzns6dHKVI8yuWeM", "VISUALIZAR_IMAGEN_3": "https://drive.google.com/uc?export=view&id=1P8Zva_slIqLvH_26DG_VDzBd2t6bmUSe", "FUENTE": "IEDDV" }, "geometry": { "type": "Point", "coordinates": [ -74.008825, 6.687057, 135.658599999995204 ] } },
{ "type": "Feature", "properties": { "OBJECTID": 8, "FECHA": "20/02/2026 00:00:00 (UTC)", "DEPTO": "SANTANDER", "MUNICIPIO": "PUERTO PARRA", "VEREDA": "PATIO BONITO", "GASODUCTO": "CENTRO - ORIENTE", "TRAMO": "Barrancabermeja - Sebastopol", "TP_DUCTO": "Troncal", "DISTRITO": "1", "DIAMETRO": "20\"", "TRM_REG": "BARRANCABERMEJA - SEBASTOPOL", "ZONA": "1", "PK": "061+961", "PK_PAT": "61979", "ID_EVENTO": "N141", "TP_EVENTO": "SOCAVACIÓN LATERAL", "LONG_EVENT": 0.0, "PRIORIDAD": "( )", "AMENAZA": "( )", "ESTADO_EG": "Antiguo", "FX2": " ", "OBSERVACION_GEOTECNISTA": "", "OBSERVACIO": "No se evidencia proceso menor", "PROFUNDIDA": 0.93, "COD_ID": "PROC-8", "ENTREGA": "E05_R2", "HRMS": " ", "LATITUD": 6.6749322000001001, "LONGITUD": -74.0264706, "ALTURA": 138.42479999999341, "NORTE": 2295686.3736899998, "ESTE": 4886588.0792800002, "IMAGEN_1": "C001_IMG_20260220_090643.jpg", "IMAGEN_2": "C001_IMG_20260220_090650.jpg", "IMAGEN_3": "C001_IMG_20260220_090657.jpg", "VISUALIZAR_IMAGEN_1": "https://drive.google.com/uc?export=view&id=1oVJQMwdREfno8mGGt1jqSY61qBTsDp0J", "VISUALIZAR_IMAGEN_2": "https://drive.google.com/uc?export=view&id=1nauKaG8FZu1mccUmw_0xAB-fEb3bCwde", "VISUALIZAR_IMAGEN_3": "https://drive.google.com/uc?export=view&id=1OcMQcNwcbZ30OENRG1kt9mrO1TEUlXgB", "FUENTE": "IEDDV" }, "geometry": { "type": "Point", "coordinates": [ -74.026470599999982, 6.674932200000057, 138.424799999993411 ] } },
{ "type": "Feature", "properties": { "OBJECTID": 9, "FECHA": "20/02/2026 00:00:00 (UTC)", "DEPTO": "SANTANDER", "MUNICIPIO": "PUERTO PARRA", "VEREDA": "CARRILERA", "GASODUCTO": "CENTRO - ORIENTE", "TRAMO": "Barrancabermeja - Sebastopol", "TP_DUCTO": "Troncal", "DISTRITO": "1", "DIAMETRO": "20\"", "TRM_REG": "BARRANCABERMEJA - SEBASTOPOL", "ZONA": "1", "PK": "063+943", "PK_PAT": "63954", "ID_EVENTO": "N146", "TP_EVENTO": "SOCAVACIÓN LATERAL", "LONG_EVENT": 0.0, "PRIORIDAD": "( )", "AMENAZA": "( )", "ESTADO_EG": "Antiguo", "FX2": " ", "OBSERVACION_GEOTECNISTA": "", "OBSERVACIO": "No se evidencia proceso menor", "PROFUNDIDA": 2.15, "COD_ID": "PROC-9", "ENTREGA": "E05_R2", "HRMS": " ", "LATITUD": 6.6655206, "LONGITUD": -74.0412112, "ALTURA": 115.50109999999404, "NORTE": 2294649.6328500002, "ESTE": 4884957.0606000004, "IMAGEN_1": "C001_IMG_20260220_102430.jpg", "IMAGEN_2": "C001_IMG_20260220_102436.jpg", "IMAGEN_3": "C001_IMG_20260220_102441.jpg", "VISUALIZAR_IMAGEN_1": "https://drive.google.com/uc?export=view&id=1Wgtzqkjgf8LuX7-Le_0XWafr82fS9BU5", "VISUALIZAR_IMAGEN_2": "https://drive.google.com/uc?export=view&id=19uAVaUQ65tKjtzUGt5FyuboJ3ZU6JmjO", "VISUALIZAR_IMAGEN_3": "https://drive.google.com/uc?export=view&id=1jLyqQPShjkuedDfMm764O3-iTwKNM-tj", "FUENTE": "IEDDV" }, "geometry": { "type": "Point", "coordinates": [ -74.041211199999964, 6.665520600000036, 115.50109999999404 ] } },
{ "type": "Feature", "properties": { "OBJECTID": 10, "FECHA": "20/02/2026 00:00:00 (UTC)", "DEPTO": "SANTANDER", "MUNICIPIO": "PUERTO PARRA", "VEREDA": "CARRILERA", "GASODUCTO": "CENTRO - ORIENTE", "TRAMO": "Barrancabermeja - Sebastopol", "TP_DUCTO": "Troncal", "DISTRITO": "1", "DIAMETRO": "20\"", "TRM_REG": "BARRANCABERMEJA - SEBASTOPOL", "ZONA": "1", "PK": "063+058", "PK_PAT": "63066", "ID_EVENTO": "N247", "TP_EVENTO": "SOCAVACIÓN DE FONDO", "LONG_EVENT": 1.0, "PRIORIDAD": "( )", "AMENAZA": "( )", "ESTADO_EG": "Antiguo", "FX2": " ", "OBSERVACION_GEOTECNISTA": "", "OBSERVACIO": "El flujo ocasional de agua ha erosionado la cobertura de la tubería. Se recomienda instalar una placa de fondo como medida de protección para evitar el desgaste del material y prevenir que el conducto quede expuesto.", "PROFUNDIDA": 0.56, "COD_ID": "PROC-10", "ENTREGA": "E05_R2", "HRMS": " ", "LATITUD": 6.66995, "LONGITUD": -74.0347, "ALTURA": 129.06359999999404, "NORTE": 2295137.6500900001, "ESTE": 4885677.5834900001, "IMAGEN_1": "C001_IMG_20260220_095843.jpg", "IMAGEN_2": "C001_IMG_20260220_095851.jpg", "IMAGEN_3": "C001_IMG_20260220_095855.jpg", "VISUALIZAR_IMAGEN_1": "https://drive.google.com/uc?export=view&id=1b-yiDb3U0GwuZE16-CuN_wa_GyfSgUWs", "VISUALIZAR_IMAGEN_2": "https://drive.google.com/uc?export=view&id=1SyYEY9u9edkvu41iYwBN4ikCWJlDDJ1-", "VISUALIZAR_IMAGEN_3": "https://drive.google.com/uc?export=view&id=1Ctlja1L1eQ6uWqbq74kzgi1BOlVOgAg9", "FUENTE": "IEDDV" }, "geometry": { "type": "Point", "coordinates": [ -74.0347, 6.66995, 129.06359999999404 ] } },
{ "type": "Feature", "properties": { "OBJECTID": 11, "FECHA": "18/02/2026 00:00:00 (UTC)", "DEPTO": "SANTANDER", "MUNICIPIO": "SIMACOTA", "VEREDA": "PULPAPEL", "GASODUCTO": "CENTRO - ORIENTE", "TRAMO": "Barrancabermeja - Sebastopol", "TP_DUCTO": "Troncal", "DISTRITO": "1", "DIAMETRO": "20\"", "TRM_REG": "BARRANCABERMEJA - SEBASTOPOL", "ZONA": "1", "PK": "045+563", "PK_PAT": "45564", "ID_EVENTO": "N281", "TP_EVENTO": "OTRO", "LONG_EVENT": 10.0, "PRIORIDAD": "( )", "AMENAZA": "( )", "ESTADO_EG": "Antiguo", "FX2": " ", "OBSERVACION_GEOTECNISTA": "", "OBSERVACIO": "Se cambia respecto a linea base de tipo de evento socavacion lateral a Otro.  Excavación mecánica en margen derecha de canal que se encuentra paralelo al DDV. La modificación del talud para acceso de ganado eliminó la protección marginal, exponiendo la sección a erosión hídrica e inestabilidad estructural.  ", "PROFUNDIDA": 1.47, "COD_ID": "PROC-11", "ENTREGA": "E05_R2", "HRMS": " ", "LATITUD": 6.77579, "LONGITUD": -73.92536, "ALTURA": 88.519799999994575, "NORTE": 2306810.5663700001, "ESTE": 4897781.5996200005, "IMAGEN_1": "C001_IMG_20260218_094834.jpg", "IMAGEN_2": "C001_IMG_20260218_094849.jpg", "IMAGEN_3": "C001_IMG_20260218_094905.jpg", "VISUALIZAR_IMAGEN_1": "https://drive.google.com/uc?export=view&id=10RuU7rs4SUwwgD9CdoQWsC_50wJTnMnu", "VISUALIZAR_IMAGEN_2": "https://drive.google.com/uc?export=view&id=10X5cqR6e3y5gq8Xt7yL8HSOHZt2BGLl2", "VISUALIZAR_IMAGEN_3": "https://drive.google.com/uc?export=view&id=1dtHnxeRyfekqGXt6voEkRdUSBfZqsGAl", "FUENTE": "IEDDV" }, "geometry": { "type": "Point", "coordinates": [ -73.92536, 6.77579, 88.519799999994575 ] } },
{ "type": "Feature", "properties": { "OBJECTID": 12, "FECHA": "18/02/2026 00:00:00 (UTC)", "DEPTO": "SANTANDER", "MUNICIPIO": "SIMACOTA", "VEREDA": "PULPAPEL", "GASODUCTO": "CENTRO - ORIENTE", "TRAMO": "Barrancabermeja - Sebastopol", "TP_DUCTO": "Troncal", "DISTRITO": "1", "DIAMETRO": "20\"", "TRM_REG": "BARRANCABERMEJA - SEBASTOPOL", "ZONA": "1", "PK": "046+096", "PK_PAT": "46110", "ID_EVENTO": "N358", "TP_EVENTO": "SOCAVACIÓN LATERAL", "LONG_EVENT": 0.0, "PRIORIDAD": "( )", "AMENAZA": "( )", "ESTADO_EG": "Antiguo", "FX2": " ", "OBSERVACION_GEOTECNISTA": "", "OBSERVACIO": "Evento geotécnico estabilizado en canal paralelo al DDV mediante muro de contención con pilotes metálicos hincados, garantizando el confinamiento del terreno y la protección de la infraestructura. ", "PROFUNDIDA": 3.39, "COD_ID": "PROC-12", "ENTREGA": "E05_R2", "HRMS": " ", "LATITUD": 6.77216, "LONGITUD": -73.92847, "ALTURA": 87.90240000000631, "NORTE": 2306410.0511099999, "ESTE": 4897437.2622300005, "IMAGEN_1": "C001_IMG_20260218_101543.jpg", "IMAGEN_2": "C001_IMG_20260218_101549.jpg", "IMAGEN_3": "C001_IMG_20260218_101555.jpg", "VISUALIZAR_IMAGEN_1": "https://drive.google.com/uc?export=view&id=1YFPzFW4uqBUAVtWQoUXiyYM2jwLzKgGd", "VISUALIZAR_IMAGEN_2": "https://drive.google.com/uc?export=view&id=1pdhAEw1hgdOOCwTSK4FpYDIisZm8Sk4t", "VISUALIZAR_IMAGEN_3": "https://drive.google.com/uc?export=view&id=10l9WEM-g4zMb9MgbVdVLqdXa_qqsuDSn", "FUENTE": "IEDDV" }, "geometry": { "type": "Point", "coordinates": [ -73.92847, 6.77216, 87.90240000000631 ] } },
{ "type": "Feature", "properties": { "OBJECTID": 13, "FECHA": "21/02/2026 00:00:00 (UTC)", "DEPTO": "SANTANDER", "MUNICIPIO": "CIMITARRA", "VEREDA": "CARARE", "GASODUCTO": "CENTRO - ORIENTE", "TRAMO": "Barrancabermeja - Sebastopol", "TP_DUCTO": "Troncal", "DISTRITO": "1", "DIAMETRO": "20\"", "TRM_REG": "BARRANCABERMEJA - SEBASTOPOL", "ZONA": "1", "PK": "069+774", "PK_PAT": "69838", "ID_EVENTO": "N438", "TP_EVENTO": "SOCAVACIÓN DE FONDO", "LONG_EVENT": 0.0, "PRIORIDAD": "( )", "AMENAZA": "( )", "ESTADO_EG": "Antiguo", "FX2": " ", "OBSERVACION_GEOTECNISTA": "", "OBSERVACIO": "No se evidencia proceso menor", "PROFUNDIDA": 1.89, "COD_ID": "PROC-13", "ENTREGA": "E05_R2", "HRMS": " ", "LATITUD": 6.6349000000000729, "LONGITUD": -74.0814, "ALTURA": 93.347099999999045, "NORTE": 2291274.9940399998, "ESTE": 4880508.7139699999, "IMAGEN_1": "C001_IMG_20260221_075822.jpg", "IMAGEN_2": "C001_IMG_20260221_075828.jpg", "IMAGEN_3": "C001_IMG_20260221_075836.jpg", "VISUALIZAR_IMAGEN_1": "https://drive.google.com/uc?export=view&id=1QDtQ6Y2ucb_H7kzNGGGKJ9n9U4wFlFlb", "VISUALIZAR_IMAGEN_2": "https://drive.google.com/uc?export=view&id=1pVJTZdV4QYU8CddmjQY_f7osJPFSwo-v", "VISUALIZAR_IMAGEN_3": "https://drive.google.com/uc?export=view&id=1Xdqeo0fkhCTCoaBJmy0cOFvNFDlo1b8P", "FUENTE": "IEDDV" }, "geometry": { "type": "Point", "coordinates": [ -74.0814, 6.6349, 93.347099999999045 ] } },
{ "type": "Feature", "properties": { "OBJECTID": 14, "FECHA": "18/02/2026 00:00:00 (UTC)", "DEPTO": "SANTANDER", "MUNICIPIO": "SIMACOTA", "VEREDA": "PULPAPEL", "GASODUCTO": "CENTRO - ORIENTE", "TRAMO": "Barrancabermeja - Sebastopol", "TP_DUCTO": "Troncal", "DISTRITO": "1", "DIAMETRO": "20\"", "TRM_REG": "BARRANCABERMEJA - SEBASTOPOL", "ZONA": "1", "PK": "045+655", "PK_PAT": "45660", "ID_EVENTO": "N439", "TP_EVENTO": "OTRO", "LONG_EVENT": 5.0, "PRIORIDAD": "( )", "AMENAZA": "( )", "ESTADO_EG": "Antiguo", "FX2": " ", "OBSERVACION_GEOTECNISTA": "", "OBSERVACIO": "Excavación mecánica en margen derecha del canal que se encuentra paralelo al DDV. La modificación del talud para acceso de ganado eliminó la protección marginal, exponiendo la sección a erosión hídrica e inestabilidad estructural. ", "PROFUNDIDA": 0.91, "COD_ID": "PROC-14", "ENTREGA": "E05_R2", "HRMS": " ", "LATITUD": 6.7751652000001004, "LONGITUD": -73.9258932, "ALTURA": 88.770900000003166, "NORTE": 2306741.6286499999, "ESTE": 4897722.5638699997, "IMAGEN_1": "C001_IMG_20260218_095316.jpg", "IMAGEN_2": "C001_IMG_20260218_095321.jpg", "IMAGEN_3": "C001_IMG_20260218_095327.jpg", "VISUALIZAR_IMAGEN_1": "https://drive.google.com/uc?export=view&id=10RF7ElukZi32eiwhGpJzaGSVED460Gpa", "VISUALIZAR_IMAGEN_2": "https://drive.google.com/uc?export=view&id=1e2b4gJcVgiQZR3LBBLcSHxrIHH8YRtnx", "VISUALIZAR_IMAGEN_3": "https://drive.google.com/uc?export=view&id=12YkeMRB5_4kZhGNIq1qgBf8cyYst1JRj", "FUENTE": "IEDDV" }, "geometry": { "type": "Point", "coordinates": [ -73.925893199999962, 6.77516520000006, 88.770900000003166 ] } },
{ "type": "Feature", "properties": { "OBJECTID": 15, "FECHA": "18/02/2026 00:00:00 (UTC)", "DEPTO": "SANTANDER", "MUNICIPIO": "SIMACOTA", "VEREDA": "PULPAPEL", "GASODUCTO": "CENTRO - ORIENTE", "TRAMO": "Barrancabermeja - Sebastopol", "TP_DUCTO": "Troncal", "DISTRITO": "1", "DIAMETRO": "20\"", "TRM_REG": "BARRANCABERMEJA - SEBASTOPOL", "ZONA": "1", "PK": "045+796", "PK_PAT": "45800", "ID_EVENTO": "N630", "TP_EVENTO": "OTRO", "LONG_EVENT": 8.0, "PRIORIDAD": "( )", "AMENAZA": "( )", "ESTADO_EG": " ", "FX2": " ", "OBSERVACION_GEOTECNISTA": "", "OBSERVACIO": "Intervención antrópica paralela al DDV (margen izquierda). Se identificó canal de riego con replanteo de terreno en su costado derecho, modificando la topografía original y afectando el DDV", "PROFUNDIDA": 1.12, "COD_ID": "PROC-15", "ENTREGA": "E05_R2", "HRMS": " ", "LATITUD": 6.7742030000000568, "LONGITUD": -73.926721, "ALTURA": 88.0, "NORTE": 2306635.4651600001, "ESTE": 4897630.9114399999, "IMAGEN_1": "C001_IMG_20260218_100549.jpg", "IMAGEN_2": "C001_IMG_20260218_100557.jpg", "IMAGEN_3": "C001_IMG_20260218_100604.jpg", "VISUALIZAR_IMAGEN_1": "https://drive.google.com/uc?export=view&id=1QqSi-M6POAV6_ijaGg2PpZb-kSfPX16b", "VISUALIZAR_IMAGEN_2": "https://drive.google.com/uc?export=view&id=1ZCOU6uZzppCeRKrQPER9ODxcvIs7oKm5", "VISUALIZAR_IMAGEN_3": "https://drive.google.com/uc?export=view&id=1MAgGZaHiEZcuQ92Gcf-Hs_NyGPzn_xKm", "FUENTE": "IEDDV" }, "geometry": { "type": "Point", "coordinates": [ -73.926721, 6.774203, 88.0 ] } },
{ "type": "Feature", "properties": { "OBJECTID": 16, "FECHA": "23/02/2026 00:00:00 (UTC)", "DEPTO": "SANTANDER", "MUNICIPIO": "CIMITARRA", "VEREDA": "RIVERAS DEL SAN JUAN", "GASODUCTO": "CENTRO - ORIENTE", "TRAMO": "Barrancabermeja - Sebastopol", "TP_DUCTO": "Troncal", "DISTRITO": "1", "DIAMETRO": "20\"", "TRM_REG": "BARRANCABERMEJA - SEBASTOPOL", "ZONA": "1", "PK": "083+622", "PK_PAT": "83620", "ID_EVENTO": "194", "TP_EVENTO": "OTRO", "LONG_EVENT": 22.0, "PRIORIDAD": "Bajo", "AMENAZA": "Bajo", "ESTADO_EG": "Antiguo", "FX2": " ", "OBSERVACION_GEOTECNISTA": "", "OBSERVACIO": "Se evidencia corte antiguo sobre el terreno, al parecer para construir una via. L=22m An=3m, Al=1m", "PROFUNDIDA": 1.97, "COD_ID": "PROC-16", "ENTREGA": "E05_R2", "HRMS": " ", "LATITUD": 6.567727, "LONGITUD": -74.178088, "ALTURA": 104.54180000000633, "NORTE": 2283875.1535800002, "ESTE": 4869806.0288500004, "IMAGEN_1": "C001_IMG_20260223_100239.jpg", "IMAGEN_2": "C001_IMG_20260223_100251.jpg", "IMAGEN_3": "C001_IMG_20260223_100259.jpg", "VISUALIZAR_IMAGEN_1": "https://drive.google.com/uc?export=view&id=11bxGq4ZqIYAmkUtMFxRkP1USvlV4e1uL", "VISUALIZAR_IMAGEN_2": "https://drive.google.com/uc?export=view&id=1qh2Bz2Ny-jrItcaP6ylZ-PsiDbW0mB-m", "VISUALIZAR_IMAGEN_3": "https://drive.google.com/uc?export=view&id=1s4-CFTrVtb9Mjdo_kS2KvttraH35EJRN", "FUENTE": "IEDDV" }, "geometry": { "type": "Point", "coordinates": [ -74.178088, 6.567727, 104.541800000006333 ] } },
{ "type": "Feature", "properties": { "OBJECTID": 17, "FECHA": "23/02/2026 00:00:00 (UTC)", "DEPTO": "SANTANDER", "MUNICIPIO": "CIMITARRA", "VEREDA": "RIVERAS DEL SAN JUAN", "GASODUCTO": "CENTRO - ORIENTE", "TRAMO": "Barrancabermeja - Sebastopol", "TP_DUCTO": "Troncal", "DISTRITO": "1", "DIAMETRO": "20\"", "TRM_REG": "BARRANCABERMEJA - SEBASTOPOL", "ZONA": "1", "PK": "084+847", "PK_PAT": "84835", "ID_EVENTO": "N357", "TP_EVENTO": "SOCAVACIÓN LATERAL", "LONG_EVENT": 0.5, "PRIORIDAD": "( )", "AMENAZA": "( )", "ESTADO_EG": "Antiguo", "FX2": " ", "OBSERVACION_GEOTECNISTA": "", "OBSERVACIO": "Proceso menor desplazado respecto a linea base por actualización en la georreferenciación según recorrido 2026. Se evidencia socavación en el margen izquierdo del cauce con exposicion de la tuberia, se debe reparar la placa de concreto para proteger la tuberia.", "PROFUNDIDA": 0.0, "COD_ID": "PROC-17", "ENTREGA": "E05_R2", "HRMS": " ", "LATITUD": 6.563293318000035, "LONGITUD": -74.187974811999936, "ALTURA": 102.3452, "NORTE": 2283387.7081399998, "ESTE": 4868712.0933900001, "IMAGEN_1": "C001_IMG_20260223_103906.jpg", "IMAGEN_2": "C001_IMG_20260223_103911.jpg", "IMAGEN_3": "C001_IMG_20260223_103915.jpg", "VISUALIZAR_IMAGEN_1": "https://drive.google.com/uc?export=view&id=1DBOBlrFwWvJj2nVcbxVVSavKeog84KmC", "VISUALIZAR_IMAGEN_2": "https://drive.google.com/uc?export=view&id=1adngP26LVvAC6Frac6E6H3cfHouH83gk", "VISUALIZAR_IMAGEN_3": "https://drive.google.com/uc?export=view&id=1Ai07Qeptc861aNThRukktZYMsEjp57D-", "FUENTE": "IEDDV" }, "geometry": { "type": "Point", "coordinates": [ -74.187974811999936, 6.563293318000035, 102.345199999996112 ] } },
{ "type": "Feature", "properties": { "OBJECTID": 18, "FECHA": "23/02/2026 00:00:00 (UTC)", "DEPTO": "SANTANDER", "MUNICIPIO": "CIMITARRA", "VEREDA": "SAN JUAN", "GASODUCTO": "CENTRO - ORIENTE", "TRAMO": "Barrancabermeja - Sebastopol", "TP_DUCTO": "Troncal", "DISTRITO": "1", "DIAMETRO": "20\"", "TRM_REG": "BARRANCABERMEJA - SEBASTOPOL", "ZONA": "1", "PK": "085+857", "PK_PAT": "85855", "ID_EVENTO": "N440", "TP_EVENTO": "CARCAVAS", "LONG_EVENT": 10.0, "PRIORIDAD": "( )", "AMENAZA": "( )", "ESTADO_EG": "Antiguo", "FX2": " ", "OBSERVACION_GEOTECNISTA": "", "OBSERVACIO": "Se cambia respecto a linea base de tipo de evento otro a carcavas. Se presentan cárcavas en el DDV por erosión hídrica en materiales de alta erodabilidad. La escorrentía genera pérdida de soporte y cobertura, comprometiendo la estabilidad geotécnica y la protección mecánica del gasoducto ante agentes externos.", "PROFUNDIDA": 1.33, "COD_ID": "PROC-18", "ENTREGA": "E05_R2", "HRMS": " ", "LATITUD": 6.5623000000000502, "LONGITUD": -74.1969, "ALTURA": 100.36380000000645, "NORTE": 2283280.2697600001, "ESTE": 4867725.3324100003, "IMAGEN_1": "C001_IMG_20260223_111659.jpg", "IMAGEN_2": "C001_IMG_20260223_111706.jpg", "IMAGEN_3": "C001_IMG_20260223_111716.jpg", "VISUALIZAR_IMAGEN_1": "https://drive.google.com/uc?export=view&id=1nqDGWGMYZuutlBXcZtFOpoDJmvjYx0EY", "VISUALIZAR_IMAGEN_2": "https://drive.google.com/uc?export=view&id=1eI0NteXwU_--32ueSQjEUeuyv9oCI3RI", "VISUALIZAR_IMAGEN_3": "https://drive.google.com/uc?export=view&id=1KgTQrc2t_Vz9g0xsunLS1WnF8b-KVbhh", "FUENTE": "IEDDV" }, "geometry": { "type": "Point", "coordinates": [ -74.1969, 6.5623, 100.363800000006449 ] } },
{ "type": "Feature", "properties": { "OBJECTID": 19, "FECHA": "28/02/2026 00:00:00 (UTC)", "DEPTO": "SANTANDER", "MUNICIPIO": "CIMITARRA", "VEREDA": "PUERTO OLAYA", "GASODUCTO": "CENTRO - ORIENTE", "TRAMO": "Sebastopol - Vasconia", "TP_DUCTO": "Troncal", "DISTRITO": "1", "DIAMETRO": "20\"", "TRM_REG": "SEBASTOPOL - VASCONIA", "ZONA": "1", "PK": "118+187", "PK_PAT": "118189", "ID_EVENTO": "198", "TP_EVENTO": "CARCAVAS", "LONG_EVENT": 14.0, "PRIORIDAD": "Bajo", "AMENAZA": "Bajo", "ESTADO_EG": "Antiguo", "FX2": " ", "OBSERVACION_GEOTECNISTA": "", "OBSERVACIO": "Se cambia respecto a linea base de tipo de evento otro a carcavas. Se presentan cárcavas a 10m del eje izquierdo por erosión pluvial. El terreno compuesto por material arenoso de baja cohesión es altamente erosionable, lo que acelera la pérdida de soporte y amenaza la estabilidad lateral de la tubería.", "PROFUNDIDA": 2.17, "COD_ID": "PROC-19", "ENTREGA": "E05_R2", "HRMS": " ", "LATITUD": 6.418211, "LONGITUD": -74.360706, "ALTURA": 111.8407, "NORTE": 2267400.2219699998, "ESTE": 4849576.5154999997, "IMAGEN_1": "C001_IMG_20260228_082617.jpg", "IMAGEN_2": "C001_IMG_20260228_082626.jpg", "IMAGEN_3": "C001_IMG_20260228_082631.jpg", "VISUALIZAR_IMAGEN_1": "https://drive.google.com/uc?export=view&id=1WmIQ6hxrdauj-CEJ9SIyB8ObV9-Xz2tx", "VISUALIZAR_IMAGEN_2": "https://drive.google.com/uc?export=view&id=1vXMRn2qArW_qbh29vfujkt-ZknbCqOMM", "VISUALIZAR_IMAGEN_3": "https://drive.google.com/uc?export=view&id=1hK9wug90DhzXEKf-bgRhUyfLymGj1j8A", "FUENTE": "IEDDV" }, "geometry": { "type": "Point", "coordinates": [ -74.360706, 6.418211, 111.840700000000652 ] } },
{ "type": "Feature", "properties": { "OBJECTID": 20, "FECHA": "26/02/2026 00:00:00 (UTC)", "DEPTO": "SANTANDER", "MUNICIPIO": "CIMITARRA", "VEREDA": "PUERTO OLAYA", "GASODUCTO": "CENTRO - ORIENTE", "TRAMO": "Barrancabermeja - Sebastopol", "TP_DUCTO": "Troncal", "DISTRITO": "1", "DIAMETRO": "20\"", "TRM_REG": "BARRANCABERMEJA - SEBASTOPOL", "ZONA": "1", "PK": "106+218", "PK_PAT": "106220", "ID_EVENTO": "766", "TP_EVENTO": "OTRO", "LONG_EVENT": 0.0, "PRIORIDAD": "Bajo", "AMENAZA": "Bajo", "ESTADO_EG": "Antiguo", "FX2": " ", "OBSERVACION_GEOTECNISTA": "", "OBSERVACIO": "No se evidencia proceso menor", "PROFUNDIDA": 2.3, "COD_ID": "PROC-20", "ENTREGA": "E05_R2", "HRMS": " ", "LATITUD": 6.494826, "LONGITUD": -74.359459, "ALTURA": 102.8475, "NORTE": 2275868.1407699999, "ESTE": 4849736.9928400004, "IMAGEN_1": "C001_IMG_20260226_101838.jpg", "IMAGEN_2": "C001_IMG_20260226_101842.jpg", "IMAGEN_3": "C001_IMG_20260226_101848.jpg", "VISUALIZAR_IMAGEN_1": "https://drive.google.com/uc?export=view&id=1kjuZf0ZRxjncfsTAs4besJ5kWp2AhQui", "VISUALIZAR_IMAGEN_2": "https://drive.google.com/uc?export=view&id=1qhsu-8U_mBmQu43WN9h0HRJtWPuVmDTs", "VISUALIZAR_IMAGEN_3": "https://drive.google.com/uc?export=view&id=1FZVIMo7nJcKiFnAuCmdg85rauzXRZ2uz", "FUENTE": "IEDDV" }, "geometry": { "type": "Point", "coordinates": [ -74.359459, 6.494826, 102.847500000003492 ] } },
{ "type": "Feature", "properties": { "OBJECTID": 21, "FECHA": "28/02/2026 00:00:00 (UTC)", "DEPTO": "SANTANDER", "MUNICIPIO": "CIMITARRA", "VEREDA": "PUERTO OLAYA", "GASODUCTO": "CENTRO - ORIENTE", "TRAMO": "Sebastopol - Vasconia", "TP_DUCTO": "Troncal", "DISTRITO": "1", "DIAMETRO": "20\"", "TRM_REG": "SEBASTOPOL - VASCONIA", "ZONA": "1", "PK": "117+295", "PK_PAT": "117300", "ID_EVENTO": "N170", "TP_EVENTO": "SOCAVACIÓN DE FONDO", "LONG_EVENT": 20.0, "PRIORIDAD": "( )", "AMENAZA": "( )", "ESTADO_EG": "Antiguo", "FX2": " ", "OBSERVACION_GEOTECNISTA": "", "OBSERVACIO": "La tubería ingresa al cauce y sale más adelante por la misma margen izquierda, manteniendo un trazado paralelo al caño (30m). Esta condicion favoreció la socavación de fondo y lateral por el flujo de agua, removiendo el material y dejando el ducto expuesto.", "PROFUNDIDA": 0.0, "COD_ID": "PROC-21", "ENTREGA": "E05_R2", "HRMS": " ", "LATITUD": 6.425982, "LONGITUD": -74.362273, "ALTURA": 107.87519999999495, "NORTE": 2268259.6137299999, "ESTE": 4849405.5392699996, "IMAGEN_1": "C001_IMG_20260228_074921.jpg", "IMAGEN_2": "C001_IMG_20260228_074933.jpg", "IMAGEN_3": "C001_IMG_20260228_074943.jpg", "VISUALIZAR_IMAGEN_1": "https://drive.google.com/uc?export=view&id=1ujTtaIp78RkfhIRUAKGgWocIbA_JCVga", "VISUALIZAR_IMAGEN_2": "https://drive.google.com/uc?export=view&id=12zHagGgcUuN2drWlOWdFNsToUtD82hxQ", "VISUALIZAR_IMAGEN_3": "https://drive.google.com/uc?export=view&id=1l20IOCIg6h6hKouXNYJcE0v-nwPpUpc5", "FUENTE": "IEDDV" }, "geometry": { "type": "Point", "coordinates": [ -74.362273, 6.425982, 107.875199999994948 ] } },
{ "type": "Feature", "properties": { "OBJECTID": 22, "FECHA": "25/02/2026 00:00:00 (UTC)", "DEPTO": "SANTANDER", "MUNICIPIO": "CIMITARRA", "VEREDA": "LOS MORROS", "GASODUCTO": "CENTRO - ORIENTE", "TRAMO": "Barrancabermeja - Sebastopol", "TP_DUCTO": "Troncal", "DISTRITO": "1", "DIAMETRO": "20\"", "TRM_REG": "BARRANCABERMEJA - SEBASTOPOL", "ZONA": "1", "PK": "095+739", "PK_PAT": "95740", "ID_EVENTO": " ", "TP_EVENTO": "SURCOS", "LONG_EVENT": 5.0, "PRIORIDAD": "( )", "AMENAZA": "( )", "ESTADO_EG": "Antiguo", "FX2": " ", "OBSERVACION_GEOTECNISTA": "", "OBSERVACIO": "Zona afectada por escorrentía superficial, donde la presencia de materiales arenosos y de baja cohesión acelera el proceso erosivo y la degradación del suelo.", "PROFUNDIDA": 1.69, "COD_ID": "PROC-22", "ENTREGA": "E05_R2", "HRMS": " ", "LATITUD": 6.5338736, "LONGITUD": -74.2770024, "ALTURA": 102.1921, "NORTE": 2280160.2285799999, "ESTE": 4858863.4857099997, "IMAGEN_1": "C001_IMG_20260225_092221.jpg", "IMAGEN_2": "C001_IMG_20260225_092237.jpg", "IMAGEN_3": "C001_IMG_20260225_092246.jpg", "VISUALIZAR_IMAGEN_1": "https://drive.google.com/uc?export=view&id=1jIPGyQ61VQPAblD6uvOecG4Jb19qkFNC", "VISUALIZAR_IMAGEN_2": "https://drive.google.com/uc?export=view&id=1lgVVolxhuXkEKxT6NxXcYH_LtakRe29B", "VISUALIZAR_IMAGEN_3": "https://drive.google.com/uc?export=view&id=1sGDwcz11NSTAPltQAVAlZ0Y2Jsib-2Js", "FUENTE": "IEDDV" }, "geometry": { "type": "Point", "coordinates": [ -74.277002399999958, 6.533873600000049, 102.19210000000021 ] } },
{ "type": "Feature", "properties": { "OBJECTID": 23, "FECHA": "26/02/2026 00:00:00 (UTC)", "DEPTO": "SANTANDER", "MUNICIPIO": "CIMITARRA", "VEREDA": "PUERTO OLAYA", "GASODUCTO": "CENTRO - ORIENTE", "TRAMO": "Barrancabermeja - Sebastopol", "TP_DUCTO": "Troncal", "DISTRITO": "1", "DIAMETRO": "20\"", "TRM_REG": "BARRANCABERMEJA - SEBASTOPOL", "ZONA": "1", "PK": "106+320", "PK_PAT": "106323", "ID_EVENTO": " ", "TP_EVENTO": "SOCAVACIÓN LATERAL", "LONG_EVENT": 5.0, "PRIORIDAD": "( )", "AMENAZA": "( )", "ESTADO_EG": "Antiguo", "FX2": " ", "OBSERVACION_GEOTECNISTA": "", "OBSERVACIO": "Socavación lateral en margen izquierda por crecientes súbitas. El incremento del nivel y la energía del flujo erosionan la banca, comprometiendo la estabilidad marginal del cauce.", "PROFUNDIDA": 1.6, "COD_ID": "PROC-23", "ENTREGA": "E05_R2", "HRMS": " ", "LATITUD": 6.4943000000000666, "LONGITUD": -74.3602, "ALTURA": 113.1725, "NORTE": 2275810.2216500002, "ESTE": 4849654.9177799998, "IMAGEN_1": "C001_IMG_20260226_102306.jpg", "IMAGEN_2": "C001_IMG_20260226_102311.jpg", "IMAGEN_3": "C001_IMG_20260226_102320.jpg", "VISUALIZAR_IMAGEN_1": "https://drive.google.com/uc?export=view&id=1tlENc7RAwkhH84CLegp2Mz_7m6IlP2Q2", "VISUALIZAR_IMAGEN_2": "https://drive.google.com/uc?export=view&id=1AHZopm8L4RRekzhU_mof_8cn1CFkeYkH", "VISUALIZAR_IMAGEN_3": "https://drive.google.com/uc?export=view&id=1ae4K-9EZxuR-4JYBc6QQeYb0pO-P4XTs", "FUENTE": "IEDDV" }, "geometry": { "type": "Point", "coordinates": [ -74.3602, 6.4943, 113.172500000000582 ] } },
{ "type": "Feature", "properties": { "OBJECTID": 24, "FECHA": "26/02/2026 00:00:00 (UTC)", "DEPTO": "SANTANDER", "MUNICIPIO": "CIMITARRA", "VEREDA": "PUERTO OLAYA", "GASODUCTO": "CENTRO - ORIENTE", "TRAMO": "Barrancabermeja - Sebastopol", "TP_DUCTO": "Troncal", "DISTRITO": "1", "DIAMETRO": "20\"", "TRM_REG": "BARRANCABERMEJA - SEBASTOPOL", "ZONA": "1", "PK": "102+407", "PK_PAT": "102406", "ID_EVENTO": "N359", "TP_EVENTO": "OTRO", "LONG_EVENT": 20.0, "PRIORIDAD": "( )", "AMENAZA": "( )", "ESTADO_EG": "Antiguo", "FX2": " ", "OBSERVACION_GEOTECNISTA": "", "OBSERVACIO": "Área erosionada por escorrentía. La composición de suelos arenosos y materiales sueltos facilita una erosión hídrica acelerada y pérdida de sedimento.", "PROFUNDIDA": 1.21, "COD_ID": "PROC-24", "ENTREGA": "E05_R2", "HRMS": " ", "LATITUD": 6.511065, "LONGITUD": -74.330335, "ALTURA": 127.8515, "NORTE": 2277654.47541, "ESTE": 4852961.4060199996, "IMAGEN_1": "C001_IMG_20260226_075552.jpg", "IMAGEN_2": "C001_IMG_20260226_075601.jpg", "IMAGEN_3": "C001_IMG_20260226_075612.jpg", "VISUALIZAR_IMAGEN_1": "https://drive.google.com/uc?export=view&id=1wWVgsM82y6yJuLhl3jO6cQNFcsIpk157", "VISUALIZAR_IMAGEN_2": "https://drive.google.com/uc?export=view&id=1uUIAiDLekcFV5PSBZcDN1FQCoZWRt5J4", "VISUALIZAR_IMAGEN_3": "https://drive.google.com/uc?export=view&id=11OkwD0ypoYlBY9YNf5U990f8E2IyTjxv", "FUENTE": "IEDDV" }, "geometry": { "type": "Point", "coordinates": [ -74.330335, 6.511065, 127.851500000004307 ] } },
{ "type": "Feature", "properties": { "OBJECTID": 25, "FECHA": "26/02/2026 00:00:00 (UTC)", "DEPTO": "SANTANDER", "MUNICIPIO": "CIMITARRA", "VEREDA": "PUERTO OLAYA", "GASODUCTO": "CENTRO - ORIENTE", "TRAMO": "Barrancabermeja - Sebastopol", "TP_DUCTO": "Troncal", "DISTRITO": "1", "DIAMETRO": "20\"", "TRM_REG": "BARRANCABERMEJA - SEBASTOPOL", "ZONA": "1", "PK": "103+516", "PK_PAT": "103509", "ID_EVENTO": " ", "TP_EVENTO": "SURCOS", "LONG_EVENT": 30.0, "PRIORIDAD": "( )", "AMENAZA": "( )", "ESTADO_EG": "Antiguo", "FX2": " ", "OBSERVACION_GEOTECNISTA": "", "OBSERVACIO": "Zona afectada por escorrentía superficial, donde la presencia de materiales arenosos y de baja cohesión acelera el proceso erosivo y la degradación del suelo.", "PROFUNDIDA": 1.78, "COD_ID": "PROC-25", "ENTREGA": "E05_R2", "HRMS": " ", "LATITUD": 6.5054472, "LONGITUD": -74.33832, "ALTURA": 129.1713, "NORTE": 2277035.87347, "ESTE": 4852077.0427200003, "IMAGEN_1": "C001_IMG_20260226_083500.jpg", "IMAGEN_2": "C001_IMG_20260226_083512.jpg", "IMAGEN_3": "C001_IMG_20260226_083518.jpg", "VISUALIZAR_IMAGEN_1": "https://drive.google.com/uc?export=view&id=1xD43WIyRw0bGApFztomgGXkDysc1rwlr", "VISUALIZAR_IMAGEN_2": "https://drive.google.com/uc?export=view&id=1gCaV-h5Sjz5uJBU6DIfqcGoMSKVQ1s__", "VISUALIZAR_IMAGEN_3": "https://drive.google.com/uc?export=view&id=1nR4ClBFTgEjDbkU4sWvkClRivBEMz1cm", "FUENTE": "IEDDV" }, "geometry": { "type": "Point", "coordinates": [ -74.33832, 6.505447200000049, 129.171300000001793 ] } },
{ "type": "Feature", "properties": { "OBJECTID": 26, "FECHA": "27/02/2026 00:00:00 (UTC)", "DEPTO": "SANTANDER", "MUNICIPIO": "CIMITARRA", "VEREDA": "PUERTO OLAYA", "GASODUCTO": "CENTRO - ORIENTE", "TRAMO": "Sebastopol - Vasconia", "TP_DUCTO": "Troncal", "DISTRITO": "1", "DIAMETRO": "20\"", "TRM_REG": "SEBASTOPOL - VASCONIA", "ZONA": "1", "PK": "114+960", "PK_PAT": "114960", "ID_EVENTO": " ", "TP_EVENTO": "SURCOS", "LONG_EVENT": 0.0, "PRIORIDAD": "( )", "AMENAZA": "( )", "ESTADO_EG": "Antiguo", "FX2": " ", "OBSERVACION_GEOTECNISTA": "", "OBSERVACIO": "No se evidencia proceso menor", "PROFUNDIDA": 1.79, "COD_ID": "PROC-26", "ENTREGA": "E05_R2", "HRMS": " ", "LATITUD": 6.4415970000000584, "LONGITUD": -74.374087, "ALTURA": 126.1385, "NORTE": 2269989.0461, "ESTE": 4848103.9377199998, "IMAGEN_1": "C001_IMG_20260227_114318.jpg", "IMAGEN_2": "C001_IMG_20260227_114325.jpg", "IMAGEN_3": "C001_IMG_20260227_114331.jpg", "VISUALIZAR_IMAGEN_1": "https://drive.google.com/uc?export=view&id=1MtnpamMZMNkgIaRqyUiqc-IbKmuJ9AOu", "VISUALIZAR_IMAGEN_2": "https://drive.google.com/uc?export=view&id=1itmN0llfOTIDVuRshxPfCfPUqWUxgCmU", "VISUALIZAR_IMAGEN_3": "https://drive.google.com/uc?export=view&id=1LbhE3aggGud0C0fhR9gq1Q8WmGO1RYGV", "FUENTE": "IEDDV" }, "geometry": { "type": "Point", "coordinates": [ -74.374087, 6.441597, 126.138500000000931 ] } },
{ "type": "Feature", "properties": { "OBJECTID": 27, "FECHA": "22/01/2026 00:00:00 (UTC)", "DEPTO": "CUNDINAMARCA", "MUNICIPIO": "GUADUAS", "VEREDA": "CEDRALES", "GASODUCTO": "CENTRO - ORIENTE", "TRAMO": "Puerto Salgar - Mariquita", "TP_DUCTO": "Troncal", "DISTRITO": "2", "DIAMETRO": "20\"", "TRM_REG": "VASCONIA - MARIQUITA", "ZONA": "2", "PK": "256+926", "PK_PAT": "256929", "ID_EVENTO": "", "TP_EVENTO": "CARCAVAS", "LONG_EVENT": 40.0, "PRIORIDAD": "( )", "AMENAZA": "( )", "ESTADO_EG": "Antiguo", "FX2": " ", "OBSERVACION_GEOTECNISTA": "", "OBSERVACIO": "Se evidencia formación de cárcava por concentración de escorrentía pluvial proveniente de potreros aledaños. La alta erodabilidad del terreno arenoso facilita la incisión profunda del suelo, creando un canal inestable que amenaza el derecho de vía", "PROFUNDIDA": 1.82, "COD_ID": "PRO-412", "ENTREGA": "E01_R2", "HRMS": " ", "LATITUD": 5.385745, "LONGITUD": -74.676215, "ALTURA": 184.912, "NORTE": 2153370.4861699999, "ESTE": 4814345.3033400001, "IMAGEN_1": "C001_IMG_20260122_072620.jpg", "IMAGEN_2": "C001_IMG_20260122_072630.jpg", "IMAGEN_3": "C001_IMG_20260122_072639.jpg", "VISUALIZAR_IMAGEN_1": "https://drive.google.com/uc?export=view&id=10OphJ9RQtz77eY6C0Z2VY_ic5INX-RqS", "VISUALIZAR_IMAGEN_2": "https://drive.google.com/uc?export=view&id=1i58sKhehdbNeFO1KFS5kQHJZUa96vRR7", "VISUALIZAR_IMAGEN_3": "https://drive.google.com/uc?export=view&id=1LWKxAJe4xQmErDeFCidFlGCcegfOwoC2", "FUENTE": "IEDDV" }, "geometry": { "type": "Point", "coordinates": [ -74.676215, 5.385745, 184.911999999996624 ] } },
{ "type": "Feature", "properties": { "OBJECTID": 28, "FECHA": "22/01/2026 00:00:00 (UTC)", "DEPTO": "CALDAS", "MUNICIPIO": "LA DORADA", "VEREDA": "LA PETROLEA", "GASODUCTO": "CENTRO - ORIENTE", "TRAMO": "Puerto Salgar - Mariquita", "TP_DUCTO": "Troncal", "DISTRITO": "2", "DIAMETRO": "20\"", "TRM_REG": "VASCONIA - MARIQUITA", "ZONA": "2", "PK": "258+751", "PK_PAT": "258760", "ID_EVENTO": "", "TP_EVENTO": "CARCAVAS", "LONG_EVENT": 0.0, "PRIORIDAD": "( )", "AMENAZA": "( )", "ESTADO_EG": "Antiguo", "FX2": " ", "OBSERVACION_GEOTECNISTA": "", "OBSERVACIO": "No se evidencia", "PROFUNDIDA": 0.0, "COD_ID": "PRO-423", "ENTREGA": "E01_R2", "HRMS": " ", "LATITUD": 5.3825824, "LONGITUD": -74.6908727, "ALTURA": 189.734, "NORTE": 2153025.3622900001, "ESTE": 4812720.4090299997, "IMAGEN_1": "C001_IMG_20260122_082416.jpg", "IMAGEN_2": "C001_IMG_20260122_082422.jpg", "IMAGEN_3": "C001_IMG_20260122_082431.jpg", "VISUALIZAR_IMAGEN_1": "https://drive.google.com/uc?export=view&id=1nrxu7T20I2SUYpGU4zB1E9I5JIWUm0x0", "VISUALIZAR_IMAGEN_2": "https://drive.google.com/uc?export=view&id=14fwej75KtP1eWqBcvVwK7u_NDcCscxEO", "VISUALIZAR_IMAGEN_3": "https://drive.google.com/uc?export=view&id=1shr0-lnOCCwP3G1-lL4h2X7NiYf1h8FW", "FUENTE": "IEDDV" }, "geometry": { "type": "Point", "coordinates": [ -74.690872699999943, 5.382582400000047, 189.73399999999674 ] } },
{ "type": "Feature", "properties": { "OBJECTID": 29, "FECHA": "26/01/2026 00:00:00 (UTC)", "DEPTO": "CALDAS", "MUNICIPIO": "LA DORADA", "VEREDA": "LAS CAMELIAS", "GASODUCTO": "CENTRO - ORIENTE", "TRAMO": "Puerto Salgar - Mariquita", "TP_DUCTO": "Troncal", "DISTRITO": "2", "DIAMETRO": "20\"", "TRM_REG": "VASCONIA - MARIQUITA", "ZONA": "2", "PK": "270+026", "PK_PAT": "270029", "ID_EVENTO": "", "TP_EVENTO": "CARCAVAS", "LONG_EVENT": 5.0, "PRIORIDAD": "( )", "AMENAZA": "( )", "ESTADO_EG": "Antiguo", "FX2": " ", "OBSERVACION_GEOTECNISTA": "", "OBSERVACIO": "Cárcava activa en DDV por escorrentía superficial. Suelo de matriz arenosa con alta erodabilidad y baja cohesión. Proceso erosivo acelerado por morfología ondulada. Requiere manejo de aguas. L=5m, An=2m, Al=0.5m. Evento perpendicular al ducto.", "PROFUNDIDA": 1.39, "COD_ID": "PRO-424", "ENTREGA": "E01_R2", "HRMS": " ", "LATITUD": 5.3116083, "LONGITUD": -74.7421854, "ALTURA": 213.655, "NORTE": 2145195.441, "ESTE": 4807013.1125999996, "IMAGEN_1": "C001_IMG_20260126_075209.jpg", "IMAGEN_2": "C001_IMG_20260126_075215.jpg", "IMAGEN_3": "C001_IMG_20260126_075227.jpg", "VISUALIZAR_IMAGEN_1": "https://drive.google.com/uc?export=view&id=1E5caSynrLMqaWwIdsO9vJk_B2UTEzDqa", "VISUALIZAR_IMAGEN_2": "https://drive.google.com/uc?export=view&id=1bJfbjakBl_xVUBKta-1yMs95LDoWkSoI", "VISUALIZAR_IMAGEN_3": "https://drive.google.com/uc?export=view&id=1mruFS2ciaOIcmeHWq9OoOH79eBr-gkxQ", "FUENTE": "IEDDV" }, "geometry": { "type": "Point", "coordinates": [ -74.742185399999983, 5.311608300000046, 213.654999999998836 ] } },
{ "type": "Feature", "properties": { "OBJECTID": 30, "FECHA": "23/01/2026 00:00:00 (UTC)", "DEPTO": "CALDAS", "MUNICIPIO": "LA DORADA", "VEREDA": "LA PETROLEA", "GASODUCTO": "CENTRO - ORIENTE", "TRAMO": "Termodorada", "TP_DUCTO": "Ramal", "DISTRITO": "2", "DIAMETRO": "12\"", "TRM_REG": "VASCONIA - MARIQUITA", "ZONA": "2", "PK": "000+834", "PK_PAT": "815", "ID_EVENTO": "", "TP_EVENTO": "SOCAVACIÓN DE FONDO", "LONG_EVENT": 100.0, "PRIORIDAD": "( )", "AMENAZA": "( )", "ESTADO_EG": "Antiguo", "FX2": " ", "OBSERVACION_GEOTECNISTA": "", "OBSERVACIO": "Se identifica canal de drenaje pluvial colmatado por vegetación densa. Presenta procesos erosivos por escorrentía en periodos de lluvia. Dimensiones: 100m de longitud, 3m de ancho y 2m de altura.", "PROFUNDIDA": 0.99, "COD_ID": "PRO-425", "ENTREGA": "E01_R2", "HRMS": "", "LATITUD": 5.3801981, "LONGITUD": -74.7133607, "ALTURA": 188.27, "NORTE": 2152768.7363200001, "ESTE": 4810228.1885900004, "IMAGEN_1": "C001_IMG_20260123_084948.jpg", "IMAGEN_2": "C001_IMG_20260123_085002.jpg", "IMAGEN_3": "C001_IMG_20260123_085019.jpg", "VISUALIZAR_IMAGEN_1": "https://drive.google.com/uc?export=view&id=1MemWzDy3gZi_2QZ7jtfshh149R8jqNCY", "VISUALIZAR_IMAGEN_2": "https://drive.google.com/uc?export=view&id=1nXFQ5j_MxyCGG7j_yP5Y-o73Y8JHd63c", "VISUALIZAR_IMAGEN_3": "https://drive.google.com/uc?export=view&id=1ny58W7jFq-Lw3nF3drL3ODSa0GNtvvRq", "FUENTE": "IEDDV" }, "geometry": { "type": "Point", "coordinates": [ -74.713360699999953, 5.38019810000003, 188.270000000004075 ] } },
{ "type": "Feature", "properties": { "OBJECTID": 31, "FECHA": "24/01/2026 00:00:00 (UTC)", "DEPTO": "CALDAS", "MUNICIPIO": "LA DORADA", "VEREDA": "PURNIO", "GASODUCTO": "CENTRO - ORIENTE", "TRAMO": "Termodorada", "TP_DUCTO": "Ramal", "DISTRITO": "2", "DIAMETRO": "12\"", "TRM_REG": "VASCONIA - MARIQUITA", "ZONA": "2", "PK": "004+965", "PK_PAT": "4962", "ID_EVENTO": "", "TP_EVENTO": "SOCAVACIÓN DE FONDO", "LONG_EVENT": 15.0, "PRIORIDAD": "( )", "AMENAZA": "( )", "ESTADO_EG": "Antiguo", "FX2": " ", "OBSERVACION_GEOTECNISTA": "", "OBSERVACIO": "Cárcava producida por flujo de agua lluvia en época de lluvias. Se observa una erosión fuerte debido a que el tipo de terreno es bastante arenoso, lo que facilita el desprendimiento de sedimentos. L=10m, An=1m, Al=1m. Evento paralelo al ducto.", "PROFUNDIDA": 1.05, "COD_ID": "PRO-426", "ENTREGA": "E01_R2", "HRMS": " ", "LATITUD": 5.4109028, "LONGITUD": -74.6932222, "ALTURA": 187.505, "NORTE": 2156156.7158900001, "ESTE": 4812468.80956, "IMAGEN_1": "C001_IMG_20260124_074257.jpg", "IMAGEN_2": "C001_IMG_20260124_074308.jpg", "IMAGEN_3": "C001_IMG_20260124_074314.jpg", "VISUALIZAR_IMAGEN_1": "https://drive.google.com/uc?export=view&id=1Hek2SuuxW8U6gaCZuj8_5m7XeTsm3Hdv", "VISUALIZAR_IMAGEN_2": "https://drive.google.com/uc?export=view&id=1AplNY7H2S4A7oJM0Q3T4ggvooaZlsWIS", "VISUALIZAR_IMAGEN_3": "https://drive.google.com/uc?export=view&id=1xppIXaJXlBudWnpcUM1tI3-hvIXW9TVP", "FUENTE": "IEDDV" }, "geometry": { "type": "Point", "coordinates": [ -74.69322219999998, 5.410902800000031, 187.505000000004657 ] } },
{ "type": "Feature", "properties": { "OBJECTID": 32, "FECHA": "27/01/2026 00:00:00 (UTC)", "DEPTO": "TOLIMA", "MUNICIPIO": "SAN SEBASTIÁN DE MARIQUITA", "VEREDA": "EL RANO", "GASODUCTO": "CENTRO - ORIENTE", "TRAMO": "Puerto Salgar - Mariquita", "TP_DUCTO": "Troncal", "DISTRITO": "2", "DIAMETRO": "20\"", "TRM_REG": "VASCONIA - MARIQUITA", "ZONA": "2", "PK": "286+212", "PK_PAT": "286214", "ID_EVENTO": "", "TP_EVENTO": "SOCAVACIÓN DE FONDO", "LONG_EVENT": 40.0, "PRIORIDAD": "Medio", "AMENAZA": "Medio", "ESTADO_EG": "Antiguo", "FX2": " ", "OBSERVACION_GEOTECNISTA": "", "OBSERVACIO": "Se observa socavación de fondo y lateral en las margenes del cauce que atraviesa el DDV. El flujo de agua ha generado erosión en la orilla, provocando desprendimiento de suelo y pérdida de estabilidad en el talud interno debido a la fuerza hidráulica del cauce.", "PROFUNDIDA": 1.46, "COD_ID": "PRO-136", "ENTREGA": "E01_R2", "HRMS": " ", "LATITUD": 5.289031, "LONGITUD": -74.842578, "ALTURA": 0.0, "NORTE": 2142731.70523, "ESTE": 4795881.2268500002, "IMAGEN_1": "C001_IMG_20260127_111403.jpg", "IMAGEN_2": "C001_IMG_20260127_111410.jpg", "IMAGEN_3": "C001_IMG_20260127_111416.jpg", "VISUALIZAR_IMAGEN_1": "https://drive.google.com/uc?export=view&id=1SleWkMZQYO80s-mvIbuD4_iAypshMwe3", "VISUALIZAR_IMAGEN_2": "https://drive.google.com/uc?export=view&id=1jo5HsU3vILnPJ_aHl6xyZ1EW9rTpQmIK", "VISUALIZAR_IMAGEN_3": "https://drive.google.com/uc?export=view&id=1RfSZ0q6ayJga11QHdMoo-EQBBRMPYa5E", "FUENTE": "IEDDV" }, "geometry": { "type": "Point", "coordinates": [ -74.842578, 5.289031, 0.0 ] } },
{ "type": "Feature", "properties": { "OBJECTID": 33, "FECHA": "27/01/2026 00:00:00 (UTC)", "DEPTO": "TOLIMA", "MUNICIPIO": "HONDA", "VEREDA": "PERICO", "GASODUCTO": "CENTRO - ORIENTE", "TRAMO": "Puerto Salgar - Mariquita", "TP_DUCTO": "Troncal", "DISTRITO": "2", "DIAMETRO": "20\"", "TRM_REG": "VASCONIA - MARIQUITA", "ZONA": "2", "PK": "284+543", "PK_PAT": "284554", "ID_EVENTO": "", "TP_EVENTO": "CARCAVAS", "LONG_EVENT": 1.0, "PRIORIDAD": "( )", "AMENAZA": "( )", "ESTADO_EG": "Antiguo", "FX2": " ", "OBSERVACION_GEOTECNISTA": "", "OBSERVACIO": "Se observan cárcavas en el DDV debido a la escorrentía concentrada de aguas lluvias sobre un terreno de matriz arenosa. La falta de control hídrico en este suelo de baja cohesión facilita la erosión acelerada y la pérdida de estabilidad superficial", "PROFUNDIDA": 1.13, "COD_ID": "PROC-1", "ENTREGA": "E01_R2", "HRMS": " ", "LATITUD": 5.3027136840000253, "LONGITUD": -74.843722932999981, "ALTURA": 0.0, "NORTE": 2144244.7283800002, "ESTE": 4795758.8433699999, "IMAGEN_1": "C001_IMG_20260127_121108.jpg", "IMAGEN_2": "C001_IMG_20260127_121114.jpg", "IMAGEN_3": "C001_IMG_20260127_121122.jpg", "VISUALIZAR_IMAGEN_1": "https://drive.google.com/uc?export=view&id=1VmzUcoiJ3iBYXxCDFlq_mcWjtQ7-oUHL", "VISUALIZAR_IMAGEN_2": "https://drive.google.com/uc?export=view&id=1e_HcMaZk4iUgC6_vm6hrEPvm3VE0pax6", "VISUALIZAR_IMAGEN_3": "https://drive.google.com/uc?export=view&id=1R31smA6FU4d_ZlSIom7n4qSIjstfh5IM", "FUENTE": "IEDDV" }, "geometry": { "type": "Point", "coordinates": [ -74.843722932999981, 5.302713684000025, 0.0 ] } },
{ "type": "Feature", "properties": { "OBJECTID": 34, "FECHA": "27/01/2026 00:00:00 (UTC)", "DEPTO": "TOLIMA", "MUNICIPIO": "SAN SEBASTIÁN DE MARIQUITA", "VEREDA": "SAN ANTONIO", "GASODUCTO": "CENTRO - ORIENTE", "TRAMO": "Puerto Salgar - Mariquita", "TP_DUCTO": "Troncal", "DISTRITO": "2", "DIAMETRO": "20\"", "TRM_REG": "VASCONIA - MARIQUITA", "ZONA": "2", "PK": "288+804", "PK_PAT": "288800", "ID_EVENTO": "", "TP_EVENTO": "SOCAVACIÓN DE FONDO", "LONG_EVENT": 4.0, "PRIORIDAD": "( )", "AMENAZA": "( )", "ESTADO_EG": "Antiguo", "FX2": " ", "OBSERVACION_GEOTECNISTA": "", "OBSERVACIO": "Se observa socavación bajo la tubería debido al flujo de agua en temporadas de lluvia. La pérdida de material de soporte deja el ducto en condición de \"voladizo\", generando riesgos por esfuerzos mecánicos y falta de estabilidad estructural en el DDV", "PROFUNDIDA": 0.0, "COD_ID": "PRO-415", "ENTREGA": "E01_R2", "HRMS": " ", "LATITUD": 5.2674202500000433, "LONGITUD": -74.8507417, "ALTURA": 0.0, "NORTE": 2140345.2762500001, "ESTE": 4794969.4486499997, "IMAGEN_1": "C001_IMG_20260127_092532.jpg", "IMAGEN_2": "C001_IMG_20260127_092539.jpg", "IMAGEN_3": "C001_IMG_20260127_092544.jpg", "VISUALIZAR_IMAGEN_1": "https://drive.google.com/uc?export=view&id=1rwjS_rVYUkqtugRuqXj1bxJmmx-HcNGu", "VISUALIZAR_IMAGEN_2": "https://drive.google.com/uc?export=view&id=1ckWH3scacPuldIG8wtYxEHkJjgDlTv7r", "VISUALIZAR_IMAGEN_3": "https://drive.google.com/uc?export=view&id=1V-MXOF56fTuEh9lUI59H4SJ69441stdV", "FUENTE": "IEDDV" }, "geometry": { "type": "Point", "coordinates": [ -74.850741699999958, 5.267420250000043, 0.0 ] } },
{ "type": "Feature", "properties": { "OBJECTID": 35, "FECHA": "21/01/2026 00:00:00 (UTC)", "DEPTO": "CUNDINAMARCA", "MUNICIPIO": "PUERTO SALGAR", "VEREDA": "BRISAS", "GASODUCTO": "CENTRO - ORIENTE", "TRAMO": "Puerto Salgar - Mariquita", "TP_DUCTO": "Troncal", "DISTRITO": "2", "DIAMETRO": "20\"", "TRM_REG": "VASCONIA - MARIQUITA", "ZONA": "2", "PK": "249+880", "PK_PAT": "249882", "ID_EVENTO": "", "TP_EVENTO": "OTRO", "LONG_EVENT": 10.0, "PRIORIDAD": "Bajo", "AMENAZA": "Bajo", "ESTADO_EG": "Antiguo", "FX2": " ", "OBSERVACION_GEOTECNISTA": "", "OBSERVACIO": "Se alcanza a observar un corte semicircular en el terreno pero se encuentra totalmente cubierto por la vegetacion", "PROFUNDIDA": 4.5, "COD_ID": "PRO-119", "ENTREGA": "E01_R2", "HRMS": " ", "LATITUD": 5.4344400000000519, "LONGITUD": -74.642488, "ALTURA": 199.864, "NORTE": 2158743.1001499998, "ESTE": 4818096.4233600004, "IMAGEN_1": "C001_IMG_20260121_074101.jpg", "IMAGEN_2": "C001_IMG_20260121_074201.jpg", "IMAGEN_3": "C001_IMG_20260121_074210.jpg", "VISUALIZAR_IMAGEN_1": "https://drive.google.com/uc?export=view&id=1Yn-xhar2mbSXOu63k7IHoWtkeKMRbdrb", "VISUALIZAR_IMAGEN_2": "https://drive.google.com/uc?export=view&id=1RFzz30csO7cCib1VxWoCz1oGVoT74z9A", "VISUALIZAR_IMAGEN_3": "https://drive.google.com/uc?export=view&id=1c4uCZfcpOSs71_cbnrJ6wBWEKHNZavO2", "FUENTE": "IEDDV" }, "geometry": { "type": "Point", "coordinates": [ -74.642488, 5.43444, 199.864000000001397 ] } },
{ "type": "Feature", "properties": { "OBJECTID": 36, "FECHA": "21/01/2026 00:00:00 (UTC)", "DEPTO": "CUNDINAMARCA", "MUNICIPIO": "GUADUAS", "VEREDA": "CEDRALES", "GASODUCTO": "CENTRO - ORIENTE", "TRAMO": "Puerto Salgar - Mariquita", "TP_DUCTO": "Troncal", "DISTRITO": "2", "DIAMETRO": "20\"", "TRM_REG": "VASCONIA - MARIQUITA", "ZONA": "2", "PK": "250+548", "PK_PAT": "250547", "ID_EVENTO": "", "TP_EVENTO": "OTRO", "LONG_EVENT": 10.0, "PRIORIDAD": "Bajo", "AMENAZA": "Bajo", "ESTADO_EG": "Antiguo", "FX2": " ", "OBSERVACION_GEOTECNISTA": "", "OBSERVACIO": "Falla estructural en muro de saco suelos con fuerte inclinación hacia el lecho del cauce. Se observa desgarramiento de material sintético y exposición de tuberías, evidenciando pérdida de estabilidad por socavación basal y empuje de tierras activo.", "PROFUNDIDA": 0.95, "COD_ID": "PRO-120", "ENTREGA": "E01_R2", "HRMS": " ", "LATITUD": 5.429177, "LONGITUD": -74.645181, "ALTURA": 181.77899999999499, "NORTE": 2158162.1346999998, "ESTE": 4817796.5140899997, "IMAGEN_1": "C001_IMG_20260121_080520.jpg", "IMAGEN_2": "C001_IMG_20260121_080526.jpg", "IMAGEN_3": "C001_IMG_20260121_080533.jpg", "VISUALIZAR_IMAGEN_1": "https://drive.google.com/uc?export=view&id=1Z_ARjeZ0PRkjnit8zu5r1CmdqCcp7uGS", "VISUALIZAR_IMAGEN_2": "https://drive.google.com/uc?export=view&id=1rpmsYZbcC4jAsOQPwo2E3q_iUJ8j8MZV", "VISUALIZAR_IMAGEN_3": "https://drive.google.com/uc?export=view&id=1hmkvTtmqHV6sftPAWALAl-pbM7xF61A4", "FUENTE": "IEDDV" }, "geometry": { "type": "Point", "coordinates": [ -74.645181, 5.429177, 181.778999999994994 ] } },
{ "type": "Feature", "properties": { "OBJECTID": 37, "FECHA": "21/01/2026 00:00:00 (UTC)", "DEPTO": "CUNDINAMARCA", "MUNICIPIO": "GUADUAS", "VEREDA": "CEDRALES", "GASODUCTO": "CENTRO - ORIENTE", "TRAMO": "Puerto Salgar - Mariquita", "TP_DUCTO": "Troncal", "DISTRITO": "2", "DIAMETRO": "20\"", "TRM_REG": "VASCONIA - MARIQUITA", "ZONA": "2", "PK": "252+322", "PK_PAT": "252318", "ID_EVENTO": "", "TP_EVENTO": "SOCAVACIÓN LATERAL", "LONG_EVENT": 20.0, "PRIORIDAD": "Bajo", "AMENAZA": "Bajo", "ESTADO_EG": "Antiguo", "FX2": " ", "OBSERVACION_GEOTECNISTA": "", "OBSERVACIO": "Se observa socavación lateral activa por flujo de agua en la margen izquierda del cauce. El proceso erosivo ha generado desprendimiento de terreno y aporte de sedimentos sobre el lecho de la quebrada, comprometiendo la estabilidad de la sección.", "PROFUNDIDA": 2.07, "COD_ID": "PROC-2", "ENTREGA": "E01_R2", "HRMS": " ", "LATITUD": 5.4161889500000484, "LONGITUD": -74.65419796599997, "ALTURA": 200.72500000000582, "NORTE": 2156729.14108, "ESTE": 4816793.6948300004, "IMAGEN_1": "C001_IMG_20260121_091435.jpg", "IMAGEN_2": "C001_IMG_20260121_091442.jpg", "IMAGEN_3": "C001_IMG_20260121_091449.jpg", "VISUALIZAR_IMAGEN_1": "https://drive.google.com/uc?export=view&id=1YuYXiBwnErKBYUHsOIw0qXt99_Lqreu3", "VISUALIZAR_IMAGEN_2": "https://drive.google.com/uc?export=view&id=1eny83JyDBrJYeOMAfJs0tEawThSFZ10U", "VISUALIZAR_IMAGEN_3": "https://drive.google.com/uc?export=view&id=1Y8BK09j3SzUsv8vexvEXjRyaaV4iNuGg", "FUENTE": "IEDDV" }, "geometry": { "type": "Point", "coordinates": [ -74.65419796599997, 5.416188950000048, 200.725000000005821 ] } },
{ "type": "Feature", "properties": { "OBJECTID": 38, "FECHA": "21/01/2026 00:00:00 (UTC)", "DEPTO": "CUNDINAMARCA", "MUNICIPIO": "GUADUAS", "VEREDA": "CEDRALES", "GASODUCTO": "CENTRO - ORIENTE", "TRAMO": "Puerto Salgar - Mariquita", "TP_DUCTO": "Troncal", "DISTRITO": "2", "DIAMETRO": "20\"", "TRM_REG": "VASCONIA - MARIQUITA", "ZONA": "2", "PK": "253+259", "PK_PAT": "253261", "ID_EVENTO": "", "TP_EVENTO": "SOCAVACIÓN LATERAL", "LONG_EVENT": 20.0, "PRIORIDAD": "Bajo", "AMENAZA": "Bajo", "ESTADO_EG": "Antiguo", "FX2": " ", "OBSERVACION_GEOTECNISTA": "", "OBSERVACIO": "Erosión lateral activa por flujo de agua en la margen derecha. La socavación en la base ha eliminado el confinamiento del suelo bajo la estructura hidráulica, evidenciando un proceso que amenaza la integridad del canal de concreto que llega al cauce.", "PROFUNDIDA": 0.95, "COD_ID": "PRO-122", "ENTREGA": "E01_R2", "HRMS": " ", "LATITUD": 5.409799, "LONGITUD": -74.659493, "ALTURA": 188.598, "NORTE": 2156024.38778, "ESTE": 4816205.1649599997, "IMAGEN_1": "C001_IMG_20260121_093639.jpg", "IMAGEN_2": "C001_IMG_20260121_093644.jpg", "IMAGEN_3": "C001_IMG_20260121_093653.jpg", "VISUALIZAR_IMAGEN_1": "https://drive.google.com/uc?export=view&id=101Tna8wLzdadOgq0zLtBX6NtyzlNRcBi", "VISUALIZAR_IMAGEN_2": "https://drive.google.com/uc?export=view&id=1v3Iz7ESm34kcbRbXRstf_4SaU2FrtEj0", "VISUALIZAR_IMAGEN_3": "https://drive.google.com/uc?export=view&id=1ionhcHMfYcMek3_wRAgML2EX1sXzibbO", "FUENTE": "IEDDV" }, "geometry": { "type": "Point", "coordinates": [ -74.659493, 5.409799, 188.597999999998137 ] } },
{ "type": "Feature", "properties": { "OBJECTID": 39, "FECHA": "21/01/2026 00:00:00 (UTC)", "DEPTO": "CUNDINAMARCA", "MUNICIPIO": "GUADUAS", "VEREDA": "CEDRALES", "GASODUCTO": "CENTRO - ORIENTE", "TRAMO": "Puerto Salgar - Mariquita", "TP_DUCTO": "Troncal", "DISTRITO": "2", "DIAMETRO": "20\"", "TRM_REG": "VASCONIA - MARIQUITA", "ZONA": "2", "PK": "254+733", "PK_PAT": "254680", "ID_EVENTO": "", "TP_EVENTO": "OTRO", "LONG_EVENT": 5.0, "PRIORIDAD": "Bajo", "AMENAZA": "Bajo", "ESTADO_EG": "Antiguo", "FX2": " ", "OBSERVACION_GEOTECNISTA": "", "OBSERVACIO": "Se identifican procesos de erosión en surcos y cárcavas incipientes (agujeros) sobre el eje del ducto. El fenómeno es causado por flujo de escorrentía no canalizado que lava los finos del terreno, generando pérdida de cobertura y riesgo de exposición", "PROFUNDIDA": 2.77, "COD_ID": "PROC-3", "ENTREGA": "E01_R2", "HRMS": " ", "LATITUD": 5.3973955740000292, "LONGITUD": -74.662883956999963, "ALTURA": 190.71799999999348, "NORTE": 2154654.3192400001, "ESTE": 4815825.7516299998, "IMAGEN_1": "C001_IMG_20260121_104924.jpg", "IMAGEN_2": "C001_IMG_20260121_104935.jpg", "IMAGEN_3": "C001_IMG_20260121_104944.jpg", "VISUALIZAR_IMAGEN_1": "https://drive.google.com/uc?export=view&id=1IbXQRXapm_Na9uwl8u9s4uFORMSqewY-", "VISUALIZAR_IMAGEN_2": "https://drive.google.com/uc?export=view&id=1VPhsG-U7RxRrbsJvzq4PQ56NeZLx7Ua7", "VISUALIZAR_IMAGEN_3": "https://drive.google.com/uc?export=view&id=1hqu-IApZuNhhVOkSuX9pLwOzLZSUfQFW", "FUENTE": "IEDDV" }, "geometry": { "type": "Point", "coordinates": [ -74.662883956999963, 5.397395574000029, 190.717999999993481 ] } },
{ "type": "Feature", "properties": { "OBJECTID": 40, "FECHA": "19/01/2026 00:00:00 (UTC)", "DEPTO": "CUNDINAMARCA", "MUNICIPIO": "PUERTO SALGAR", "VEREDA": "YERBABUENA", "GASODUCTO": "CENTRO - ORIENTE", "TRAMO": "Vasconia - Puerto Salgar", "TP_DUCTO": "Troncal", "DISTRITO": "1", "DIAMETRO": "20\"", "TRM_REG": "VASCONIA - MARIQUITA", "ZONA": "1", "PK": "237+483", "PK_PAT": "237484", "ID_EVENTO": "", "TP_EVENTO": "OTRO", "LONG_EVENT": 10.0, "PRIORIDAD": "Bajo", "AMENAZA": "Bajo", "ESTADO_EG": "Antiguo", "FX2": " ", "OBSERVACION_GEOTECNISTA": "", "OBSERVACIO": "Proceso erosivo en las márgenes del cuerpo de agua (caño) debido a la escorrentía superficial proveniente de zonas de pastoreo (potreros). La erosión presenta dimensiones de L=4.0m, An=2.0m y Prf=1.0m. Evento paralelo al ducto", "PROFUNDIDA": 4.14, "COD_ID": "PRO-124", "ENTREGA": "E01_R2", "HRMS": " ", "LATITUD": 5.537403, "LONGITUD": -74.625376, "ALTURA": 173.897, "NORTE": 2170119.50018, "ESTE": 4820022.9376999997, "IMAGEN_1": "C001_IMG_20260119_092404.jpg", "IMAGEN_2": "C001_IMG_20260119_092421.jpg", "IMAGEN_3": "C001_IMG_20260119_092435.jpg", "VISUALIZAR_IMAGEN_1": "https://drive.google.com/uc?export=view&id=1wRyrKwbNKqo-1BeojvhGEV5Jz9YoA08C", "VISUALIZAR_IMAGEN_2": "https://drive.google.com/uc?export=view&id=1sfE2kB_OZJLb_gBj2t_kR8XNqlvWMXDV", "VISUALIZAR_IMAGEN_3": "https://drive.google.com/uc?export=view&id=1DVN3vGoMOVp9giVWL3wVZZSE0EsqRqUu", "FUENTE": "IEDDV" }, "geometry": { "type": "Point", "coordinates": [ -74.625376, 5.537403, 173.896999999997206 ] } },
{ "type": "Feature", "properties": { "OBJECTID": 41, "FECHA": "21/01/2026 00:00:00 (UTC)", "DEPTO": "CUNDINAMARCA", "MUNICIPIO": "GUADUAS", "VEREDA": "CEDRALES", "GASODUCTO": "CENTRO - ORIENTE", "TRAMO": "Puerto Salgar - Mariquita", "TP_DUCTO": "Troncal", "DISTRITO": "2", "DIAMETRO": "20\"", "TRM_REG": "VASCONIA - MARIQUITA", "ZONA": "2", "PK": "251+518", "PK_PAT": "251515", "ID_EVENTO": "", "TP_EVENTO": "CARCAVAS", "LONG_EVENT": 3.0, "PRIORIDAD": "( )", "AMENAZA": "( )", "ESTADO_EG": "Antiguo", "FX2": " ", "OBSERVACION_GEOTECNISTA": "", "OBSERVACIO": "Se identifica proceso de inestabilidad lateral con asentamiento diferencial del terreno. La depresión observada sugiere erosión interna o pérdida de soporte mecánico por saturación, lo que representa un riesgo de desplazamiento sobre el DDV. An=3m", "PROFUNDIDA": 2.2, "COD_ID": "PRO-411", "ENTREGA": "E01_R2", "HRMS": " ", "LATITUD": 5.4220790000000534, "LONGITUD": -74.650049, "ALTURA": 185.656, "NORTE": 2157378.9819499999, "ESTE": 4817255.0996700004, "IMAGEN_1": "C001_IMG_20260121_085241.jpg", "IMAGEN_2": "C001_IMG_20260121_085248.jpg", "IMAGEN_3": "C001_IMG_20260121_085258.jpg", "VISUALIZAR_IMAGEN_1": "https://drive.google.com/uc?export=view&id=1NlHPIcWxgmMxOMo3qL9m37KZphVxzOxt", "VISUALIZAR_IMAGEN_2": "https://drive.google.com/uc?export=view&id=1P7zLP938s8WFuXpSfkIu6ETdOy6E5zAj", "VISUALIZAR_IMAGEN_3": "https://drive.google.com/uc?export=view&id=1XzrCyGO5k3PGV_pSyh5KxtIaCmy1j9qu", "FUENTE": "IEDDV" }, "geometry": { "type": "Point", "coordinates": [ -74.650049, 5.422079, 185.656000000002678 ] } },
{ "type": "Feature", "properties": { "OBJECTID": 42, "FECHA": "20/01/2026 00:00:00 (UTC)", "DEPTO": "CUNDINAMARCA", "MUNICIPIO": "PUERTO SALGAR", "VEREDA": "TRES Y MEDIO", "GASODUCTO": "CENTRO - ORIENTE", "TRAMO": "Vasconia - Puerto Salgar", "TP_DUCTO": "Troncal", "DISTRITO": "1", "DIAMETRO": "20\"", "TRM_REG": "VASCONIA - MARIQUITA", "ZONA": "1", "PK": "242+187", "PK_PAT": "242179", "ID_EVENTO": "", "TP_EVENTO": "SOCAVACIÓN LATERAL", "LONG_EVENT": 5.0, "PRIORIDAD": "( )", "AMENAZA": "( )", "ESTADO_EG": "Antiguo", "FX2": " ", "OBSERVACION_GEOTECNISTA": "", "OBSERVACIO": "Proceso erosivo en las márgenes del cuerpo de agua (caño) debido a la escorrentía superficial proveniente de zonas de pastoreo (potreros). La erosión presenta dimensiones de L=5m, An=1m y Prf=0.50m. Evento paralelo al ducto. Posicion ajustada", "PROFUNDIDA": 3.58, "COD_ID": "PROC-4", "ENTREGA": "E01_R2", "HRMS": " ", "LATITUD": 5.4987613200000283, "LONGITUD": -74.630046082999968, "ALTURA": 180.34299999999348, "NORTE": 2165849.4565499998, "ESTE": 4819493.9953699997, "IMAGEN_1": "C001_IMG_20260120_081954.jpg", "IMAGEN_2": "C001_IMG_20260120_082007.jpg", "IMAGEN_3": "C001_IMG_20260120_082042.jpg", "VISUALIZAR_IMAGEN_1": "https://drive.google.com/uc?export=view&id=1d2szgxwBSwSqwPiSlYVlnwsN_qOu7GOu", "VISUALIZAR_IMAGEN_2": "https://drive.google.com/uc?export=view&id=1MW6z9Od-l2Xj-5mdUIqJJI41oFbd4RjT", "VISUALIZAR_IMAGEN_3": "https://drive.google.com/uc?export=view&id=1dd5ITa7c7CkMmBw6KMWoIU9S7JZHEUQe", "FUENTE": "IEDDV" }, "geometry": { "type": "Point", "coordinates": [ -74.630046082999968, 5.498761320000028, 180.342999999993481 ] } },
{ "type": "Feature", "properties": { "OBJECTID": 43, "FECHA": "21/01/2026 00:00:00 (UTC)", "DEPTO": "CUNDINAMARCA", "MUNICIPIO": "PUERTO SALGAR", "VEREDA": "BRISAS", "GASODUCTO": "CENTRO - ORIENTE", "TRAMO": "Puerto Salgar - Mariquita", "TP_DUCTO": "Troncal", "DISTRITO": "2", "DIAMETRO": "20\"", "TRM_REG": "VASCONIA - MARIQUITA", "ZONA": "2", "PK": "249+900", "PK_PAT": "249897", "ID_EVENTO": "", "TP_EVENTO": "SOCAVACIÓN LATERAL", "LONG_EVENT": 3.0, "PRIORIDAD": "( )", "AMENAZA": "( )", "ESTADO_EG": "Antiguo", "FX2": " ", "OBSERVACION_GEOTECNISTA": "", "OBSERVACIO": "Socavación lateral activa en margen izquierda genera inestabilidad del talud. Se identifica desprendimiento de material detrítico y bloques hacia el cauce por pérdida de soporte en la base, comprometiendo la sección hidráulica. L=3m, An=10m, Al=2m.", "PROFUNDIDA": 1.73, "COD_ID": "PRO-459", "ENTREGA": "E01_R2", "HRMS": " ", "LATITUD": 5.4342691700000501, "LONGITUD": -74.642538229999957, "ALTURA": 200.477, "NORTE": 2158724.23159, "ESTE": 4818090.8076600004, "IMAGEN_1": "C001_IMG_20260121_074525.jpg", "IMAGEN_2": "C001_IMG_20260121_074535.jpg", "IMAGEN_3": "C001_IMG_20260121_074542.jpg", "VISUALIZAR_IMAGEN_1": "https://drive.google.com/uc?export=view&id=13YxaHmI6mvf-zK_Fk0ohlwD-WtiO4FO1", "VISUALIZAR_IMAGEN_2": "https://drive.google.com/uc?export=view&id=1qUIuvKYZJ7w-6lzpOoQTPObCPUIivMg7", "VISUALIZAR_IMAGEN_3": "https://drive.google.com/uc?export=view&id=1QnKHiwt_63XtW55RDzcovCg0JbEEKtYM", "FUENTE": "IEDDV" }, "geometry": { "type": "Point", "coordinates": [ -74.642538229999957, 5.43426917000005, 200.476999999998952 ] } },
{ "type": "Feature", "properties": { "OBJECTID": 44, "FECHA": "21/01/2026 00:00:00 (UTC)", "DEPTO": "CUNDINAMARCA", "MUNICIPIO": "PUERTO SALGAR", "VEREDA": "BRISAS", "GASODUCTO": "CENTRO - ORIENTE", "TRAMO": "Puerto Salgar - Mariquita", "TP_DUCTO": "Troncal", "DISTRITO": "2", "DIAMETRO": "20\"", "TRM_REG": "VASCONIA - MARIQUITA", "ZONA": "2", "PK": "250+432", "PK_PAT": "250432", "ID_EVENTO": "", "TP_EVENTO": "OTRO", "LONG_EVENT": 1.0, "PRIORIDAD": "( )", "AMENAZA": "( )", "ESTADO_EG": "Antiguo", "FX2": " ", "OBSERVACION_GEOTECNISTA": "", "OBSERVACIO": "Se detecta canalización Prof=0.5m oculta por cobertura vegetal espesa. Condición insegura por riesgo de caídas y esguinces al personal de inspección debido a nula visibilidad. Necesaria intervención de rocería para identificar la discontinuidad.", "PROFUNDIDA": 1.87, "COD_ID": "PRO-460", "ENTREGA": "E01_R2", "HRMS": " ", "LATITUD": 5.4299556, "LONGITUD": -74.6445117, "ALTURA": 190.961, "NORTE": 2158248.0002899999, "ESTE": 4817870.8928800002, "IMAGEN_1": "C001_IMG_20260121_075905.jpg", "IMAGEN_2": "C001_IMG_20260121_075915.jpg", "IMAGEN_3": "C001_IMG_20260121_075933.jpg", "VISUALIZAR_IMAGEN_1": "https://drive.google.com/uc?export=view&id=1-rJG4a0Q73k60uj_1IuFNavVKOayzyDy", "VISUALIZAR_IMAGEN_2": "https://drive.google.com/uc?export=view&id=14A86nBhsrfqDcUjAFzOMmklzGMPsDdae", "VISUALIZAR_IMAGEN_3": "https://drive.google.com/uc?export=view&id=1Rp98KvTfVn7GxGnF5z6W01eCkpO21r4z", "FUENTE": "IEDDV" }, "geometry": { "type": "Point", "coordinates": [ -74.644511699999953, 5.429955600000028, 190.960999999995693 ] } },
{ "type": "Feature", "properties": { "OBJECTID": 45, "FECHA": "19/01/2026 00:00:00 (UTC)", "DEPTO": "CUNDINAMARCA", "MUNICIPIO": "PUERTO SALGAR", "VEREDA": "YERBABUENA", "GASODUCTO": "CENTRO - ORIENTE", "TRAMO": "Vasconia - Puerto Salgar", "TP_DUCTO": "Troncal", "DISTRITO": "1", "DIAMETRO": "20\"", "TRM_REG": "VASCONIA - MARIQUITA", "ZONA": "1", "PK": "235+922", "PK_PAT": "235925", "ID_EVENTO": "", "TP_EVENTO": "SOCAVACIÓN DE FONDO", "LONG_EVENT": 0.0, "PRIORIDAD": "( )", "AMENAZA": "( )", "ESTADO_EG": "Antiguo", "FX2": " ", "OBSERVACION_GEOTECNISTA": "", "OBSERVACIO": "No se evidencia", "PROFUNDIDA": 1.19, "COD_ID": "PRO-505", "ENTREGA": "E01_R2", "HRMS": " ", "LATITUD": 5.5513, "LONGITUD": -74.6242, "ALTURA": 172.57000000000698, "NORTE": 2171655.3187299999, "ESTE": 4820157.3985599997, "IMAGEN_1": "C001_IMG_20260119_082337.jpg", "IMAGEN_2": "C001_IMG_20260119_082353.jpg", "IMAGEN_3": "C001_IMG_20260119_082359.jpg", "VISUALIZAR_IMAGEN_1": "https://drive.google.com/uc?export=view&id=1AlwqO-7BSeQLKRVv8Ku1q_PKqBRrIirV", "VISUALIZAR_IMAGEN_2": "https://drive.google.com/uc?export=view&id=1NKAIklj_KWDv3deH3_BSSdNRJvglf48M", "VISUALIZAR_IMAGEN_3": "https://drive.google.com/uc?export=view&id=1uIDQ7MuAxYwPpTv39Zd4p2FD_bR5lUtG", "FUENTE": "IEDDV" }, "geometry": { "type": "Point", "coordinates": [ -74.6242, 5.5513, 172.570000000006985 ] } },
{ "type": "Feature", "properties": { "OBJECTID": 46, "FECHA": "21/01/2026 00:00:00 (UTC)", "DEPTO": "BOYACÁ", "MUNICIPIO": "PUERTO BOYACÁ", "VEREDA": "MARANAL", "GASODUCTO": "CENTRO - ORIENTE", "TRAMO": "Vasconia - Puerto Salgar", "TP_DUCTO": "Troncal", "DISTRITO": "1", "DIAMETRO": "20\"", "TRM_REG": "VASCONIA - MARIQUITA", "ZONA": "1", "PK": "201+038", "PK_PAT": "201025", "ID_EVENTO": "", "TP_EVENTO": "CARCAVAS", "LONG_EVENT": 5.0, "PRIORIDAD": "( )", "AMENAZA": "( )", "ESTADO_EG": "Antiguo", "FX2": " ", "OBSERVACION_GEOTECNISTA": "", "OBSERVACIO": "Carcavas superficiales", "PROFUNDIDA": 1.3, "COD_ID": "PRO-435", "ENTREGA": "E02_R2", "HRMS": " ", "LATITUD": 5.84702, "LONGITUD": -74.63272, "ALTURA": 169.906, "NORTE": 2204347.1134199998, "ESTE": 4819306.2843000004, "IMAGEN_1": "C002_IMG_20260121_101251.jpg", "IMAGEN_2": "C002_IMG_20260121_101341.jpg", "IMAGEN_3": "C002_IMG_20260121_101348.jpg", "VISUALIZAR_IMAGEN_1": "https://drive.google.com/uc?export=view&id=1rQ20fn3z7igId1zKZD9pxY9MHc6vfnRt", "VISUALIZAR_IMAGEN_2": "https://drive.google.com/uc?export=view&id=1HjRTlDcWkNNh-cw_gdSvLqid9ueqBHKd", "VISUALIZAR_IMAGEN_3": "https://drive.google.com/uc?export=view&id=1K0i7PIegyT7pIAWYeEWtIxDxgeQ8yTnf", "FUENTE": "IEDDV" }, "geometry": { "type": "Point", "coordinates": [ -74.63272, 5.84702, 169.906000000002678 ] } },
{ "type": "Feature", "properties": { "OBJECTID": 47, "FECHA": "21/01/2026 00:00:00 (UTC)", "DEPTO": "BOYACÁ", "MUNICIPIO": "PUERTO BOYACÁ", "VEREDA": "MARANAL", "GASODUCTO": "CENTRO - ORIENTE", "TRAMO": "Vasconia - Puerto Salgar", "TP_DUCTO": "Troncal", "DISTRITO": "1", "DIAMETRO": "20\"", "TRM_REG": "VASCONIA - MARIQUITA", "ZONA": "1", "PK": "201+078", "PK_PAT": "201080", "ID_EVENTO": "", "TP_EVENTO": "DESLIZAMIENTO ROTACIONAL", "LONG_EVENT": 15.0, "PRIORIDAD": "( )", "AMENAZA": "( )", "ESTADO_EG": "Antiguo", "FX2": " ", "OBSERVACION_GEOTECNISTA": "", "OBSERVACIO": "Deslizamiento antiguo", "PROFUNDIDA": 2.13, "COD_ID": "PRO-436", "ENTREGA": "E02_R2", "HRMS": " ", "LATITUD": 5.8468100000000618, "LONGITUD": -74.63301, "ALTURA": 164.07799999999406, "NORTE": 2204323.9929200001, "ESTE": 4819274.1139000002, "IMAGEN_1": "C002_IMG_20260121_101547.jpg", "IMAGEN_2": "C002_IMG_20260121_101557.jpg", "IMAGEN_3": "C002_IMG_20260121_101602.jpg", "VISUALIZAR_IMAGEN_1": "https://drive.google.com/uc?export=view&id=1mApr_MQ0UzoU4ojt8-SipkdV9mi61o3c", "VISUALIZAR_IMAGEN_2": "https://drive.google.com/uc?export=view&id=1Dzilwbhwqwpxb5hqOtENjg_0lfkad8Qy", "VISUALIZAR_IMAGEN_3": "https://drive.google.com/uc?export=view&id=1kY4czbYukWfFFvGGVJGysmYHFCXKGRFd", "FUENTE": "IEDDV" }, "geometry": { "type": "Point", "coordinates": [ -74.63301, 5.84681, 164.077999999994063 ] } },
{ "type": "Feature", "properties": { "OBJECTID": 48, "FECHA": "22/01/2026 00:00:00 (UTC)", "DEPTO": "BOYACÁ", "MUNICIPIO": "PUERTO BOYACÁ", "VEREDA": "MARANAL", "GASODUCTO": "CENTRO - ORIENTE", "TRAMO": "Vasconia - Puerto Salgar", "TP_DUCTO": "Troncal", "DISTRITO": "1", "DIAMETRO": "20\"", "TRM_REG": "VASCONIA - MARIQUITA", "ZONA": "1", "PK": "203+192", "PK_PAT": "203191", "ID_EVENTO": "", "TP_EVENTO": "OTRO", "LONG_EVENT": 10.0, "PRIORIDAD": "Bajo", "AMENAZA": "Bajo", "ESTADO_EG": "Antiguo", "FX2": " ", "OBSERVACION_GEOTECNISTA": "", "OBSERVACIO": "Botadero en cercanías al eje de la tubería", "PROFUNDIDA": 1.8, "COD_ID": "PRO-79", "ENTREGA": "E02_R2", "HRMS": " ", "LATITUD": 5.833555, "LONGITUD": -74.632664, "ALTURA": 162.258, "NORTE": 2202858.6534799999, "ESTE": 4819308.16646, "IMAGEN_1": "C002_IMG_20260122_083756.jpg", "IMAGEN_2": "C002_IMG_20260122_083801.jpg", "IMAGEN_3": "C002_IMG_20260122_083808.jpg", "VISUALIZAR_IMAGEN_1": "https://drive.google.com/uc?export=view&id=10IuhKJsjEq7nwvsYEG0dI6oCbvJX3V5f", "VISUALIZAR_IMAGEN_2": "https://drive.google.com/uc?export=view&id=1f40_nLFCJbI6oM9qZKqn7NSkFVfFm7bh", "VISUALIZAR_IMAGEN_3": "https://drive.google.com/uc?export=view&id=1zJQflQssgNTdEvFKJA18QC2MxFOD74bK", "FUENTE": "IEDDV" }, "geometry": { "type": "Point", "coordinates": [ -74.632664, 5.833555, 162.25800000000163 ] } },
{ "type": "Feature", "properties": { "OBJECTID": 49, "FECHA": "25/01/2026 00:00:00 (UTC)", "DEPTO": "SANTANDER", "MUNICIPIO": "CIMITARRA", "VEREDA": "TIERRADENTRO", "GASODUCTO": "CENTRO - ORIENTE", "TRAMO": "Sebastopol - Vasconia", "TP_DUCTO": "Troncal", "DISTRITO": "1", "DIAMETRO": "20\"", "TRM_REG": "SEBASTOPOL - VASCONIA", "ZONA": "1", "PK": "128+513", "PK_PAT": "128518", "ID_EVENTO": " ", "TP_EVENTO": "SOCAVACIÓN LATERAL", "LONG_EVENT": 6.0, "PRIORIDAD": "( )", "AMENAZA": "( )", "ESTADO_EG": "Antiguo", "FX2": " ", "OBSERVACION_GEOTECNISTA": " ", "OBSERVACIO": "Socavación lateral en una parte de la margen derecha del subfluvial.", "PROFUNDIDA": 2.3, "COD_ID": "PRO-387", "ENTREGA": "E02_R2", "HRMS": " ", "LATITUD": 6.3664000000000556, "LONGITUD": -74.419, "ALTURA": 124.63340000000608, "NORTE": 2261690.8859299999, "ESTE": 4843115.1624800004, "IMAGEN_1": "C002_IMG_20260125_091602.jpg", "IMAGEN_2": "C002_IMG_20260125_091613.jpg", "IMAGEN_3": "C002_IMG_20260125_091619.jpg", "VISUALIZAR_IMAGEN_1": "https://drive.google.com/uc?export=view&id=1Q_PeosVq_PuVs1b2IQaCC8sBjV0ADlRS", "VISUALIZAR_IMAGEN_2": "https://drive.google.com/uc?export=view&id=1dVNxC1GTQCgB9vHZVL5ZYZb3f7Lk_uD9", "VISUALIZAR_IMAGEN_3": "https://drive.google.com/uc?export=view&id=1sLx293LhjWADB-UySD5IOBNW1yM2qGkk", "FUENTE": "IEDDV" }, "geometry": { "type": "Point", "coordinates": [ -74.419, 6.3664, 124.633400000006077 ] } },
{ "type": "Feature", "properties": { "OBJECTID": 50, "FECHA": "25/01/2026 00:00:00 (UTC)", "DEPTO": "SANTANDER", "MUNICIPIO": "CIMITARRA", "VEREDA": "TIERRADENTRO", "GASODUCTO": "CENTRO - ORIENTE", "TRAMO": "Sebastopol - Vasconia", "TP_DUCTO": "Troncal", "DISTRITO": "1", "DIAMETRO": "20\"", "TRM_REG": "SEBASTOPOL - VASCONIA", "ZONA": "1", "PK": "127+254", "PK_PAT": "127240", "ID_EVENTO": " ", "TP_EVENTO": "CARCAVAS", "LONG_EVENT": 5.0, "PRIORIDAD": "( )", "AMENAZA": "( )", "ESTADO_EG": "Antiguo", "FX2": " ", "OBSERVACION_GEOTECNISTA": " ", "OBSERVACIO": "Se cambia respecto a linea base de tipo de evento otro a carcavas. Se presentan carcavas.", "PROFUNDIDA": 1.6, "COD_ID": "PRO-493", "ENTREGA": "E02_R2", "HRMS": " ", "LATITUD": 6.3737, "LONGITUD": -74.4107, "ALTURA": 133.77069999999367, "NORTE": 2262495.2585100001, "ESTE": 4844035.1989399996, "IMAGEN_1": "C002_IMG_20260125_082319.jpg", "IMAGEN_2": "C002_IMG_20260125_082350.jpg", "IMAGEN_3": "C002_IMG_20260125_082356.jpg", "VISUALIZAR_IMAGEN_1": "https://drive.google.com/uc?export=view&id=1rM8NpLznuEEV6Rph9Q-9J25sHsN41M5j", "VISUALIZAR_IMAGEN_2": "https://drive.google.com/uc?export=view&id=1Z0t345SJ-W68SB8QVwmKDKAe4yODv1Qf", "VISUALIZAR_IMAGEN_3": "https://drive.google.com/uc?export=view&id=1gqbNpKKBtZUzFWfcWAxOQ9gFBUOeNmnb", "FUENTE": "IEDDV" }, "geometry": { "type": "Point", "coordinates": [ -74.4107, 6.3737, 133.770699999993667 ] } },
{ "type": "Feature", "properties": { "OBJECTID": 51, "FECHA": "25/01/2026 00:00:00 (UTC)", "DEPTO": "SANTANDER", "MUNICIPIO": "CIMITARRA", "VEREDA": "TIERRADENTRO", "GASODUCTO": "CENTRO - ORIENTE", "TRAMO": "Sebastopol - Vasconia", "TP_DUCTO": "Troncal", "DISTRITO": "1", "DIAMETRO": "20\"", "TRM_REG": "SEBASTOPOL - VASCONIA", "ZONA": "1", "PK": "129+459", "PK_PAT": "0", "ID_EVENTO": " ", "TP_EVENTO": "SURCOS", "LONG_EVENT": 2.0, "PRIORIDAD": "( )", "AMENAZA": "( )", "ESTADO_EG": "Nuevo", "FX2": " ", "OBSERVACION_GEOTECNISTA": " ", "OBSERVACIO": "Surcos en el DDV.", "PROFUNDIDA": 2.3, "COD_ID": "PRO-646", "ENTREGA": "E02_R2", "HRMS": " ", "LATITUD": 6.3621000000000549, "LONGITUD": -74.42613, "ALTURA": 135.48910000000615, "NORTE": 2261217.7648900002, "ESTE": 4842325.3975400003, "IMAGEN_1": "C002_IMG_20260125_095210.jpg", "IMAGEN_2": "C002_IMG_20260125_095222.jpg", "IMAGEN_3": "C002_IMG_20260125_095228.jpg", "VISUALIZAR_IMAGEN_1": "https://drive.google.com/uc?export=view&id=17_FbOJrKcaEH1Ok-ZDS1nvgSMvmg0fZy", "VISUALIZAR_IMAGEN_2": "https://drive.google.com/uc?export=view&id=1k8kC_P6fUvDDm7rIOv7bStpUWgguTApX", "VISUALIZAR_IMAGEN_3": "https://drive.google.com/uc?export=view&id=1tj5gDOXQHOuiB-5iydtDtW0qpO0Mo4b9", "FUENTE": "IEDDV" }, "geometry": { "type": "Point", "coordinates": [ -74.42613, 6.3621, 135.489100000006147 ] } },
{ "type": "Feature", "properties": { "OBJECTID": 52, "FECHA": "2/02/2026 00:00:00 (UTC)", "DEPTO": "BOYACÁ", "MUNICIPIO": "PUERTO BOYACÁ", "VEREDA": "ERMITANO", "GASODUCTO": "CENTRO - ORIENTE", "TRAMO": "Sebastopol - Vasconia", "TP_DUCTO": "Troncal", "DISTRITO": "1", "DIAMETRO": "20\"", "TRM_REG": "SEBASTOPOL - VASCONIA", "ZONA": "1", "PK": "161+434", "PK_PAT": "161436", "ID_EVENTO": " ", "TP_EVENTO": "OTRO", "LONG_EVENT": 0.0, "PRIORIDAD": "Bajo", "AMENAZA": "Bajo", "ESTADO_EG": "Antiguo", "FX2": " ", "OBSERVACION_GEOTECNISTA": " ", "OBSERVACIO": "Actualmente no existe evento, zona cubierta con abundante vegetación", "PROFUNDIDA": 1.4, "COD_ID": "PRO-77", "ENTREGA": "E02_R2", "HRMS": " ", "LATITUD": 6.141871, "LONGITUD": -74.56548, "ALTURA": 139.3293, "NORTE": 2236918.3465300002, "ESTE": 4826842.6465800004, "IMAGEN_1": "C002_IMG_20260202_074929.jpg", "IMAGEN_2": "C002_IMG_20260202_074935.jpg", "IMAGEN_3": "C002_IMG_20260202_074946.jpg", "VISUALIZAR_IMAGEN_1": "https://drive.google.com/uc?export=view&id=13iJf8Lsm1R0EZ66_h4HzsLjj46U4CmRA", "VISUALIZAR_IMAGEN_2": "https://drive.google.com/uc?export=view&id=1cLQdoLsnUjUszJFb9vKv36QicAVu_IeK", "VISUALIZAR_IMAGEN_3": "https://drive.google.com/uc?export=view&id=1VyR4XgQn-Ln_uHN4GnYVhXcpB5HGWD_f", "FUENTE": "IEDDV" }, "geometry": { "type": "Point", "coordinates": [ -74.56548, 6.141871, 139.329299999997602 ] } },
{ "type": "Feature", "properties": { "OBJECTID": 53, "FECHA": "2/02/2026 00:00:00 (UTC)", "DEPTO": "BOYACÁ", "MUNICIPIO": "PUERTO BOYACÁ", "VEREDA": "PALAGUA", "GASODUCTO": "CENTRO - ORIENTE", "TRAMO": "Sebastopol - Vasconia", "TP_DUCTO": "Troncal", "DISTRITO": "1", "DIAMETRO": "20\"", "TRM_REG": "SEBASTOPOL - VASCONIA", "ZONA": "1", "PK": "163+978", "PK_PAT": "163978", "ID_EVENTO": " ", "TP_EVENTO": "OTRO", "LONG_EVENT": 0.0, "PRIORIDAD": "Alto", "AMENAZA": "Alto", "ESTADO_EG": "Antiguo", "FX2": " ", "OBSERVACION_GEOTECNISTA": " ", "OBSERVACIO": "No se observa proceso menor, solo avistamiento de serpientes", "PROFUNDIDA": 1.4, "COD_ID": "PRO-78", "ENTREGA": "E02_R2", "HRMS": " ", "LATITUD": 6.120599, "LONGITUD": -74.558032, "ALTURA": 145.2841999999946, "NORTE": 2234564.5640699998, "ESTE": 4827659.8373199999, "IMAGEN_1": "C002_IMG_20260202_093951.jpg", "IMAGEN_2": "C002_IMG_20260202_094007.jpg", "IMAGEN_3": "C002_IMG_20260202_094015.jpg", "VISUALIZAR_IMAGEN_1": "https://drive.google.com/uc?export=view&id=1Kk0t0w8upGq7Jt7MYdMzaDrRCTsf0Z78", "VISUALIZAR_IMAGEN_2": "https://drive.google.com/uc?export=view&id=1sUT3PGhd-J4jq-YKJFrrmEYKtq4cF7-i", "VISUALIZAR_IMAGEN_3": "https://drive.google.com/uc?export=view&id=1DUXGkPCumPPwl8ND658Aib9Xdtgp_Iso", "FUENTE": "IEDDV" }, "geometry": { "type": "Point", "coordinates": [ -74.558032, 6.120599, 145.284199999994598 ] } },
{ "type": "Feature", "properties": { "OBJECTID": 54, "FECHA": "29/01/2026 00:00:00 (UTC)", "DEPTO": "BOYACÁ", "MUNICIPIO": "PUERTO BOYACÁ", "VEREDA": "ERMITANO", "GASODUCTO": "CENTRO - ORIENTE", "TRAMO": "Sebastopol - Vasconia", "TP_DUCTO": "Troncal", "DISTRITO": "1", "DIAMETRO": "20\"", "TRM_REG": "SEBASTOPOL - VASCONIA", "ZONA": "1", "PK": "146+749", "PK_PAT": "146743", "ID_EVENTO": " ", "TP_EVENTO": "SOCAVACIÓN LATERAL", "LONG_EVENT": 3.0, "PRIORIDAD": "( )", "AMENAZA": "( )", "ESTADO_EG": "Antiguo", "FX2": " ", "OBSERVACION_GEOTECNISTA": " ", "OBSERVACIO": "Socavación lateral margen izquierda. No se puede ingresar al proceso menor por vegetación densa y rio con alto caudal", "PROFUNDIDA": 3.2, "COD_ID": "PRO-430", "ENTREGA": "E02_R2", "HRMS": " ", "LATITUD": 6.257613, "LONGITUD": -74.523821, "ALTURA": 121.60709999999381, "NORTE": 2249698.84504, "ESTE": 4831488.3769399999, "IMAGEN_1": "C002_IMG_20260129_090016.jpg", "IMAGEN_2": "C002_IMG_20260129_090021.jpg", "IMAGEN_3": "C002_IMG_20260129_090026.jpg", "VISUALIZAR_IMAGEN_1": "https://drive.google.com/uc?export=view&id=1cJx2PksxTcx9FeOCrsVhsqu1RFSYMSl6", "VISUALIZAR_IMAGEN_2": "https://drive.google.com/uc?export=view&id=1UMUw9sqDyZTbSdqpM3e09QBO6KRIdYqN", "VISUALIZAR_IMAGEN_3": "https://drive.google.com/uc?export=view&id=1xTY_sBZYE1d8sZSwCAv7pWS9UgwHoDze", "FUENTE": "IEDDV" }, "geometry": { "type": "Point", "coordinates": [ -74.523821, 6.257613, 121.607099999993807 ] } },
{ "type": "Feature", "properties": { "OBJECTID": 55, "FECHA": "27/01/2026 00:00:00 (UTC)", "DEPTO": "SANTANDER", "MUNICIPIO": "CIMITARRA", "VEREDA": "CAÑO BAÚL", "GASODUCTO": "CENTRO - ORIENTE", "TRAMO": "Sebastopol - Vasconia", "TP_DUCTO": "Troncal", "DISTRITO": "1", "DIAMETRO": "20\"", "TRM_REG": "SEBASTOPOL - VASCONIA", "ZONA": "1", "PK": "137+807", "PK_PAT": "137802", "ID_EVENTO": " ", "TP_EVENTO": "SOCAVACIÓN LATERAL", "LONG_EVENT": 0.0, "PRIORIDAD": "( )", "AMENAZA": "( )", "ESTADO_EG": "Antiguo", "FX2": " ", "OBSERVACION_GEOTECNISTA": " ", "OBSERVACIO": "No se evidencia actualmente algun tipo de proceso menor.", "PROFUNDIDA": 1.7, "COD_ID": "PRO-453", "ENTREGA": "E02_R2", "HRMS": " ", "LATITUD": 6.3011240000000726, "LONGITUD": -74.462123, "ALTURA": 118.5186, "NORTE": 2254488.92258, "ESTE": 4838326.1589099998, "IMAGEN_1": "C002_IMG_20260127_100827.jpg", "IMAGEN_2": "C002_IMG_20260127_100844.jpg", "IMAGEN_3": "C002_IMG_20260127_100853.jpg", "VISUALIZAR_IMAGEN_1": "https://drive.google.com/uc?export=view&id=1Yom9IErYnbCQlIbPpYtm_ej5YCB7GrG-", "VISUALIZAR_IMAGEN_2": "https://drive.google.com/uc?export=view&id=1RQj7fugAF7Hvt0xeOAoL4h-mCF41p1Cd", "VISUALIZAR_IMAGEN_3": "https://drive.google.com/uc?export=view&id=1Oz4G2Vccqly96W08F_ks6d6LDpeLA8TV", "FUENTE": "IEDDV" }, "geometry": { "type": "Point", "coordinates": [ -74.462123, 6.301124, 118.518599999995786 ] } },
{ "type": "Feature", "properties": { "OBJECTID": 56, "FECHA": "3/02/2026 00:00:00 (UTC)", "DEPTO": "BOYACÁ", "MUNICIPIO": "PUERTO BOYACÁ", "VEREDA": "PALAGUA", "GASODUCTO": "CENTRO - ORIENTE", "TRAMO": "Sebastopol - Vasconia", "TP_DUCTO": "Troncal", "DISTRITO": "1", "DIAMETRO": "20\"", "TRM_REG": "SEBASTOPOL - VASCONIA", "ZONA": "1", "PK": "166+335", "PK_PAT": "166342", "ID_EVENTO": " ", "TP_EVENTO": "CARCAVAS", "LONG_EVENT": 8.0, "PRIORIDAD": "( )", "AMENAZA": "( )", "ESTADO_EG": "Antiguo", "FX2": " ", "OBSERVACION_GEOTECNISTA": " ", "OBSERVACIO": "Se cambia respecto a linea base de tipo de evento reptación a carcavas. Se presentan carcavas.", "PROFUNDIDA": 1.23, "COD_ID": "PRO-455", "ENTREGA": "E02_R2", "HRMS": " ", "LATITUD": 6.1011760000000663, "LONGITUD": -74.551839, "ALTURA": 152.7439, "NORTE": 2232415.59589, "ESTE": 4828338.8432, "IMAGEN_1": "C002_IMG_20260203_080528.jpg", "IMAGEN_2": "C002_IMG_20260203_080543.jpg", "IMAGEN_3": "C002_IMG_20260203_080536.jpg", "VISUALIZAR_IMAGEN_1": "https://drive.google.com/uc?export=view&id=1oHbGwtlCO4UpmFUCyjER5EnPM3wljgcY", "VISUALIZAR_IMAGEN_2": "https://drive.google.com/uc?export=view&id=1_8KAMMRyqX_0IyaRrCL14al0FTm_RmG1", "VISUALIZAR_IMAGEN_3": "https://drive.google.com/uc?export=view&id=1DHWdcERnA-S7ZTthbsitO5wtMMDbRpVj", "FUENTE": "IEDDV" }, "geometry": { "type": "Point", "coordinates": [ -74.551839, 6.101176, 152.743900000001304 ] } },
{ "type": "Feature", "properties": { "OBJECTID": 57, "FECHA": "3/02/2026 00:00:00 (UTC)", "DEPTO": "BOYACÁ", "MUNICIPIO": "PUERTO BOYACÁ", "VEREDA": "PALAGUA", "GASODUCTO": "CENTRO - ORIENTE", "TRAMO": "Sebastopol - Vasconia", "TP_DUCTO": "Troncal", "DISTRITO": "1", "DIAMETRO": "20\"", "TRM_REG": "SEBASTOPOL - VASCONIA", "ZONA": "1", "PK": "168+118", "PK_PAT": "168116", "ID_EVENTO": " ", "TP_EVENTO": "CARCAVAS", "LONG_EVENT": 6.0, "PRIORIDAD": "( )", "AMENAZA": "( )", "ESTADO_EG": "Antiguo", "FX2": " ", "OBSERVACION_GEOTECNISTA": " ", "OBSERVACIO": "Se cambia respecto a linea base de tipo de evento otro a carcavas. Se presentan carcavas con profundidad de 0.8m", "PROFUNDIDA": 1.1, "COD_ID": "PRO-533", "ENTREGA": "E02_R2", "HRMS": " ", "LATITUD": 6.0854661000001, "LONGITUD": -74.5519636, "ALTURA": 171.4497, "NORTE": 2230679.0912100002, "ESTE": 4828320.0626999997, "IMAGEN_1": "C002_IMG_20260203_085817.jpg", "IMAGEN_2": "C002_IMG_20260203_085828.jpg", "IMAGEN_3": "C002_IMG_20260203_085838.jpg", "VISUALIZAR_IMAGEN_1": "https://drive.google.com/uc?export=view&id=1JZXpeyRYh8ltJ68_15jJGmyZ2cDFd68F", "VISUALIZAR_IMAGEN_2": "https://drive.google.com/uc?export=view&id=17iH3ZxS7QNzo8IlD36wFBy_s2lPFJNmC", "VISUALIZAR_IMAGEN_3": "https://drive.google.com/uc?export=view&id=1WdeZwakhNN6lIAnIJT9OrIgwUfI-bJcv", "FUENTE": "IEDDV" }, "geometry": { "type": "Point", "coordinates": [ -74.551963599999965, 6.085466100000076, 171.449699999997392 ] } },
{ "type": "Feature", "properties": { "OBJECTID": 58, "FECHA": "31/01/2026 00:00:00 (UTC)", "DEPTO": "TOLIMA", "MUNICIPIO": "AMBALEMA", "VEREDA": "TAJO MEDIO", "GASODUCTO": "CENTRO - ORIENTE", "TRAMO": "Ambalema", "TP_DUCTO": "Ramal", "DISTRITO": "2", "DIAMETRO": "2\"", "TRM_REG": "MARIQUITA - GUALANDAY", "ZONA": "2", "PK": "013+271", "PK_PAT": "0", "ID_EVENTO": "N617", "TP_EVENTO": "OTRO", "LONG_EVENT": 0.0, "PRIORIDAD": "( )", "AMENAZA": "( )", "ESTADO_EG": "Nuevo", "FX2": " ", "OBSERVACION_GEOTECNISTA": " ", "OBSERVACIO": "SEGUIMIENTO DE PATRULLAJE - PUNTO DE OBSERVACION.", "PROFUNDIDA": 0.0, "COD_ID": "PRO-639", "ENTREGA": "E03_R2", "HRMS": "", "LATITUD": 4.794755000000066, "LONGITUD": -74.81911, "ALTURA": 0.0, "NORTE": 2088082.0208699999, "ESTE": 4798329.3385699997, "IMAGEN_1": "C001_IMG_20260131_100510.jpg", "IMAGEN_2": "C001_IMG_20260131_100518.jpg", "IMAGEN_3": "C001_IMG_20260131_100525.jpg", "VISUALIZAR_IMAGEN_1": "https://drive.google.com/uc?export=view&id=1Yco02Ztlae4RbKuyhyEK1IAu7hY0rKO8", "VISUALIZAR_IMAGEN_2": "https://drive.google.com/uc?export=view&id=10uvgMlBvWz6ikP6EA0QTbrgWlGNG1Hlj", "VISUALIZAR_IMAGEN_3": "https://drive.google.com/uc?export=view&id=1R7T3BQIjjG7E9Bwvt_SjSx_MHh61JaKW", "FUENTE": "()" }, "geometry": { "type": "Point", "coordinates": [ -74.81911, 4.794755, 0.0 ] } },
{ "type": "Feature", "properties": { "OBJECTID": 59, "FECHA": "31/01/2026 00:00:00 (UTC)", "DEPTO": "TOLIMA", "MUNICIPIO": "AMBALEMA", "VEREDA": "TAJO MEDIO", "GASODUCTO": "CENTRO - ORIENTE", "TRAMO": "Ambalema", "TP_DUCTO": "Ramal", "DISTRITO": "2", "DIAMETRO": "2\"", "TRM_REG": "MARIQUITA - GUALANDAY", "ZONA": "2", "PK": "015+696", "PK_PAT": "0", "ID_EVENTO": "N618", "TP_EVENTO": "OTRO", "LONG_EVENT": 0.0, "PRIORIDAD": "( )", "AMENAZA": "( )", "ESTADO_EG": "Nuevo", "FX2": " ", "OBSERVACION_GEOTECNISTA": " ", "OBSERVACIO": "SEGUIMIENTO DE PATRULLAJE - PUNTO DE OBSERVACION.", "PROFUNDIDA": 0.0, "COD_ID": "PRO-640", "ENTREGA": "E03_R2", "HRMS": "", "LATITUD": 4.780315, "LONGITUD": -74.804485, "ALTURA": 0.0, "NORTE": 2086481.4198499999, "ESTE": 4799947.0363299996, "IMAGEN_1": "C001_IMG_20260131_112259.jpg", "IMAGEN_2": "C001_IMG_20260131_112307.jpg", "IMAGEN_3": "C001_IMG_20260131_112311.jpg", "VISUALIZAR_IMAGEN_1": "https://drive.google.com/uc?export=view&id=1j-0Rh_Pxzuk52cR2xsuh7wg-JaMoi1Yw", "VISUALIZAR_IMAGEN_2": "https://drive.google.com/uc?export=view&id=16TerYW7Q2jlTom7cMIX1QtA75ut65FSv", "VISUALIZAR_IMAGEN_3": "https://drive.google.com/uc?export=view&id=1fgi-eId-H-6fT3SLRItX1q699vE1ACfr", "FUENTE": "()" }, "geometry": { "type": "Point", "coordinates": [ -74.804485, 4.780315, 0.0 ] } },
{ "type": "Feature", "properties": { "OBJECTID": 60, "FECHA": "16/02/2026 00:00:00 (UTC)", "DEPTO": "CALDAS", "MUNICIPIO": "VICTORIA", "VEREDA": "EL AGUACATE", "GASODUCTO": "CENTRO - ORIENTE", "TRAMO": "La Victoria", "TP_DUCTO": "Ramal", "DISTRITO": "2", "DIAMETRO": "2\"", "TRM_REG": "VASCONIA - MARIQUITA", "ZONA": "2", "PK": "006+708", "PK_PAT": "6700", "ID_EVENTO": "", "TP_EVENTO": "OTRO", "LONG_EVENT": 500.0, "PRIORIDAD": "( )", "AMENAZA": "( )", "ESTADO_EG": "Antiguo", "FX2": " ", "OBSERVACION_GEOTECNISTA": "", "OBSERVACIO": "Corte mecanico sobre el DDV de aproximadamente 500m de largo, por lo que se alcanza a observar se usa para canalizar y drenar el agua lluvia, An=2m, Al=1,5m", "PROFUNDIDA": 0.84, "COD_ID": "PRO-507", "ENTREGA": "E03_R2", "HRMS": " ", "LATITUD": 5.3134880000000635, "LONGITUD": -74.887825, "ALTURA": 0.0, "NORTE": 2145450.59277, "ESTE": 4790875.2736799996, "IMAGEN_1": "C001_IMG_20260216_102650.jpg", "IMAGEN_2": "C001_IMG_20260216_102658.jpg", "IMAGEN_3": "C001_IMG_20260216_102712.jpg", "VISUALIZAR_IMAGEN_1": "https://drive.google.com/uc?export=view&id=1-ebs4sY_jeQjo6WCerl4TrqI227Qb9Un", "VISUALIZAR_IMAGEN_2": "https://drive.google.com/uc?export=view&id=1tDA8-j_eiTyYnoapvn-LxX0CX7-SrTu-", "VISUALIZAR_IMAGEN_3": "https://drive.google.com/uc?export=view&id=1lFGGR-QbgUU68agkpHP1nQ24G3I9EGiB", "FUENTE": "( )" }, "geometry": { "type": "Point", "coordinates": [ -74.887825, 5.313488, 0.0 ] } }
]
}
