{
"type": "FeatureCollection",
"name": "URL_H_Eventos",
"crs": { "type": "name", "properties": { "name": "urn:ogc:def:crs:OGC:1.3:CRS84" } },
"features": [
{ "type": "Feature", "properties": { "OBJECTID": 1, "FECHA": "22/02/2026 00:00:00 (UTC)", "DEPTO": "SANTANDER", "MUNICIPIO": "CIMITARRA", "VEREDA": "RIVERAS DEL SAN JUAN", "GASODUCTO": "CENTRO - ORIENTE", "TRAMO": "Barrancabermeja - Sebastopol", "TP_DUCTO": "Troncal", "DISTRITO": "1", "DIAMETRO": "20\"", "TRM_REG": "BARRANCABERMEJA - SEBASTOPOL", "ZONA": "1", "PK": "077+849", "PK_PAT": "77848", "ID_EVENTO": "192", "TP_EVENTO": "CARCAVAS", "LONG_EVENT": 30.0, "PRIORIDAD": "Bajo", "AMENAZA": "Bajo", "ESTADO_EG": "Antiguo", "FX2": "20230809_FX2_C01_C0R_BARRANC-SEB_PK077+848_VA", "OBSERVACION_GEOTECNISTA": "", "OBSERVACIO": "Erosión hídrica severa con formación de cárcavas sobre el DDV. El material altamente erosionable ante la escorrentía genera pérdida de cobertura y confinamiento lateral, exponiendo el gasoducto a riesgos geotécnicos y esfuerzos no previstos. An=20", "PROFUNDIDA": 1.55, "COD_ID": "EVEN-1", "ENTREGA": "E05_R2", "HRMS": " ", "LATITUD": 6.5934540000000652, "LONGITUD": -74.13411, "ALTURA": 104.32610000000568, "NORTE": 2286707.3234700002, "ESTE": 4874673.2522700001, "IMAGEN_1": "C001_IMG_20260222_102333.jpg", "IMAGEN_2": "C001_IMG_20260222_102342.jpg", "IMAGEN_3": "C001_IMG_20260222_102412.jpg", "VISUALIZAR_IMAGEN_1": "https://drive.google.com/uc?export=view&id=1i6OHPc0LtCeAC2IZV0ekilKt_TFy0w7X", "VISUALIZAR_IMAGEN_2": "https://drive.google.com/uc?export=view&id=1TEafu7_myOTrbSRzSqFKXe0EGfffIWxG", "VISUALIZAR_IMAGEN_3": "https://drive.google.com/uc?export=view&id=1xhYm7QKed8Wu6KnawVxfyo5g430sFTXn", "FUENTE": "IEDDV" }, "geometry": { "type": "Point", "coordinates": [ -74.13411, 6.593454, 104.326100000005681 ] } },
{ "type": "Feature", "properties": { "OBJECTID": 2, "FECHA": "22/02/2026 00:00:00 (UTC)", "DEPTO": "SANTANDER", "MUNICIPIO": "CIMITARRA", "VEREDA": "RIVERAS DEL SAN JUAN", "GASODUCTO": "CENTRO - ORIENTE", "TRAMO": "Barrancabermeja - Sebastopol", "TP_DUCTO": "Troncal", "DISTRITO": "1", "DIAMETRO": "20\"", "TRM_REG": "BARRANCABERMEJA - SEBASTOPOL", "ZONA": "1", "PK": "080+236", "PK_PAT": "80233", "ID_EVENTO": "193", "TP_EVENTO": "CARCAVAS", "LONG_EVENT": 40.0, "PRIORIDAD": "Medio", "AMENAZA": "Medio", "ESTADO_EG": "Antiguo", "FX2": "20230704_FX2_C01_C0R_BARRANC-SEB_PK080+233_VB", "OBSERVACION_GEOTECNISTA": "", "OBSERVACIO": "Cárcavas por erosión hídrica en el DDV debido a suelos de alta erodabilidad y escorrentía superficial. La socavación activa reduce el confinamiento del gasoducto, generando riesgo de exposición y pérdida de estabilidad geotécnica lateral. An=10m", "PROFUNDIDA": 1.93, "COD_ID": "EVEN-2", "ENTREGA": "E05_R2", "HRMS": " ", "LATITUD": 6.5797460000000569, "LONGITUD": -74.150272, "ALTURA": 96.418699999994715, "NORTE": 2285196.37378, "ESTE": 4872883.5201500002, "IMAGEN_1": "C001_IMG_20260222_112934.jpg", "IMAGEN_2": "C001_IMG_20260222_112957.jpg", "IMAGEN_3": "C001_IMG_20260222_113032.jpg", "VISUALIZAR_IMAGEN_1": "https://drive.google.com/uc?export=view&id=1B8RJoZoEQUfuEEbtLW8qpQ1BImwhBLef", "VISUALIZAR_IMAGEN_2": "https://drive.google.com/uc?export=view&id=176hlqArb-iKx4uE8LfV24WliNJpg8Sbm", "VISUALIZAR_IMAGEN_3": "https://drive.google.com/uc?export=view&id=1GHZB9UpnVZKP11YjIXt1nEe7_n943S_r", "FUENTE": "IEDDV" }, "geometry": { "type": "Point", "coordinates": [ -74.150272, 6.579746, 96.418699999994715 ] } },
{ "type": "Feature", "properties": { "OBJECTID": 3, "FECHA": "17/02/2026 00:00:00 (UTC)", "DEPTO": "SANTANDER", "MUNICIPIO": "SIMACOTA", "VEREDA": "VIZCAINA ALTA", "GASODUCTO": "CENTRO - ORIENTE", "TRAMO": "Barrancabermeja - Sebastopol", "TP_DUCTO": "Troncal", "DISTRITO": "1", "DIAMETRO": "20\"", "TRM_REG": "BARRANCABERMEJA - SEBASTOPOL", "ZONA": "1", "PK": "038+708", "PK_PAT": "38717", "ID_EVENTO": "760", "TP_EVENTO": "SOCAVACIÓN DE FONDO", "LONG_EVENT": 40.0, "PRIORIDAD": "Alto", "AMENAZA": "Alto", "ESTADO_EG": "Antiguo", "FX2": "20210309_FX2_C01_COR_BARRANC-SEB_PK038+703_V1", "OBSERVACION_GEOTECNISTA": "", "OBSERVACIO": "Se cambia respecto a linea base de tipo de evento socavación lateral a socavación de fondo. Se evidencia exposición de tubería en el lecho del caño debido a la pérdida de cobertura por erosión hídrica. El arrastre de sedimentos dejó vulnerable la infraestructura.", "PROFUNDIDA": 0.0, "COD_ID": "EVEN-3", "ENTREGA": "E05_R2", "HRMS": " ", "LATITUD": 6.829074, "LONGITUD": -73.896786, "ALTURA": 107.63529999999446, "NORTE": 2312693.3051900002, "ESTE": 4900949.1546799997, "IMAGEN_1": "C001_IMG_20260217_084913.jpg", "IMAGEN_2": "C001_IMG_20260217_084922.jpg", "IMAGEN_3": "C001_IMG_20260217_084933.jpg", "VISUALIZAR_IMAGEN_1": "https://drive.google.com/uc?export=view&id=1xzQSL9XzQ9xIL_97FGMPCjpYFjaj0KSJ", "VISUALIZAR_IMAGEN_2": "https://drive.google.com/uc?export=view&id=1dcy11tLewF7BC--caoaxhfnAis-TPW1x", "VISUALIZAR_IMAGEN_3": "https://drive.google.com/uc?export=view&id=1WzXKTvxpvGSX_YAA8KMb7SVy3bQnqE88", "FUENTE": "IEDDV" }, "geometry": { "type": "Point", "coordinates": [ -73.896786, 6.829074, 107.635299999994459 ] } },
{ "type": "Feature", "properties": { "OBJECTID": 4, "FECHA": "18/02/2026 00:00:00 (UTC)", "DEPTO": "SANTANDER", "MUNICIPIO": "SIMACOTA", "VEREDA": "PULPAPEL", "GASODUCTO": "CENTRO - ORIENTE", "TRAMO": "Barrancabermeja - Sebastopol", "TP_DUCTO": "Troncal", "DISTRITO": "1", "DIAMETRO": "20\"", "TRM_REG": "BARRANCABERMEJA - SEBASTOPOL", "ZONA": "1", "PK": "045+374", "PK_PAT": "45379", "ID_EVENTO": "923", "TP_EVENTO": "OTRO", "LONG_EVENT": 20.0, "PRIORIDAD": "Alto", "AMENAZA": "Medio", "ESTADO_EG": "Antiguo", "FX2": "20210317_FX2_C01_COR_BARRANC-SEB_PK045+379__PK045+564VB", "OBSERVACION_GEOTECNISTA": "", "OBSERVACIO": "Se cambia respecto a linea base de tipo de evento socavacion de fondo a Otro. Excavación mecánica de canal ubicado paralelo al DDV; se removió la capa protectora, exponiendo la tubería a la escorrentía pluvial y a esfuerzos de tracción por el flujo hidráulico, comprometiendo su integridad estructural.", "PROFUNDIDA": 1.1, "COD_ID": "EVEN-4", "ENTREGA": "E05_R2", "HRMS": " ", "LATITUD": 6.7769940000000588, "LONGITUD": -73.924175, "ALTURA": 83.8125, "NORTE": 2306943.3775200001, "ESTE": 4897912.7631200003, "IMAGEN_1": "C001_IMG_20260218_094425.jpg", "IMAGEN_2": "C001_IMG_20260218_094431.jpg", "IMAGEN_3": "C001_IMG_20260218_094450.jpg", "VISUALIZAR_IMAGEN_1": "https://drive.google.com/uc?export=view&id=1mtd3716vVcuclvnSIK6fti96zxWtfphy", "VISUALIZAR_IMAGEN_2": "https://drive.google.com/uc?export=view&id=1yGBwu9YgNUnueQ80E2NrEyKpbqQLWXYl", "VISUALIZAR_IMAGEN_3": "https://drive.google.com/uc?export=view&id=1QOFekE_X6OrlGHLODTVxY9PEvssaHgLa", "FUENTE": "IEDDV" }, "geometry": { "type": "Point", "coordinates": [ -73.924175, 6.776994, 83.8125 ] } },
{ "type": "Feature", "properties": { "OBJECTID": 5, "FECHA": "22/02/2026 00:00:00 (UTC)", "DEPTO": "SANTANDER", "MUNICIPIO": "CIMITARRA", "VEREDA": "RIVERAS DEL SAN JUAN", "GASODUCTO": "CENTRO - ORIENTE", "TRAMO": "Barrancabermeja - Sebastopol", "TP_DUCTO": "Troncal", "DISTRITO": "1", "DIAMETRO": "20\"", "TRM_REG": "BARRANCABERMEJA - SEBASTOPOL", "ZONA": "1", "PK": "076+811", "PK_PAT": "76818", "ID_EVENTO": "1137", "TP_EVENTO": "CARCAVAS", "LONG_EVENT": 28.0, "PRIORIDAD": "Medio", "AMENAZA": "Medio", "ESTADO_EG": "Antiguo", "FX2": "20230809_FX2_C01_C0R_BARRANC-SEB_PK076+818_VB", "OBSERVACION_GEOTECNISTA": "", "OBSERVACIO": "Cárcavas en el DDV por erosión hídrica superficial. La escorrentía degrada el suelo, compuesto por materiales altamente erosionables, generando inestabilidad geotécnica que compromete la cobertura y seguridad del gasoducto enterrado. An=10m", "PROFUNDIDA": 1.23, "COD_ID": "EVEN-5", "ENTREGA": "E05_R2", "HRMS": " ", "LATITUD": 6.5980036, "LONGITUD": -74.1260519, "ALTURA": 102.58440000000701, "NORTE": 2287208.1343100001, "ESTE": 4875564.9743100004, "IMAGEN_1": "C001_IMG_20260222_095656.jpg", "IMAGEN_2": "C001_IMG_20260222_095723.jpg", "IMAGEN_3": "C001_IMG_20260222_095735.jpg", "VISUALIZAR_IMAGEN_1": "https://drive.google.com/uc?export=view&id=1cmcnJl_iO-ZrQXIXiF0mv3wXavIS6guT", "VISUALIZAR_IMAGEN_2": "https://drive.google.com/uc?export=view&id=1TfczFnjwEfYfKktX5XppUy2lBhFQHgS2", "VISUALIZAR_IMAGEN_3": "https://drive.google.com/uc?export=view&id=1HD4d3QA-wBTvS4T57qMeUVevUgUCXlh6", "FUENTE": "IEDDV" }, "geometry": { "type": "Point", "coordinates": [ -74.126051899999936, 6.598003600000027, 102.584400000007008 ] } },
{ "type": "Feature", "properties": { "OBJECTID": 6, "FECHA": "22/02/2026 00:00:00 (UTC)", "DEPTO": "SANTANDER", "MUNICIPIO": "CIMITARRA", "VEREDA": "RIVERAS DEL SAN JUAN", "GASODUCTO": "CENTRO - ORIENTE", "TRAMO": "Barrancabermeja - Sebastopol", "TP_DUCTO": "Troncal", "DISTRITO": "1", "DIAMETRO": "20\"", "TRM_REG": "BARRANCABERMEJA - SEBASTOPOL", "ZONA": "1", "PK": "078+003", "PK_PAT": "78003", "ID_EVENTO": "1138", "TP_EVENTO": "CARCAVAS", "LONG_EVENT": 45.0, "PRIORIDAD": "Medio", "AMENAZA": "Medio", "ESTADO_EG": "Antiguo", "FX2": "20230809_FX2_C01_C0R_BARRANC-SEB_PK078+003_VA", "OBSERVACION_GEOTECNISTA": "", "OBSERVACIO": "Cárcavas en el DDV por erosión hídrica en materiales de alta erodabilidad. La escorrentía genera pérdida de soporte y cobertura, comprometiendo la estabilidad geotécnica y la protección mecánica del gasoducto ante agentes externos. An=30m, Al=3m", "PROFUNDIDA": 1.83, "COD_ID": "EVEN-6", "ENTREGA": "E05_R2", "HRMS": " ", "LATITUD": 6.592675, "LONGITUD": -74.135245, "ALTURA": 110.0822, "NORTE": 2286621.51235, "ESTE": 4874547.6151900003, "IMAGEN_1": "C001_IMG_20260222_102741.jpg", "IMAGEN_2": "C001_IMG_20260222_102751.jpg", "IMAGEN_3": "C001_IMG_20260222_102838.jpg", "VISUALIZAR_IMAGEN_1": "https://drive.google.com/uc?export=view&id=1Z4v9faDDicouyxjsJ4p4h58bugmr7vuV", "VISUALIZAR_IMAGEN_2": "https://drive.google.com/uc?export=view&id=1CtYHWPMYPeCFkH_daENIusLujyy3IxjI", "VISUALIZAR_IMAGEN_3": "https://drive.google.com/uc?export=view&id=1TLQSqd2FDynX03gSFtxhYcN8MLNlRkUf", "FUENTE": "IEDDV" }, "geometry": { "type": "Point", "coordinates": [ -74.135245, 6.592675, 110.082200000004377 ] } },
{ "type": "Feature", "properties": { "OBJECTID": 7, "FECHA": "18/02/2026 00:00:00 (UTC)", "DEPTO": "SANTANDER", "MUNICIPIO": "SIMACOTA", "VEREDA": "PULPAPEL", "GASODUCTO": "CENTRO - ORIENTE", "TRAMO": "Barrancabermeja - Sebastopol", "TP_DUCTO": "Troncal", "DISTRITO": "1", "DIAMETRO": "20\"", "TRM_REG": "BARRANCABERMEJA - SEBASTOPOL", "ZONA": "1", "PK": "046+108", "PK_PAT": "46110", "ID_EVENTO": "1299", "TP_EVENTO": "SOCAVACIÓN LATERAL", "LONG_EVENT": 40.0, "PRIORIDAD": "Alto", "AMENAZA": "Medio", "ESTADO_EG": "Antiguo", "FX2": "20230710_FX2_C01_COR_BARRANC-SEB_PK046+110_VA", "OBSERVACION_GEOTECNISTA": "", "OBSERVACIO": "Evento geotécnico estabilizado en canal paralelo al DDV mediante muro de contención con pilotes metálicos hincados, garantizando el confinamiento del terreno y la protección de la infraestructura.", "PROFUNDIDA": 3.39, "COD_ID": "EVEN-7", "ENTREGA": "E05_R2", "HRMS": " ", "LATITUD": 6.772071, "LONGITUD": -73.928527, "ALTURA": 88.030400000003283, "NORTE": 2306400.2272700001, "ESTE": 4897430.9464299995, "IMAGEN_1": "C001_IMG_20260218_101630.jpg", "IMAGEN_2": "C001_IMG_20260218_101640.jpg", "IMAGEN_3": "C001_IMG_20260218_101648.jpg", "VISUALIZAR_IMAGEN_1": "https://drive.google.com/uc?export=view&id=1cS0yrSo0qvPh9SeaS6SSbEakBMPrXRrI", "VISUALIZAR_IMAGEN_2": "https://drive.google.com/uc?export=view&id=1yJhINCleToHOhYJrE1-wg3n_c2sVTqQ1", "VISUALIZAR_IMAGEN_3": "https://drive.google.com/uc?export=view&id=1W0L5afo5DrpcE_XyH2VNMaQ0LiuaSE4z", "FUENTE": "IEDDV" }, "geometry": { "type": "Point", "coordinates": [ -73.928527, 6.772071, 88.030400000003283 ] } },
{ "type": "Feature", "properties": { "OBJECTID": 8, "FECHA": "23/02/2026 00:00:00 (UTC)", "DEPTO": "SANTANDER", "MUNICIPIO": "CIMITARRA", "VEREDA": "RIVERAS DEL SAN JUAN", "GASODUCTO": "CENTRO - ORIENTE", "TRAMO": "Barrancabermeja - Sebastopol", "TP_DUCTO": "Troncal", "DISTRITO": "1", "DIAMETRO": "20\"", "TRM_REG": "BARRANCABERMEJA - SEBASTOPOL", "ZONA": "1", "PK": "084+228", "PK_PAT": "84225", "ID_EVENTO": "762", "TP_EVENTO": "CARCAVAS", "LONG_EVENT": 90.0, "PRIORIDAD": "Medio", "AMENAZA": "Medio", "ESTADO_EG": "Antiguo", "FX2": "20230705_FX2_C01_C0R_BARRANC-SEB_PK084+334_VA", "OBSERVACION_GEOTECNISTA": "", "OBSERVACIO": "Cárcavas por erosión hídrica en el DDV debido a suelos de alta erodabilidad y escorrentía superficial. La socavación activa reduce el confinamiento del gasoducto, generando riesgo de exposición y pérdida de estabilidad geotécnica lateral.", "PROFUNDIDA": 2.15, "COD_ID": "EVEN-8", "ENTREGA": "E05_R2", "HRMS": " ", "LATITUD": 6.564991, "LONGITUD": -74.182808, "ALTURA": 102.5833, "NORTE": 2283573.9910599999, "ESTE": 4869283.6212799996, "IMAGEN_1": "C001_IMG_20260223_102011.jpg", "IMAGEN_2": "C001_IMG_20260223_102019.jpg", "IMAGEN_3": "C001_IMG_20260223_102029.jpg", "VISUALIZAR_IMAGEN_1": "https://drive.google.com/uc?export=view&id=1rtkww-IGVo6Lyp3G_b1KaNXRYj354QzF", "VISUALIZAR_IMAGEN_2": "https://drive.google.com/uc?export=view&id=14CHK3_SR6g48jUg3BruxtJYp41pXD76X", "VISUALIZAR_IMAGEN_3": "https://drive.google.com/uc?export=view&id=1aHnVARF-TgqB2BMBcE-ERnSWirA2ocil", "FUENTE": "IEDDV" }, "geometry": { "type": "Point", "coordinates": [ -74.182808, 6.564991, 102.583299999998417 ] } },
{ "type": "Feature", "properties": { "OBJECTID": 9, "FECHA": "25/02/2026 00:00:00 (UTC)", "DEPTO": "SANTANDER", "MUNICIPIO": "CIMITARRA", "VEREDA": "PUERTO OLAYA", "GASODUCTO": "CENTRO - ORIENTE", "TRAMO": "Barrancabermeja - Sebastopol", "TP_DUCTO": "Troncal", "DISTRITO": "1", "DIAMETRO": "20\"", "TRM_REG": "BARRANCABERMEJA - SEBASTOPOL", "ZONA": "1", "PK": "099+167", "PK_PAT": "99154", "ID_EVENTO": "195", "TP_EVENTO": "SOCAVACIÓN DE FONDO", "LONG_EVENT": 20.0, "PRIORIDAD": "Alto", "AMENAZA": "Alto", "ESTADO_EG": "Antiguo", "FX2": "20220615_FX2_C01_COR_BARRANC-SEB_PK 099+154_VA", "OBSERVACION_GEOTECNISTA": "", "OBSERVACIO": "Evento desplazado respecto a linea base por actualización en la georreferenciación según recorrido 2026. Tubería expuesta (4m) por socavación de cauce. El flujo de agua removió el recubrimiento natural, desprotegiendo el tramo. Se observa pérdida de soporte debido a la erosión del material de fondo.", "PROFUNDIDA": 0.0, "COD_ID": "EVEN-9", "ENTREGA": "E05_R2", "HRMS": " ", "LATITUD": 6.5184805950000282, "LONGITUD": -74.302505479999979, "ALTURA": 104.9834, "NORTE": 2278466.0904399999, "ESTE": 4856039.9729199996, "IMAGEN_1": "C001_IMG_20260225_110223.jpg", "IMAGEN_2": "C001_IMG_20260225_110231.jpg", "IMAGEN_3": "C001_IMG_20260225_110239.jpg", "VISUALIZAR_IMAGEN_1": "https://drive.google.com/uc?export=view&id=1qxYSwmCGg6lpWuUbQtqfVmZmWmOi3E2c", "VISUALIZAR_IMAGEN_2": "https://drive.google.com/uc?export=view&id=1kmJR3rj-XTT64tL6Ohu2cLwZDXM8zrnh", "VISUALIZAR_IMAGEN_3": "https://drive.google.com/uc?export=view&id=14bEU2YV-aWZb9Tw6KG7KWrR_lVWCGrFU", "FUENTE": "IEDDV" }, "geometry": { "type": "Point", "coordinates": [ -74.302505479999979, 6.518480595000028, 104.983399999997346 ] } },
{ "type": "Feature", "properties": { "OBJECTID": 10, "FECHA": "25/02/2026 00:00:00 (UTC)", "DEPTO": "SANTANDER", "MUNICIPIO": "CIMITARRA", "VEREDA": "PUERTO OLAYA", "GASODUCTO": "CENTRO - ORIENTE", "TRAMO": "Barrancabermeja - Sebastopol", "TP_DUCTO": "Troncal", "DISTRITO": "1", "DIAMETRO": "20\"", "TRM_REG": "BARRANCABERMEJA - SEBASTOPOL", "ZONA": "1", "PK": "100+476", "PK_PAT": "100478", "ID_EVENTO": "196", "TP_EVENTO": "CARCAVAS", "LONG_EVENT": 37.0, "PRIORIDAD": "Medio", "AMENAZA": "Medio", "ESTADO_EG": "Antiguo", "FX2": "20230810_FX2_C01_C0R_BARRANC-SEB_PK100+478_VB", "OBSERVACION_GEOTECNISTA": "", "OBSERVACIO": "Formación de cárcavas por escorrentía superficial. La baja cohesión de los materiales arenosos y sueltos acelera la perdida de cobertura vegetal del terreno, facilitando procesos erosivos severos.", "PROFUNDIDA": 1.59, "COD_ID": "EVEN-10", "ENTREGA": "E05_R2", "HRMS": " ", "LATITUD": 6.5163890000000606, "LONGITUD": -74.314048, "ALTURA": 125.4872, "NORTE": 2278238.2174200001, "ESTE": 4854763.4101299997, "IMAGEN_1": "C001_IMG_20260225_113127.jpg", "IMAGEN_2": "C001_IMG_20260225_113135.jpg", "IMAGEN_3": "C001_IMG_20260225_113206.jpg", "VISUALIZAR_IMAGEN_1": "https://drive.google.com/uc?export=view&id=1DKmOndGJciiGsCMFMGSqwyiYpOYy-MPW", "VISUALIZAR_IMAGEN_2": "https://drive.google.com/uc?export=view&id=1lTe40yBO_7WeFWafI-edZDnZDBzMZV3q", "VISUALIZAR_IMAGEN_3": "https://drive.google.com/uc?export=view&id=1DIyjIri3kFikn3Oc11lRNCZcDQYqKziP", "FUENTE": "IEDDV" }, "geometry": { "type": "Point", "coordinates": [ -74.314048, 6.516389, 125.487200000003213 ] } },
{ "type": "Feature", "properties": { "OBJECTID": 11, "FECHA": "25/02/2026 00:00:00 (UTC)", "DEPTO": "SANTANDER", "MUNICIPIO": "CIMITARRA", "VEREDA": "LOS MORROS", "GASODUCTO": "CENTRO - ORIENTE", "TRAMO": "Barrancabermeja - Sebastopol", "TP_DUCTO": "Troncal", "DISTRITO": "1", "DIAMETRO": "20\"", "TRM_REG": "BARRANCABERMEJA - SEBASTOPOL", "ZONA": "1", "PK": "096+204", "PK_PAT": "96204", "ID_EVENTO": "764", "TP_EVENTO": "SURCOS", "LONG_EVENT": 40.0, "PRIORIDAD": "Alto", "AMENAZA": "Alto", "ESTADO_EG": "Antiguo", "FX2": "20210412_FX2_C01_COR_BARRANC-SEB_PK096+204_VC", "OBSERVACION_GEOTECNISTA": "", "OBSERVACIO": "Zona con corte mecánico y erosión por escorrentía, resultando en 2m de tubería expuesta. El suelo arenoso y de baja cohesion incrementa la vulnerabilidad y el riesgo de socavación continua.", "PROFUNDIDA": 0.0, "COD_ID": "EVEN-11", "ENTREGA": "E05_R2", "HRMS": " ", "LATITUD": 6.531355000000076, "LONGITUD": -74.280298, "ALTURA": 101.351, "NORTE": 2279882.7799399998, "ESTE": 4858498.4830999998, "IMAGEN_1": "C001_IMG_20260225_093341.jpg", "IMAGEN_2": "C001_IMG_20260225_093356.jpg", "IMAGEN_3": "C001_IMG_20260225_093410.jpg", "VISUALIZAR_IMAGEN_1": "https://drive.google.com/uc?export=view&id=16P0qVG7mKWWa_RlhK8sdhI0XVoNX-fG4", "VISUALIZAR_IMAGEN_2": "https://drive.google.com/uc?export=view&id=1mSqMcbrByirVQcBBfCAGN5R-WWPOSROQ", "VISUALIZAR_IMAGEN_3": "https://drive.google.com/uc?export=view&id=1w7ue3GxihRuM_Gb21C0BzI1WxljeCRbg", "FUENTE": "IEDDV" }, "geometry": { "type": "Point", "coordinates": [ -74.280298, 6.531355, 101.350999999995111 ] } },
{ "type": "Feature", "properties": { "OBJECTID": 12, "FECHA": "25/02/2026 00:00:00 (UTC)", "DEPTO": "SANTANDER", "MUNICIPIO": "CIMITARRA", "VEREDA": "PUERTO OLAYA", "GASODUCTO": "CENTRO - ORIENTE", "TRAMO": "Barrancabermeja - Sebastopol", "TP_DUCTO": "Troncal", "DISTRITO": "1", "DIAMETRO": "20\"", "TRM_REG": "BARRANCABERMEJA - SEBASTOPOL", "ZONA": "1", "PK": "099+241", "PK_PAT": "99239", "ID_EVENTO": "1134", "TP_EVENTO": "OTRO", "LONG_EVENT": 51.0, "PRIORIDAD": "Medio", "AMENAZA": "Medio", "ESTADO_EG": "Antiguo", "FX2": "20230811_FX2_C01_C0R_BARRANC-SEB_PK099+239_VA", "OBSERVACION_GEOTECNISTA": "", "OBSERVACIO": "Se cambia respecto a linea base de tipo de evento socavación lateral a Otro. Se presenta socavación por flujo hídrico paralelo a la tuberia, lo cual ha generado deslizamientos, dejando la tubería expuesta. La pérdida de soporte lateral por erosión del cauce compromete la estabilidad del tramo.", "PROFUNDIDA": 0.0, "COD_ID": "EVEN-12", "ENTREGA": "E05_R2", "HRMS": " ", "LATITUD": 6.51836, "LONGITUD": -74.30316, "ALTURA": 107.2221, "NORTE": 2278452.9481000002, "ESTE": 4855967.5851299996, "IMAGEN_1": "C001_IMG_20260225_110422.jpg", "IMAGEN_2": "C001_IMG_20260225_110436.jpg", "IMAGEN_3": "C001_IMG_20260225_110450.jpg", "VISUALIZAR_IMAGEN_1": "https://drive.google.com/uc?export=view&id=1qRTwDb016Sv8R_cWh1JNSIoHzospHzly", "VISUALIZAR_IMAGEN_2": "https://drive.google.com/uc?export=view&id=1YkOGxC1gLlvFLCmsHNwc6idOVkFv6mto", "VISUALIZAR_IMAGEN_3": "https://drive.google.com/uc?export=view&id=1F-dsZ0QBPRK72JqSEVXM68MTLyMlzabF", "FUENTE": "IEDDV" }, "geometry": { "type": "Point", "coordinates": [ -74.30316, 6.51836, 107.222099999999045 ] } },
{ "type": "Feature", "properties": { "OBJECTID": 13, "FECHA": "24/01/2026 00:00:00 (UTC)", "DEPTO": "CALDAS", "MUNICIPIO": "LA DORADA", "VEREDA": "LA ARENOSA", "GASODUCTO": "CENTRO - ORIENTE", "TRAMO": "La Dorada", "TP_DUCTO": "Ramal", "DISTRITO": "2", "DIAMETRO": "2\"", "TRM_REG": "VASCONIA - MARIQUITA", "ZONA": "2", "PK": "000+709", "PK_PAT": "468", "ID_EVENTO": "", "TP_EVENTO": "SOCAVACIÓN LATERAL", "LONG_EVENT": 4.0, "PRIORIDAD": "Medio", "AMENAZA": "Alto", "ESTADO_EG": "Antiguo", "FX2": "20230919_FX2_C01_COR_R-LA DORADA_PK000+468_VA", "OBSERVACION_GEOTECNISTA": "", "OBSERVACIO": "Socavación lateral en margen derecho de cauce genera inestabilidad en el terreno, debilitando la estructura de apoyo de la tubería. La erosión hídrica en este suelo arenoso ha dejado el ducto expuesto y suspendido, representando un alto riesgo.", "PROFUNDIDA": 0.0, "COD_ID": "EG-181", "ENTREGA": "E01_R2", "HRMS": " ", "LATITUD": 5.448243, "LONGITUD": -74.679866, "ALTURA": 200.53200000000652, "NORTE": 2160280.29489, "ESTE": 4813959.9380799998, "IMAGEN_1": "C001_IMG_20260124_123119.jpg", "IMAGEN_2": "C001_IMG_20260124_123128.jpg", "IMAGEN_3": "C001_IMG_20260124_123132.jpg", "VISUALIZAR_IMAGEN_1": "https://drive.google.com/uc?export=view&id=1VR8ZCgLVlafNrPjBHr4JY78qHZOMoL2P", "VISUALIZAR_IMAGEN_2": "https://drive.google.com/uc?export=view&id=1W2UxE4ZbWcgaP40hHKpQji7iKVddsjBu", "VISUALIZAR_IMAGEN_3": "https://drive.google.com/uc?export=view&id=1cUBhgGz90spWenh2ITfRaUmiqpdvbYC0", "FUENTE": "IEDDV" }, "geometry": { "type": "Point", "coordinates": [ -74.679866, 5.448243, 200.532000000006519 ] } },
{ "type": "Feature", "properties": { "OBJECTID": 14, "FECHA": "26/01/2026 00:00:00 (UTC)", "DEPTO": "CALDAS", "MUNICIPIO": "LA DORADA", "VEREDA": "HORIZONTES", "GASODUCTO": "CENTRO - ORIENTE", "TRAMO": "Puerto Salgar - Mariquita", "TP_DUCTO": "Troncal", "DISTRITO": "2", "DIAMETRO": "20\"", "TRM_REG": "VASCONIA - MARIQUITA", "ZONA": "2", "PK": "271+462", "PK_PAT": "271460", "ID_EVENTO": "", "TP_EVENTO": "SOCAVACIÓN DE FONDO", "LONG_EVENT": 7.3, "PRIORIDAD": "Medio", "AMENAZA": "Alto", "ESTADO_EG": "Antiguo", "FX2": "20210927_FX2_C01_COR_PTO SALG-MAR_PK271+292_VA", "OBSERVACION_GEOTECNISTA": "", "OBSERVACIO": "Exposición de tubería por erosión hídrica regresiva en cauce intermitente. El flujo invernal ha removido el relleno del DDV. Suelo arenoso sin cohesión. Amenaza: Impacto de escombros y socavación basal. Sugerido: Trinchos o enrocado de protección.", "PROFUNDIDA": 0.0, "COD_ID": "EG-183", "ENTREGA": "E01_R2", "HRMS": " ", "LATITUD": 5.29954900000007, "LONGITUD": -74.745642, "ALTURA": 207.99800000000687, "NORTE": 2143863.4123200001, "ESTE": 4806626.3410700001, "IMAGEN_1": "C001_IMG_20260126_083030.jpg", "IMAGEN_2": "C001_IMG_20260126_083043.jpg", "IMAGEN_3": "C001_IMG_20260126_083049.jpg", "VISUALIZAR_IMAGEN_1": "https://drive.google.com/uc?export=view&id=1j_qtYJYFl6-Hs46uKn3N_WyGisWpYjzJ", "VISUALIZAR_IMAGEN_2": "https://drive.google.com/uc?export=view&id=1OKQ0tVQYVbF5RSroGc2mmnRSLIxFq3xZ", "VISUALIZAR_IMAGEN_3": "https://drive.google.com/uc?export=view&id=1Lj6pfHZeHANFohbZLtaRhf84BlKmNN8a", "FUENTE": "IEDDV" }, "geometry": { "type": "Point", "coordinates": [ -74.745642, 5.299549, 207.998000000006869 ] } },
{ "type": "Feature", "properties": { "OBJECTID": 15, "FECHA": "24/01/2026 00:00:00 (UTC)", "DEPTO": "CALDAS", "MUNICIPIO": "LA DORADA", "VEREDA": "PURNIO", "GASODUCTO": "CENTRO - ORIENTE", "TRAMO": "Termodorada", "TP_DUCTO": "Ramal", "DISTRITO": "2", "DIAMETRO": "12\"", "TRM_REG": "VASCONIA - MARIQUITA", "ZONA": "2", "PK": "006+055", "PK_PAT": "6058", "ID_EVENTO": "", "TP_EVENTO": "CARCAVAS", "LONG_EVENT": 45.0, "PRIORIDAD": "Alto", "AMENAZA": "Alto", "ESTADO_EG": "Antiguo", "FX2": "20230919_FX2_C01_COR_R-TERMOD_PK006+058_VA", "OBSERVACION_GEOTECNISTA": "", "OBSERVACIO": "Erosión severa en ladera de montaña causada por el flujo de agua lluvia. La pendiente y el tipo de suelo, altamente erosionable, facilitan la pérdida de cobertura vegetal y la creación de socavones profundos. Cuneta completamente destruida.", "PROFUNDIDA": 3.1, "COD_ID": "EG-184", "ENTREGA": "E01_R2", "HRMS": " ", "LATITUD": 5.416229, "LONGITUD": -74.688326, "ALTURA": 206.258, "NORTE": 2156743.9809300001, "ESTE": 4813012.87622, "IMAGEN_1": "C001_IMG_20260124_082111.jpg", "IMAGEN_2": "C001_IMG_20260124_082118.jpg", "IMAGEN_3": "C001_IMG_20260124_082133.jpg", "VISUALIZAR_IMAGEN_1": "https://drive.google.com/uc?export=view&id=1H6WcmG6Wpo39ZKtgl7KP-vJdOtKfxXyS", "VISUALIZAR_IMAGEN_2": "https://drive.google.com/uc?export=view&id=1X6rn5qI6_e0BxQ_UYeq9RlyL1Rb4MGme", "VISUALIZAR_IMAGEN_3": "https://drive.google.com/uc?export=view&id=1MrZaryNscpI_vh5qsFhMd_Jwa31ctMLY", "FUENTE": "IEDDV" }, "geometry": { "type": "Point", "coordinates": [ -74.688326, 5.416229, 206.25800000000163 ] } },
{ "type": "Feature", "properties": { "OBJECTID": 16, "FECHA": "24/01/2026 00:00:00 (UTC)", "DEPTO": "CALDAS", "MUNICIPIO": "LA DORADA", "VEREDA": "LA ARENOSA", "GASODUCTO": "CENTRO - ORIENTE", "TRAMO": "Termodorada", "TP_DUCTO": "Ramal", "DISTRITO": "2", "DIAMETRO": "12\"", "TRM_REG": "VASCONIA - MARIQUITA", "ZONA": "2", "PK": "009+499", "PK_PAT": "9497", "ID_EVENTO": "", "TP_EVENTO": "CARCAVAS", "LONG_EVENT": 24.0, "PRIORIDAD": "Alto", "AMENAZA": "Alto", "ESTADO_EG": "Antiguo", "FX2": "20210930_FX2_C01_COR_R-TERMOD_PK009+497_VA", "OBSERVACION_GEOTECNISTA": "", "OBSERVACIO": "Tubería descubierta en cuneta en tierra de vía terciaria. El flujo constante de agua lluvia y el terreno altamente erosionable han socavado el canal, dejando expuesta la infraestructura y comprometiendo la estabilidad del borde de la vía.", "PROFUNDIDA": 0.0, "COD_ID": "EG-185", "ENTREGA": "E01_R2", "HRMS": " ", "LATITUD": 5.4459820000000718, "LONGITUD": -74.683252, "ALTURA": 194.814, "NORTE": 2160031.40277, "ESTE": 4813584.1450500004, "IMAGEN_1": "C001_IMG_20260124_111250.jpg", "IMAGEN_2": "C001_IMG_20260124_111307.jpg", "IMAGEN_3": "C001_IMG_20260124_111313.jpg", "VISUALIZAR_IMAGEN_1": "https://drive.google.com/uc?export=view&id=1wjgeideuHm4oY_MYw0ZXuRTbkZSXtvqY", "VISUALIZAR_IMAGEN_2": "https://drive.google.com/uc?export=view&id=1_oVdeyYNHxZBms7ywTnX8Dgh3F3xRDjb", "VISUALIZAR_IMAGEN_3": "https://drive.google.com/uc?export=view&id=1_WLk64Y-ZJOA8oa3U83MSK8A3L5U-VsT", "FUENTE": "IEDDV" }, "geometry": { "type": "Point", "coordinates": [ -74.683252, 5.445982, 194.813999999998487 ] } },
{ "type": "Feature", "properties": { "OBJECTID": 17, "FECHA": "22/01/2026 00:00:00 (UTC)", "DEPTO": "CALDAS", "MUNICIPIO": "LA DORADA", "VEREDA": "GUARINOCITO", "GASODUCTO": "CENTRO - ORIENTE", "TRAMO": "Puerto Salgar - Mariquita", "TP_DUCTO": "Troncal", "DISTRITO": "2", "DIAMETRO": "20\"", "TRM_REG": "VASCONIA - MARIQUITA", "ZONA": "2", "PK": "262+237", "PK_PAT": "262226", "ID_EVENTO": "", "TP_EVENTO": "SOCAVACIÓN DE FONDO", "LONG_EVENT": 35.0, "PRIORIDAD": "Alto", "AMENAZA": "Extremo", "ESTADO_EG": "Antiguo", "FX2": "20210927_FX2_C01_COR_PTO SALG-MAR_PK262+226_VC", "OBSERVACION_GEOTECNISTA": "", "OBSERVACIO": "Evento subsanado", "PROFUNDIDA": 1.31, "COD_ID": "EG-325", "ENTREGA": "E01_R2", "HRMS": " ", "LATITUD": 5.3723670000000538, "LONGITUD": -74.719421, "ALTURA": 190.754, "NORTE": 2151904.93561, "ESTE": 4809554.3159600003, "IMAGEN_1": "C001_IMG_20260122_114124.jpg", "IMAGEN_2": "C001_IMG_20260122_114133.jpg", "IMAGEN_3": "C001_IMG_20260122_114144.jpg", "VISUALIZAR_IMAGEN_1": "https://drive.google.com/uc?export=view&id=1g3tTe6EzwcjKijc-0nZ-hw81i0p9bhgg", "VISUALIZAR_IMAGEN_2": "https://drive.google.com/uc?export=view&id=1EAQPvhi9ELA8Gwo6Q9PawfHlF27YKFRl", "VISUALIZAR_IMAGEN_3": "https://drive.google.com/uc?export=view&id=18npmHYFiSc5Gpy_xm7WRXnoMWESj5w9h", "FUENTE": "IEDDV" }, "geometry": { "type": "Point", "coordinates": [ -74.719421, 5.372367, 190.754000000000815 ] } },
{ "type": "Feature", "properties": { "OBJECTID": 18, "FECHA": "24/01/2026 00:00:00 (UTC)", "DEPTO": "CALDAS", "MUNICIPIO": "LA DORADA", "VEREDA": "LA PETROLEA", "GASODUCTO": "CENTRO - ORIENTE", "TRAMO": "Termodorada", "TP_DUCTO": "Ramal", "DISTRITO": "2", "DIAMETRO": "12\"", "TRM_REG": "VASCONIA - MARIQUITA", "ZONA": "2", "PK": "004+822", "PK_PAT": "4823", "ID_EVENTO": "", "TP_EVENTO": "SOCAVACIÓN DE FONDO", "LONG_EVENT": 36.0, "PRIORIDAD": "Alto", "AMENAZA": "Alto", "ESTADO_EG": "Antiguo", "FX2": "20230919_FX2_C01_COR_R-TERMOD_PK004+823_VB", "OBSERVACION_GEOTECNISTA": "", "OBSERVACIO": "No se puede acceder al lecho del rio", "PROFUNDIDA": 4.88, "COD_ID": "EG-330", "ENTREGA": "E01_R2", "HRMS": " ", "LATITUD": 5.409746, "LONGITUD": -74.693741, "ALTURA": 177.264, "NORTE": 2156028.9994800002, "ESTE": 4812410.9772800002, "IMAGEN_1": "C001_IMG_20260124_072949.jpg", "IMAGEN_2": "C001_IMG_20260124_073016.jpg", "IMAGEN_3": "C001_IMG_20260124_073023.jpg", "VISUALIZAR_IMAGEN_1": "https://drive.google.com/uc?export=view&id=1E6DZhOkyl80tVUBFuRo19PNgDpW9VVq_", "VISUALIZAR_IMAGEN_2": "https://drive.google.com/uc?export=view&id=1aascDwTH3uDWGGUkKFxsbiNwEdmyX1n_", "VISUALIZAR_IMAGEN_3": "https://drive.google.com/uc?export=view&id=1xXtyWRM3AHINAGcs7lFF-8Q9FXYid0Cv", "FUENTE": "IEDDV" }, "geometry": { "type": "Point", "coordinates": [ -74.693741, 5.409746, 177.263999999995576 ] } },
{ "type": "Feature", "properties": { "OBJECTID": 19, "FECHA": "24/01/2026 00:00:00 (UTC)", "DEPTO": "CALDAS", "MUNICIPIO": "LA DORADA", "VEREDA": "PURNIO", "GASODUCTO": "CENTRO - ORIENTE", "TRAMO": "Termodorada", "TP_DUCTO": "Ramal", "DISTRITO": "2", "DIAMETRO": "12\"", "TRM_REG": "VASCONIA - MARIQUITA", "ZONA": "2", "PK": "010+105", "PK_PAT": "10085", "ID_EVENTO": "", "TP_EVENTO": "SOCAVACIÓN DE FONDO", "LONG_EVENT": 20.0, "PRIORIDAD": "Alto", "AMENAZA": "Alto", "ESTADO_EG": "Antiguo", "FX2": "20220217_FX2_C01_COR_R-TERMOD_PK010+085_VB", "OBSERVACION_GEOTECNISTA": "", "OBSERVACIO": "Ubicacion ajustada. Socavación de la capa de material sobre ducto en vía terciaria por flujo de agua lluvia. El arrastre de sedimentos en este terreno arenoso ha reducido la profundidad de cobertura a solo 35 cm, dejando la infraestructura vulnerable", "PROFUNDIDA": 0.35, "COD_ID": "EVEN-1", "ENTREGA": "E01_R2", "HRMS": " ", "LATITUD": 5.4425854690000506, "LONGITUD": -74.679275532999952, "ALTURA": 185.883, "NORTE": 2159654.71379, "ESTE": 4814023.6090700002, "IMAGEN_1": "C001_IMG_20260124_113437.jpg", "IMAGEN_2": "C001_IMG_20260124_113446.jpg", "IMAGEN_3": "C001_IMG_20260124_113450.jpg", "VISUALIZAR_IMAGEN_1": "https://drive.google.com/uc?export=view&id=1lbxStuzic--VuksaMwb3ixwlmyCkvB1f", "VISUALIZAR_IMAGEN_2": "https://drive.google.com/uc?export=view&id=1b98fAS0hd9eDkMIBWlLYkL-s2QMKT6Jl", "VISUALIZAR_IMAGEN_3": "https://drive.google.com/uc?export=view&id=1Ltb35YKI2zTe2tr6-iy3A2CLAzAWrQaE", "FUENTE": "IEDDV" }, "geometry": { "type": "Point", "coordinates": [ -74.679275532999952, 5.442585469000051, 185.88300000000163 ] } },
{ "type": "Feature", "properties": { "OBJECTID": 20, "FECHA": "24/01/2026 00:00:00 (UTC)", "DEPTO": "CALDAS", "MUNICIPIO": "LA DORADA", "VEREDA": "PURNIO", "GASODUCTO": "CENTRO - ORIENTE", "TRAMO": "Termodorada", "TP_DUCTO": "Ramal", "DISTRITO": "2", "DIAMETRO": "12\"", "TRM_REG": "VASCONIA - MARIQUITA", "ZONA": "2", "PK": "009+884", "PK_PAT": "9905", "ID_EVENTO": "", "TP_EVENTO": "SOCAVACIÓN DE FONDO", "LONG_EVENT": 12.0, "PRIORIDAD": "Alto", "AMENAZA": "Alto", "ESTADO_EG": "Nuevo", "FX2": "20250226_FX2_C01_COR_R-TERMOD_PK009+905_VA", "OBSERVACION_GEOTECNISTA": "", "OBSERVACIO": "Surcos en la margen izquierda de la vía producidos por la circulación de agua de escorrentía. El terreno, de naturaleza arenosa y con poca cobertura, presenta una erosión laminar que evoluciona hacia canales más profundos debido al flujo hídrico.", "PROFUNDIDA": 1.45, "COD_ID": "EG-600", "ENTREGA": "E01_R2", "HRMS": " ", "LATITUD": 5.443244, "LONGITUD": -74.68107, "ALTURA": 184.36199999999371, "NORTE": 2159728.06274, "ESTE": 4813825.0217500003, "IMAGEN_1": "C001_IMG_20260124_112602.jpg", "IMAGEN_2": "C001_IMG_20260124_112607.jpg", "IMAGEN_3": "C001_IMG_20260124_112612.jpg", "VISUALIZAR_IMAGEN_1": "https://drive.google.com/uc?export=view&id=1_n1riXjFqMQjooAtOf3Xmp4EbFwgMSH4", "VISUALIZAR_IMAGEN_2": "https://drive.google.com/uc?export=view&id=1z4gleD6rykKE79MAS7Ac5h9OJlUKNlzQ", "VISUALIZAR_IMAGEN_3": "https://drive.google.com/uc?export=view&id=1cveJZ7cIwgpTBuTRid6RDRb3TaO14mWp", "FUENTE": "IEDDV" }, "geometry": { "type": "Point", "coordinates": [ -74.68107, 5.443244, 184.361999999993714 ] } },
{ "type": "Feature", "properties": { "OBJECTID": 21, "FECHA": "24/01/2026 00:00:00 (UTC)", "DEPTO": "CALDAS", "MUNICIPIO": "LA DORADA", "VEREDA": "PURNIO", "GASODUCTO": "CENTRO - ORIENTE", "TRAMO": "Termodorada", "TP_DUCTO": "Ramal", "DISTRITO": "2", "DIAMETRO": "12\"", "TRM_REG": "VASCONIA - MARIQUITA", "ZONA": "2", "PK": "006+724", "PK_PAT": "6777", "ID_EVENTO": "", "TP_EVENTO": "SOCAVACIÓN DE FONDO", "LONG_EVENT": 3.0, "PRIORIDAD": "Alto", "AMENAZA": "Medio", "ESTADO_EG": "Nuevo", "FX2": "20250521_FX2_C01_COR_R-TERMOD_PK006+777_VA", "OBSERVACION_GEOTECNISTA": "", "OBSERVACIO": "Tubería descubierta en cuneta de aguas lluvias. El flujo constante en época de invierno ha erosionado el terreno arenoso, dejando expuesta la estructura. Se requiere intervención para proteger la tubería y estabilizar el canal contra la erosión.", "PROFUNDIDA": 0.0, "COD_ID": "EG-619", "ENTREGA": "E01_R2", "HRMS": " ", "LATITUD": 5.42252, "LONGITUD": -74.686326, "ALTURA": 183.89999999999418, "NORTE": 2157438.7911700001, "ESTE": 4813236.3791100001, "IMAGEN_1": "C001_IMG_20260124_090440.jpg", "IMAGEN_2": "C001_IMG_20260124_090427.jpg", "IMAGEN_3": "C001_IMG_20260124_090433.jpg", "VISUALIZAR_IMAGEN_1": "https://drive.google.com/uc?export=view&id=1dwwwjWMirpKUM_ZWxVojFv_MQjTOzbbv", "VISUALIZAR_IMAGEN_2": "https://drive.google.com/uc?export=view&id=1bnbClO_eeIRpAKbOKkeKIKfIMqcu6crJ", "VISUALIZAR_IMAGEN_3": "https://drive.google.com/uc?export=view&id=1n9iP8MHszvYizjwO09pydyGp7WazVOFu", "FUENTE": "IEDDV" }, "geometry": { "type": "Point", "coordinates": [ -74.686326, 5.42252, 183.899999999994179 ] } },
{ "type": "Feature", "properties": { "OBJECTID": 22, "FECHA": "27/01/2026 00:00:00 (UTC)", "DEPTO": "TOLIMA", "MUNICIPIO": "SAN SEBASTIÁN DE MARIQUITA", "VEREDA": "EL RANO", "GASODUCTO": "CENTRO - ORIENTE", "TRAMO": "Puerto Salgar - Mariquita", "TP_DUCTO": "Troncal", "DISTRITO": "2", "DIAMETRO": "20\"", "TRM_REG": "VASCONIA - MARIQUITA", "ZONA": "2", "PK": "286+378", "PK_PAT": "286378", "ID_EVENTO": "", "TP_EVENTO": "SOCAVACIÓN DE FONDO", "LONG_EVENT": 12.4, "PRIORIDAD": "Medio", "AMENAZA": "Medio", "ESTADO_EG": "Antiguo", "FX2": "20221116_FX2_C01_COR_PTO SALG-MAR_PK285+927_VA", "OBSERVACION_GEOTECNISTA": "", "OBSERVACIO": "Socavación en el fondo y márgenes del cauce sobre el DDV, producto de la erosión hídrica constante. El flujo de agua ha degradado el lecho, exponiendo capas de suelo y generando inestabilidad lateral que amenaza con ampliar la sección del cauce.", "PROFUNDIDA": 1.57, "COD_ID": "EG-231", "ENTREGA": "E01_R2", "HRMS": " ", "LATITUD": 5.287671, "LONGITUD": -74.843198, "ALTURA": 0.0, "NORTE": 2142581.5584900002, "ESTE": 4795812.0745200003, "IMAGEN_1": "C001_IMG_20260127_104616.jpg", "IMAGEN_2": "C001_IMG_20260127_104537.jpg", "IMAGEN_3": "C001_IMG_20260127_104542.jpg", "VISUALIZAR_IMAGEN_1": "https://drive.google.com/uc?export=view&id=12RCj56WSmiAbvl_7oIY0v7v-DV-BwG_-", "VISUALIZAR_IMAGEN_2": "https://drive.google.com/uc?export=view&id=1LhhjV1aQvwq93I3FXBeWHh8XREB_FCp2", "VISUALIZAR_IMAGEN_3": "https://drive.google.com/uc?export=view&id=1dovEemz3SSQdvhjv8OU5c8V6JoeuvRyd", "FUENTE": "IEDDV" }, "geometry": { "type": "Point", "coordinates": [ -74.843198, 5.287671, 0.0 ] } },
{ "type": "Feature", "properties": { "OBJECTID": 23, "FECHA": "27/01/2026 00:00:00 (UTC)", "DEPTO": "TOLIMA", "MUNICIPIO": "SAN SEBASTIÁN DE MARIQUITA", "VEREDA": "SAN ANTONIO", "GASODUCTO": "CENTRO - ORIENTE", "TRAMO": "Puerto Salgar - Mariquita", "TP_DUCTO": "Troncal", "DISTRITO": "2", "DIAMETRO": "20\"", "TRM_REG": "VASCONIA - MARIQUITA", "ZONA": "2", "PK": "287+911", "PK_PAT": "287907", "ID_EVENTO": "", "TP_EVENTO": "SOCAVACIÓN DE FONDO", "LONG_EVENT": 11.0, "PRIORIDAD": "Alto", "AMENAZA": "Alto", "ESTADO_EG": "Antiguo", "FX2": "20210930_FX2_C01_COR_PTO SALG-MAR_PK287+452_VA", "OBSERVACION_GEOTECNISTA": "", "OBSERVACIO": "Se observa erosión severa en el lecho del cauce debido al flujo constante de agua, lo que ha provocado la exposición de la tubería sobre el DDV. La pérdida de cobertura mineral deja el ducto vulnerable a esfuerzos mecánicos ", "PROFUNDIDA": 0.0, "COD_ID": "EG-429", "ENTREGA": "E01_R2", "HRMS": " ", "LATITUD": 5.2749605700000757, "LONGITUD": -74.848084159999985, "ALTURA": 0.0, "NORTE": 2141178.0013899999, "ESTE": 4795266.4308900004, "IMAGEN_1": "C001_IMG_20260127_095612.jpg", "IMAGEN_2": "C001_IMG_20260127_095617.jpg", "IMAGEN_3": "C001_IMG_20260127_095621.jpg", "VISUALIZAR_IMAGEN_1": "https://drive.google.com/uc?export=view&id=13HHPrckYPvN-4XF5hy61wylqozcq6-2v", "VISUALIZAR_IMAGEN_2": "https://drive.google.com/uc?export=view&id=1QvdJmBBFk_9X0rhbCwBLvtJYaik1fokp", "VISUALIZAR_IMAGEN_3": "https://drive.google.com/uc?export=view&id=1fCntplwDKB-IR7DRqa27Xpe7GAd8zfjJ", "FUENTE": "IEDDV" }, "geometry": { "type": "Point", "coordinates": [ -74.848084159999985, 5.274960570000076, 0.0 ] } },
{ "type": "Feature", "properties": { "OBJECTID": 24, "FECHA": "27/01/2026 00:00:00 (UTC)", "DEPTO": "TOLIMA", "MUNICIPIO": "SAN SEBASTIÁN DE MARIQUITA", "VEREDA": "SAN ANTONIO", "GASODUCTO": "CENTRO - ORIENTE", "TRAMO": "Puerto Salgar - Mariquita", "TP_DUCTO": "Troncal", "DISTRITO": "2", "DIAMETRO": "20\"", "TRM_REG": "VASCONIA - MARIQUITA", "ZONA": "2", "PK": "287+352", "PK_PAT": "287399", "ID_EVENTO": "", "TP_EVENTO": "SURCOS", "LONG_EVENT": 42.0, "PRIORIDAD": "Medio", "AMENAZA": "Medio", "ESTADO_EG": "Antiguo", "FX2": "20240716_FX2_C01_COR_PTO SALG-MAR_PK287+323_VA", "OBSERVACION_GEOTECNISTA": "", "OBSERVACIO": "Se observa formación de cárcava lateral al DDV originada por escorrentía pluvial. El relieve ondulado de la zona acelera la velocidad del flujo de agua, lo que, sumado a la pendiente, aumenta el poder erosivo y la socavación del terreno en este punto", "PROFUNDIDA": 1.96, "COD_ID": "EG-545", "ENTREGA": "E01_R2", "HRMS": " ", "LATITUD": 5.2797138, "LONGITUD": -74.8465812, "ALTURA": 0.0, "NORTE": 2141702.9866900002, "ESTE": 4795434.54641, "IMAGEN_1": "C001_IMG_20260127_101629.jpg", "IMAGEN_2": "C001_IMG_20260127_101635.jpg", "IMAGEN_3": "C001_IMG_20260127_101642.jpg", "VISUALIZAR_IMAGEN_1": "https://drive.google.com/uc?export=view&id=1lJ1T_s_9vvlkKh3GwXa-GfotVTYZruln", "VISUALIZAR_IMAGEN_2": "https://drive.google.com/uc?export=view&id=1zBg7rxlKfvtqQ8auZ9Nz_kzE7nCx-z2O", "VISUALIZAR_IMAGEN_3": "https://drive.google.com/uc?export=view&id=165XpcgF6ddqnazHTvClVgy6lPistJdFT", "FUENTE": "IEDDV" }, "geometry": { "type": "Point", "coordinates": [ -74.846581199999946, 5.279713800000025, 0.0 ] } },
{ "type": "Feature", "properties": { "OBJECTID": 25, "FECHA": "21/01/2026 00:00:00 (UTC)", "DEPTO": "CUNDINAMARCA", "MUNICIPIO": "GUADUAS", "VEREDA": "CEDRALES", "GASODUCTO": "CENTRO - ORIENTE", "TRAMO": "Puerto Salgar - Mariquita", "TP_DUCTO": "Troncal", "DISTRITO": "2", "DIAMETRO": "20\"", "TRM_REG": "VASCONIA - MARIQUITA", "ZONA": "2", "PK": "255+667", "PK_PAT": "255667", "ID_EVENTO": "", "TP_EVENTO": "CARCAVAS", "LONG_EVENT": 12.0, "PRIORIDAD": "Alto", "AMENAZA": "Alto", "ESTADO_EG": "Antiguo", "FX2": "20210929_FX2_C01_COR_PTO SALG-MAR_PK255+667_VA", "OBSERVACION_GEOTECNISTA": "", "OBSERVACIO": "Cárcava activa por escorrentía superficial sobre el eje del ducto. El fenómeno ha generado pérdida total de cobertura, resultando en la exposición directa de la tubería. Se requiere intervención inmediata con relleno técnico y manejo de aguas.", "PROFUNDIDA": 0.0, "COD_ID": "EG-182", "ENTREGA": "E01_R2", "HRMS": " ", "LATITUD": 5.390158, "LONGITUD": -74.66676, "ALTURA": 188.91, "NORTE": 2153855.4382500001, "ESTE": 4815394.1488699997, "IMAGEN_1": "C001_IMG_20260121_112430.jpg", "IMAGEN_2": "C001_IMG_20260121_112444.jpg", "IMAGEN_3": "C001_IMG_20260121_112457.jpg", "VISUALIZAR_IMAGEN_1": "https://drive.google.com/uc?export=view&id=1DYsigz6c6uFFuhwKiCAbDYK0IDW60uDz", "VISUALIZAR_IMAGEN_2": "https://drive.google.com/uc?export=view&id=1MMbMH1PinAtHipQJ9P3ltVO7uv9SO0sF", "VISUALIZAR_IMAGEN_3": "https://drive.google.com/uc?export=view&id=1CRDYRE1MtG2AB0ovrzsTeS3dXR1uMZO4", "FUENTE": "IEDDV" }, "geometry": { "type": "Point", "coordinates": [ -74.66676, 5.390158, 188.910000000003492 ] } },
{ "type": "Feature", "properties": { "OBJECTID": 26, "FECHA": "17/01/2026 00:00:00 (UTC)", "DEPTO": "CUNDINAMARCA", "MUNICIPIO": "PUERTO SALGAR", "VEREDA": "SAN CAYETANO", "GASODUCTO": "CENTRO - ORIENTE", "TRAMO": "Vasconia - Puerto Salgar", "TP_DUCTO": "Troncal", "DISTRITO": "1", "DIAMETRO": "20\"", "TRM_REG": "VASCONIA - MARIQUITA", "ZONA": "1", "PK": "226+096", "PK_PAT": "226095", "ID_EVENTO": "", "TP_EVENTO": "SOCAVACIÓN LATERAL", "LONG_EVENT": 15.0, "PRIORIDAD": "Alto", "AMENAZA": "Alto", "ESTADO_EG": "Antiguo", "FX2": "20210413_FX2_COR_VASC-PTO-SALG_PK226+095_VB", "OBSERVACION_GEOTECNISTA": "", "OBSERVACIO": "Socavación lateral por escorrentía de potreros en suelo arenoso, sumada a erosión del lecho, compromete la margen y expone la tubería. Se requiere protección marginal y estabilización del fondo para evitar fallas estructurales por pérdida de soporte.", "PROFUNDIDA": 3.68, "COD_ID": "EVEN-2", "ENTREGA": "E01_R2", "HRMS": " ", "LATITUD": 5.638412206000055, "LONGITUD": -74.621161721999954, "ALTURA": 164.357, "NORTE": 2181283.78498, "ESTE": 4820520.4767100001, "IMAGEN_1": "C001_IMG_20260117_101532.jpg", "IMAGEN_2": "C001_IMG_20260117_101542.jpg", "IMAGEN_3": "C001_IMG_20260117_101608.jpg", "VISUALIZAR_IMAGEN_1": "https://drive.google.com/uc?export=view&id=1b6eIj8aMDZccBV1ODQ2e2fdhHgv-uiXL", "VISUALIZAR_IMAGEN_2": "https://drive.google.com/uc?export=view&id=1M1tPdxWAzzlIwl7-uPU3GOd40o8nBZh4", "VISUALIZAR_IMAGEN_3": "https://drive.google.com/uc?export=view&id=10nP7kU-KkaseMM7xkgeVa3wpjThNTh45", "FUENTE": "IEDDV" }, "geometry": { "type": "Point", "coordinates": [ -74.621161721999954, 5.638412206000055, 164.357000000003609 ] } },
{ "type": "Feature", "properties": { "OBJECTID": 27, "FECHA": "21/01/2026 00:00:00 (UTC)", "DEPTO": "CUNDINAMARCA", "MUNICIPIO": "GUADUAS", "VEREDA": "CEDRALES", "GASODUCTO": "CENTRO - ORIENTE", "TRAMO": "Puerto Salgar - Mariquita", "TP_DUCTO": "Troncal", "DISTRITO": "2", "DIAMETRO": "20\"", "TRM_REG": "VASCONIA - MARIQUITA", "ZONA": "2", "PK": "251+422", "PK_PAT": "251427", "ID_EVENTO": "", "TP_EVENTO": "CARCAVAS", "LONG_EVENT": 20.0, "PRIORIDAD": "Medio", "AMENAZA": "Medio", "ESTADO_EG": "Antiguo", "FX2": "20210929_FX2_C01_COR_PTO SALG-MAR_PK251+427_VA", "OBSERVACION_GEOTECNISTA": "", "OBSERVACIO": "Cárcava sobre el DDV con exposición de saco suelos. El fenómeno presenta alta vulnerabilidad ante la saturación del terreno por lluvias, indicando riesgo de exposición del ducto a corto plazo. Urge estabilización y reconformación. An=3m Al=2m L=20m", "PROFUNDIDA": 0.95, "COD_ID": "EG-427", "ENTREGA": "E01_R2", "HRMS": " ", "LATITUD": 5.422833, "LONGITUD": -74.649628, "ALTURA": 185.755, "NORTE": 2157462.2029400002, "ESTE": 4817301.9655, "IMAGEN_1": "C001_IMG_20260121_084459.jpg", "IMAGEN_2": "C001_IMG_20260121_084529.jpg", "IMAGEN_3": "C001_IMG_20260121_084539.jpg", "VISUALIZAR_IMAGEN_1": "https://drive.google.com/uc?export=view&id=1ppA3lOM6Th44MjGMj5u6MNyUwOkCeJ4Q", "VISUALIZAR_IMAGEN_2": "https://drive.google.com/uc?export=view&id=1B-qx4UqMLmmW4w-8bXNSy2rJrc10q1KS", "VISUALIZAR_IMAGEN_3": "https://drive.google.com/uc?export=view&id=1TKa7wtYLyFyAfBOLwGb3kh1k6whkMTQn", "FUENTE": "IEDDV" }, "geometry": { "type": "Point", "coordinates": [ -74.649628, 5.422833, 185.755000000004657 ] } },
{ "type": "Feature", "properties": { "OBJECTID": 28, "FECHA": "21/01/2026 00:00:00 (UTC)", "DEPTO": "CUNDINAMARCA", "MUNICIPIO": "GUADUAS", "VEREDA": "CEDRALES", "GASODUCTO": "CENTRO - ORIENTE", "TRAMO": "Puerto Salgar - Mariquita", "TP_DUCTO": "Troncal", "DISTRITO": "2", "DIAMETRO": "20\"", "TRM_REG": "VASCONIA - MARIQUITA", "ZONA": "2", "PK": "255+100", "PK_PAT": "255117", "ID_EVENTO": "", "TP_EVENTO": "CARCAVAS", "LONG_EVENT": 11.0, "PRIORIDAD": "Medio", "AMENAZA": "Medio", "ESTADO_EG": "Antiguo", "FX2": "20210929_FX2_C01_COR_PTO SALG-MAR_PK255+117_VA", "OBSERVACION_GEOTECNISTA": "", "OBSERVACIO": "Presencia de cárcavas generadas por escorrentía superficial concentrada muy cerca del ducto. La falta de estructuras de manejo de aguas ha permitido que el flujo erosione el suelo de cobertura, creando discontinuidades que amenazan el ducto.", "PROFUNDIDA": 3.8, "COD_ID": "EVEN-3", "ENTREGA": "E01_R2", "HRMS": " ", "LATITUD": 5.39436881000006, "LONGITUD": -74.663974097999983, "ALTURA": 203.139, "NORTE": 2154320.06544, "ESTE": 4815704.0644800002, "IMAGEN_1": "C001_IMG_20260121_110628.jpg", "IMAGEN_2": "C001_IMG_20260121_110636.jpg", "IMAGEN_3": "C001_IMG_20260121_110702.jpg", "VISUALIZAR_IMAGEN_1": "https://drive.google.com/uc?export=view&id=1T9JEwQZSI4psJsWFoaDg1tR6bAqrYMpD", "VISUALIZAR_IMAGEN_2": "https://drive.google.com/uc?export=view&id=1yAhIeZ8gX3ztuW3Len6isQ07BD1BLZvA", "VISUALIZAR_IMAGEN_3": "https://drive.google.com/uc?export=view&id=11Yn8CfxE97ov--Z2D5HqgnmTKQdyGzt_", "FUENTE": "IEDDV" }, "geometry": { "type": "Point", "coordinates": [ -74.663974097999983, 5.39436881000006, 203.138999999995576 ] } },
{ "type": "Feature", "properties": { "OBJECTID": 29, "FECHA": "21/01/2026 00:00:00 (UTC)", "DEPTO": "CUNDINAMARCA", "MUNICIPIO": "GUADUAS", "VEREDA": "CEDRALES", "GASODUCTO": "CENTRO - ORIENTE", "TRAMO": "Puerto Salgar - Mariquita", "TP_DUCTO": "Troncal", "DISTRITO": "2", "DIAMETRO": "20\"", "TRM_REG": "VASCONIA - MARIQUITA", "ZONA": "2", "PK": "255+939", "PK_PAT": "255935", "ID_EVENTO": "", "TP_EVENTO": "CARCAVAS", "LONG_EVENT": 5.0, "PRIORIDAD": "Medio", "AMENAZA": "Medio", "ESTADO_EG": "Antiguo", "FX2": "20230919_FX2_C01_COR_PTO SALG-MAR_PK255+935_VA", "OBSERVACION_GEOTECNISTA": "", "OBSERVACIO": "Cárcava por escorrentía superficial sobre el eje del ducto que ha derivado en la exposición de la obra de protección en concreto. El fenómeno erosivo elimina el confinamiento lateral de la estructura, aumentando el riesgo de descalce y daño mecánico.", "PROFUNDIDA": 1.56, "COD_ID": "EG-474", "ENTREGA": "E01_R2", "HRMS": " ", "LATITUD": 5.3882004000001, "LONGITUD": -74.6681136, "ALTURA": 189.7100000000064, "NORTE": 2153639.4514500001, "ESTE": 4815243.5940100001, "IMAGEN_1": "C001_IMG_20260121_113308.jpg", "IMAGEN_2": "C001_IMG_20260121_113323.jpg", "IMAGEN_3": "C001_IMG_20260121_113330.jpg", "VISUALIZAR_IMAGEN_1": "https://drive.google.com/uc?export=view&id=1CZFMDGJ6pc2mXlmdemW7mdgGiKWdv45S", "VISUALIZAR_IMAGEN_2": "https://drive.google.com/uc?export=view&id=18bJ2NjRZd2hW-_I--gmQ-9Z1u30WJjw1", "VISUALIZAR_IMAGEN_3": "https://drive.google.com/uc?export=view&id=1NoeDmUIu2hUjvCxwxFCsN2gnVD0e_5gA", "FUENTE": "IEDDV" }, "geometry": { "type": "Point", "coordinates": [ -74.66811359999997, 5.388200400000073, 189.710000000006403 ] } },
{ "type": "Feature", "properties": { "OBJECTID": 30, "FECHA": "19/01/2026 00:00:00 (UTC)", "DEPTO": "CUNDINAMARCA", "MUNICIPIO": "PUERTO SALGAR", "VEREDA": "YERBABUENA", "GASODUCTO": "CENTRO - ORIENTE", "TRAMO": "Vasconia - Puerto Salgar", "TP_DUCTO": "Troncal", "DISTRITO": "1", "DIAMETRO": "20\"", "TRM_REG": "VASCONIA - MARIQUITA", "ZONA": "1", "PK": "239+041", "PK_PAT": "239040", "ID_EVENTO": "", "TP_EVENTO": "SOCAVACIÓN DE FONDO", "LONG_EVENT": 5.0, "PRIORIDAD": "Medio", "AMENAZA": "Medio", "ESTADO_EG": "Antiguo", "FX2": "20240507_FX2_C01_COR_VASC-PTO SALG_PK239+040_VA", "OBSERVACION_GEOTECNISTA": "", "OBSERVACIO": "No se evidencia", "PROFUNDIDA": 1.43, "COD_ID": "EG-534", "ENTREGA": "E01_R2", "HRMS": " ", "LATITUD": 5.5238427, "LONGITUD": -74.6240106, "ALTURA": 169.42600000000675, "NORTE": 2168620.13081, "ESTE": 4820170.0718799997, "IMAGEN_1": "C001_IMG_20260119_102704.jpg", "IMAGEN_2": "C001_IMG_20260119_102710.jpg", "IMAGEN_3": "C001_IMG_20260119_102717.jpg", "VISUALIZAR_IMAGEN_1": "https://drive.google.com/uc?export=view&id=1F_OPFIcqzKL0OCUW8HEdC6kQe-UaGThk", "VISUALIZAR_IMAGEN_2": "https://drive.google.com/uc?export=view&id=1wtAwnRKbrgdguGTNECThdfZ7vkz360ZJ", "VISUALIZAR_IMAGEN_3": "https://drive.google.com/uc?export=view&id=1inUW0qft9iBPiTApo_2DyvBuufJujVqV", "FUENTE": "IEDDV" }, "geometry": { "type": "Point", "coordinates": [ -74.624010599999963, 5.523842700000046, 169.426000000006752 ] } },
{ "type": "Feature", "properties": { "OBJECTID": 31, "FECHA": "19/01/2026 00:00:00 (UTC)", "DEPTO": "CUNDINAMARCA", "MUNICIPIO": "PUERTO SALGAR", "VEREDA": "YERBABUENA", "GASODUCTO": "CENTRO - ORIENTE", "TRAMO": "Vasconia - Puerto Salgar", "TP_DUCTO": "Troncal", "DISTRITO": "1", "DIAMETRO": "20\"", "TRM_REG": "VASCONIA - MARIQUITA", "ZONA": "1", "PK": "237+713", "PK_PAT": "237728", "ID_EVENTO": "", "TP_EVENTO": "OTRO", "LONG_EVENT": 1.5, "PRIORIDAD": "Medio", "AMENAZA": "Medio", "ESTADO_EG": "Antiguo", "FX2": "20240507_FX2_C01_COR_VASC-PTO SALG_PK237+728_VA", "OBSERVACION_GEOTECNISTA": "", "OBSERVACIO": "Canal de drenaje sobre el DDV L=100m, An=3m, Al=2m", "PROFUNDIDA": 0.82, "COD_ID": "EG-535", "ENTREGA": "E01_R2", "HRMS": " ", "LATITUD": 5.5355324, "LONGITUD": -74.6244901, "ALTURA": 169.432, "NORTE": 2169912.4553899998, "ESTE": 4820120.4931699997, "IMAGEN_1": "C001_IMG_20260119_093449.jpg", "IMAGEN_2": "C001_IMG_20260119_093502.jpg", "IMAGEN_3": "C001_IMG_20260119_093512.jpg", "VISUALIZAR_IMAGEN_1": "https://drive.google.com/uc?export=view&id=1SdvpnR6XgTtifE6d459bOPMVUYRoRzSX", "VISUALIZAR_IMAGEN_2": "https://drive.google.com/uc?export=view&id=10V0K3fGs8Ixw-dC1gJAkuJrZXBoAEIk0", "VISUALIZAR_IMAGEN_3": "https://drive.google.com/uc?export=view&id=13nXCX-De5r4xFm4GyXKAwEHJ1OcpzgYi", "FUENTE": "IEDDV" }, "geometry": { "type": "Point", "coordinates": [ -74.624490099999946, 5.535532400000022, 169.432000000000698 ] } },
{ "type": "Feature", "properties": { "OBJECTID": 32, "FECHA": "19/01/2026 00:00:00 (UTC)", "DEPTO": "CUNDINAMARCA", "MUNICIPIO": "PUERTO SALGAR", "VEREDA": "YERBABUENA", "GASODUCTO": "CENTRO - ORIENTE", "TRAMO": "Vasconia - Puerto Salgar", "TP_DUCTO": "Troncal", "DISTRITO": "1", "DIAMETRO": "20\"", "TRM_REG": "VASCONIA - MARIQUITA", "ZONA": "1", "PK": "237+463", "PK_PAT": "0", "ID_EVENTO": "", "TP_EVENTO": "CARCAVAS", "LONG_EVENT": 6.5, "PRIORIDAD": "Alto", "AMENAZA": "Medio", "ESTADO_EG": "Nuevo", "FX2": "20250521_FX2_C01_COR_VASC-PTO SALG_PK237+463_VA", "OBSERVACION_GEOTECNISTA": "", "OBSERVACIO": "Proceso erosivo genero carcavas en las proximidades del caño debido a la escorrentía superficial proveniente de zonas de pastoreo. La erosión presenta dimensiones de L=6.5m, An=3m y Prf=1m. Evento paralelo al ducto", "PROFUNDIDA": 2.14, "COD_ID": "EG-624", "ENTREGA": "E01_R2", "HRMS": " ", "LATITUD": 5.53759, "LONGITUD": -74.62537, "ALTURA": 173.874, "NORTE": 2170140.1693600002, "ESTE": 4820023.6588599999, "IMAGEN_1": "C001_IMG_20260119_091006.jpg", "IMAGEN_2": "C001_IMG_20260119_091025.jpg", "IMAGEN_3": "C001_IMG_20260119_091033.jpg", "VISUALIZAR_IMAGEN_1": "https://drive.google.com/uc?export=view&id=1qy6_MCXF7lVuLhodw6bzBVoqp5LUpR0u", "VISUALIZAR_IMAGEN_2": "https://drive.google.com/uc?export=view&id=1lM0_WRNMbx4Yl4AfaqZn53VU8LifcfxI", "VISUALIZAR_IMAGEN_3": "https://drive.google.com/uc?export=view&id=1CkSlW6-4vptY_bAIA_e4higloAxiTinL", "FUENTE": "IEDDV" }, "geometry": { "type": "Point", "coordinates": [ -74.62537, 5.53759, 173.873999999996158 ] } },
{ "type": "Feature", "properties": { "OBJECTID": 33, "FECHA": "19/01/2026 00:00:00 (UTC)", "DEPTO": "CUNDINAMARCA", "MUNICIPIO": "PUERTO SALGAR", "VEREDA": "TRES Y MEDIO", "GASODUCTO": "CENTRO - ORIENTE", "TRAMO": "Vasconia - Puerto Salgar", "TP_DUCTO": "Troncal", "DISTRITO": "1", "DIAMETRO": "20\"", "TRM_REG": "VASCONIA - MARIQUITA", "ZONA": "1", "PK": "241+248", "PK_PAT": "241245", "ID_EVENTO": "", "TP_EVENTO": "SURCOS", "LONG_EVENT": 16.0, "PRIORIDAD": "Alto", "AMENAZA": "Medio", "ESTADO_EG": "Nuevo", "FX2": "20251015_FX2_C01_COR_VASC-PTO SALG_PK241+245 (PK239+877)_VA", "OBSERVACION_GEOTECNISTA": "", "OBSERVACIO": "Corte en talud para instalacion de valvula de derivacion L=16m, An=1m, Al=3m, evento paralelo al ducto", "PROFUNDIDA": 2.07, "COD_ID": "EG-673", "ENTREGA": "E01_R2", "HRMS": " ", "LATITUD": 5.50498, "LONGITUD": -74.625185, "ALTURA": 184.959, "NORTE": 2166535.40307, "ESTE": 4820034.3087999998, "IMAGEN_1": "C001_IMG_20260119_120341.jpg", "IMAGEN_2": "C001_IMG_20260119_120350.jpg", "IMAGEN_3": "C001_IMG_20260119_120359.jpg", "VISUALIZAR_IMAGEN_1": "https://drive.google.com/uc?export=view&id=1zgOJwpDFe7nnyceOC7RS63yslVLjrUjs", "VISUALIZAR_IMAGEN_2": "https://drive.google.com/uc?export=view&id=1BFzfSTlhomfYas4w-ERcJbFqZ44QO37-", "VISUALIZAR_IMAGEN_3": "https://drive.google.com/uc?export=view&id=1ccm7OXsROxy_FZ87tE37GHywbAfKwQqf", "FUENTE": "IEDDV" }, "geometry": { "type": "Point", "coordinates": [ -74.625185, 5.50498, 184.959000000002561 ] } },
{ "type": "Feature", "properties": { "OBJECTID": 34, "FECHA": "16/01/2026 00:00:00 (UTC)", "DEPTO": "BOYACÁ", "MUNICIPIO": "PUERTO BOYACÁ", "VEREDA": "CALDERON", "GASODUCTO": "CENTRO - ORIENTE", "TRAMO": "Vasconia - Puerto Salgar", "TP_DUCTO": "Troncal", "DISTRITO": "1", "DIAMETRO": "20\"", "TRM_REG": "VASCONIA - MARIQUITA", "ZONA": "1", "PK": "174+281", "PK_PAT": "174276", "ID_EVENTO": "", "TP_EVENTO": "OTRO", "LONG_EVENT": 6.1, "PRIORIDAD": "Alto", "AMENAZA": "Alto", "ESTADO_EG": "Antiguo", "FX2": "20240508_FX2_C01_COR_VASC-PTO SALG_PK174+276_VA", "OBSERVACION_GEOTECNISTA": "", "OBSERVACIO": "No se observa el evento geotecnico", "PROFUNDIDA": 1.4, "COD_ID": "EG-536", "ENTREGA": "E02_R2", "HRMS": " ", "LATITUD": 6.0344000000000619, "LONGITUD": -74.5631, "ALTURA": 138.448, "NORTE": 2225037.8644300001, "ESTE": 4827071.5806499999, "IMAGEN_1": "C002_IMG_20260116_094909.jpg", "IMAGEN_2": "C002_IMG_20260116_094929.jpg", "IMAGEN_3": "C002_IMG_20260116_094934.jpg", "VISUALIZAR_IMAGEN_1": "https://drive.google.com/uc?export=view&id=1JypmczR29vcLl90fDsNt0_esnokpwX_y", "VISUALIZAR_IMAGEN_2": "https://drive.google.com/uc?export=view&id=1XylSDrIrpXbHiio4WQp4XmLDIp6vGVTm", "VISUALIZAR_IMAGEN_3": "https://drive.google.com/uc?export=view&id=1B84doFZzJQ5cqZAUDEE0k5CeEv_o7oq_", "FUENTE": "IEDDV" }, "geometry": { "type": "Point", "coordinates": [ -74.5631, 6.0344, 138.448000000003958 ] } },
{ "type": "Feature", "properties": { "OBJECTID": 35, "FECHA": "23/01/2026 00:00:00 (UTC)", "DEPTO": "BOYACÁ", "MUNICIPIO": "PUERTO BOYACÁ", "VEREDA": "MARANAL", "GASODUCTO": "CENTRO - ORIENTE", "TRAMO": "Vasconia - Puerto Salgar", "TP_DUCTO": "Troncal", "DISTRITO": "1", "DIAMETRO": "20\"", "TRM_REG": "VASCONIA - MARIQUITA", "ZONA": "1", "PK": "207+688", "PK_PAT": "207686", "ID_EVENTO": "", "TP_EVENTO": "SOCAVACIÓN DE FONDO", "LONG_EVENT": 1.0, "PRIORIDAD": "Alto", "AMENAZA": "Alto", "ESTADO_EG": "Antiguo", "FX2": "20210512_FX2_C01_COR_SEB-VASC_PK207+686_VB", "OBSERVACION_GEOTECNISTA": "", "OBSERVACIO": "Socavacion de fondo, poca profundidad de tuberia, no se observa tubería expuesta", "PROFUNDIDA": 0.5, "COD_ID": "EG-104", "ENTREGA": "E02_R2", "HRMS": " ", "LATITUD": 5.7951580000000718, "LONGITUD": -74.637776, "ALTURA": 153.5399999999936, "NORTE": 2198615.8246300002, "ESTE": 4818729.9598599998, "IMAGEN_1": "C002_IMG_20260123_082009.jpg", "IMAGEN_2": "C002_IMG_20260123_082015.jpg", "IMAGEN_3": "C002_IMG_20260123_082021.jpg", "VISUALIZAR_IMAGEN_1": "https://drive.google.com/uc?export=view&id=1W9KSN4FOmanqAXOUmd-CZU-nenfabxvd", "VISUALIZAR_IMAGEN_2": "https://drive.google.com/uc?export=view&id=1UP-_nT28QqnzmcHzC-hjE4z-5oTES8nT", "VISUALIZAR_IMAGEN_3": "https://drive.google.com/uc?export=view&id=1M3rTaAs3MjTG_3xiQ5o9JXRtIG7-CUtM", "FUENTE": "IEDDV" }, "geometry": { "type": "Point", "coordinates": [ -74.637776, 5.795158, 153.539999999993597 ] } },
{ "type": "Feature", "properties": { "OBJECTID": 36, "FECHA": "23/01/2026 00:00:00 (UTC)", "DEPTO": "BOYACÁ", "MUNICIPIO": "PUERTO BOYACÁ", "VEREDA": "MARANAL", "GASODUCTO": "CENTRO - ORIENTE", "TRAMO": "Vasconia - Puerto Salgar", "TP_DUCTO": "Troncal", "DISTRITO": "1", "DIAMETRO": "20\"", "TRM_REG": "VASCONIA - MARIQUITA", "ZONA": "1", "PK": "211+434", "PK_PAT": "211443", "ID_EVENTO": "", "TP_EVENTO": "SURCOS", "LONG_EVENT": 90.0, "PRIORIDAD": "Medio", "AMENAZA": "Medio", "ESTADO_EG": "Antiguo", "FX2": "20230920_FX2_C01_COR_VASC-PTO SALG_PK211+443_VB", "OBSERVACION_GEOTECNISTA": "", "OBSERVACIO": "Obra nueva. No se observa evento", "PROFUNDIDA": 1.4, "COD_ID": "EVEN-1", "ENTREGA": "E02_R2", "HRMS": " ", "LATITUD": 5.7628500000000713, "LONGITUD": -74.63459, "ALTURA": 185.867, "NORTE": 2195043.4346799999, "ESTE": 4819072.4206600003, "IMAGEN_1": "C002_IMG_20260123_102637.jpg", "IMAGEN_2": "C002_IMG_20260123_102643.jpg", "IMAGEN_3": "C002_IMG_20260123_102648.jpg", "VISUALIZAR_IMAGEN_1": "https://drive.google.com/uc?export=view&id=1hFNLBLsotYB1J3Kaql0tbTYDWFGuIStw", "VISUALIZAR_IMAGEN_2": "https://drive.google.com/uc?export=view&id=1ADs1VLBfhbJgdbYo6MZp5uAFC-v6hg5R", "VISUALIZAR_IMAGEN_3": "https://drive.google.com/uc?export=view&id=1emAre-Ua7czfbUysLmyEvyQc36du6X2B", "FUENTE": "IEDDV" }, "geometry": { "type": "Point", "coordinates": [ -74.63459, 5.76285, 185.86699999999837 ] } },
{ "type": "Feature", "properties": { "OBJECTID": 37, "FECHA": "22/01/2026 00:00:00 (UTC)", "DEPTO": "BOYACÁ", "MUNICIPIO": "PUERTO BOYACÁ", "VEREDA": "MARANAL", "GASODUCTO": "CENTRO - ORIENTE", "TRAMO": "Vasconia - Puerto Salgar", "TP_DUCTO": "Troncal", "DISTRITO": "1", "DIAMETRO": "20\"", "TRM_REG": "VASCONIA - MARIQUITA", "ZONA": "1", "PK": "202+507", "PK_PAT": "202500", "ID_EVENTO": "", "TP_EVENTO": "CARCAVAS", "LONG_EVENT": 3.0, "PRIORIDAD": "Alto", "AMENAZA": "Medio", "ESTADO_EG": "Antiguo", "FX2": "20230921_FX2_C01_COR_VASC-PTO SALG_PK202+500_VB", "OBSERVACION_GEOTECNISTA": "", "OBSERVACIO": "Se evidencia obras nuevas en el sitio del evento, no se evidencian carcavas", "PROFUNDIDA": 1.5, "COD_ID": "EVEN-2", "ENTREGA": "E02_R2", "HRMS": " ", "LATITUD": 5.83624, "LONGITUD": -74.62775, "ALTURA": 163.015, "NORTE": 2203153.8831799999, "ESTE": 4819853.0155800004, "IMAGEN_1": "C002_IMG_20260122_081014.jpg", "IMAGEN_2": "C002_IMG_20260122_081041.jpg", "IMAGEN_3": "C002_IMG_20260122_081046.jpg", "VISUALIZAR_IMAGEN_1": "https://drive.google.com/uc?export=view&id=1YP7tsPO1ebBbQpUukHJ91EkAgSvS3QtN", "VISUALIZAR_IMAGEN_2": "https://drive.google.com/uc?export=view&id=1VCXePJuC0IhjrblUXcMJDR-V7A8dNJan", "VISUALIZAR_IMAGEN_3": "https://drive.google.com/uc?export=view&id=1O7bZWQ8ad0R26WEYM-xdfUz2iqXmt-Nq", "FUENTE": "IEDDV" }, "geometry": { "type": "Point", "coordinates": [ -74.62775, 5.83624, 163.014999999999418 ] } },
{ "type": "Feature", "properties": { "OBJECTID": 38, "FECHA": "29/01/2026 00:00:00 (UTC)", "DEPTO": "BOYACÁ", "MUNICIPIO": "PUERTO BOYACÁ", "VEREDA": "ERMITANO", "GASODUCTO": "CENTRO - ORIENTE", "TRAMO": "Sebastopol - Vasconia", "TP_DUCTO": "Troncal", "DISTRITO": "1", "DIAMETRO": "20\"", "TRM_REG": "SEBASTOPOL - VASCONIA", "ZONA": "1", "PK": "148+532", "PK_PAT": "148529", "ID_EVENTO": " ", "TP_EVENTO": "CARCAVAS", "LONG_EVENT": 3.0, "PRIORIDAD": "Alto", "AMENAZA": "Alto", "ESTADO_EG": "Antiguo", "FX2": "20210510_FX2_C01_COR_SEB-VASC_PK148+529_VB", "OBSERVACION_GEOTECNISTA": " ", "OBSERVACIO": "Carcavas en el DDV. Tubería expuesta, talud de 1,9m de altura", "PROFUNDIDA": 0.0, "COD_ID": "EG-103", "ENTREGA": "E02_R2", "HRMS": " ", "LATITUD": 6.245734, "LONGITUD": -74.532023, "ALTURA": 137.6385, "NORTE": 2248388.4040899999, "ESTE": 4830577.3232100001, "IMAGEN_1": "C002_IMG_20260129_095857.jpg", "IMAGEN_2": "C002_IMG_20260129_095906.jpg", "IMAGEN_3": "C002_IMG_20260129_095914.jpg", "VISUALIZAR_IMAGEN_1": "https://drive.google.com/uc?export=view&id=1bxnlHzeBZXBmJ2ZyD8_yVeL9YiIJhu2M", "VISUALIZAR_IMAGEN_2": "https://drive.google.com/uc?export=view&id=1TGtB710cm0MBPz1g-3Ie9x7lj6ENs_K3", "VISUALIZAR_IMAGEN_3": "https://drive.google.com/uc?export=view&id=1jekseW7IeWLq8OuQta2Hrhha__-slvZP", "FUENTE": "IEDDV" }, "geometry": { "type": "Point", "coordinates": [ -74.532023, 6.245734, 137.638500000000931 ] } },
{ "type": "Feature", "properties": { "OBJECTID": 39, "FECHA": "30/01/2026 00:00:00 (UTC)", "DEPTO": "BOYACÁ", "MUNICIPIO": "PUERTO BOYACÁ", "VEREDA": "ERMITANO", "GASODUCTO": "CENTRO - ORIENTE", "TRAMO": "Puerto Serviez", "TP_DUCTO": "Ramal", "DISTRITO": "1", "DIAMETRO": "2\"", "TRM_REG": "SEBASTOPOL - VASCONIA", "ZONA": "1", "PK": "001+176", "PK_PAT": "1136", "ID_EVENTO": " ", "TP_EVENTO": "CARCAVAS", "LONG_EVENT": 5.0, "PRIORIDAD": "Alto", "AMENAZA": "Alto", "ESTADO_EG": "Antiguo", "FX2": "20220222_FX2_C03_COR_R-PTO SERVIEZ_PK001+136_VB", "OBSERVACION_GEOTECNISTA": " ", "OBSERVACIO": "Carcavas en el DDV. Tubería expuesta", "PROFUNDIDA": 0.0, "COD_ID": "EG-375", "ENTREGA": "E02_R2", "HRMS": " ", "LATITUD": 6.2212393, "LONGITUD": -74.5582766, "ALTURA": 130.4881, "NORTE": 2245689.3047000002, "ESTE": 4827665.3061499996, "IMAGEN_1": "C002_IMG_20260130_101206.jpg", "IMAGEN_2": "C002_IMG_20260130_101158.jpg", "IMAGEN_3": "C002_IMG_20260130_101152.jpg", "VISUALIZAR_IMAGEN_1": "https://drive.google.com/uc?export=view&id=1DMgUy3I6uFdxG3dhlWq4f_KdUXbU1rUZ", "VISUALIZAR_IMAGEN_2": "https://drive.google.com/uc?export=view&id=1PJai3Qch7ZcKT1uO7agYYmYxSHFofqPc", "VISUALIZAR_IMAGEN_3": "https://drive.google.com/uc?export=view&id=1rR7m7Al6SJ1iFI6W9OKMP2temMWbFGWv", "FUENTE": "IEDDV" }, "geometry": { "type": "Point", "coordinates": [ -74.558276599999942, 6.221239300000036, 130.488100000002305 ] } },
{ "type": "Feature", "properties": { "OBJECTID": 40, "FECHA": "29/01/2026 00:00:00 (UTC)", "DEPTO": "TOLIMA", "MUNICIPIO": "HONDA", "VEREDA": "PADILLA", "GASODUCTO": "CENTRO - ORIENTE", "TRAMO": "Honda", "TP_DUCTO": "Ramal", "DISTRITO": "2", "DIAMETRO": "2\"", "TRM_REG": "MARIQUITA - GUALANDAY", "ZONA": "2", "PK": "006+316", "PK_PAT": "6316", "ID_EVENTO": "", "TP_EVENTO": "SURCOS", "LONG_EVENT": 22.0, "PRIORIDAD": "Bajo", "AMENAZA": "Medio", "ESTADO_EG": "Antiguo", "FX2": "20240126_FX2_C02_COR_R-HONDA_PK006+316_VB.xlsx", "OBSERVACION_GEOTECNISTA": "", "OBSERVACIO": "Erosión remontante en forma de cárcava por flujo pluvial. La incisión del terreno genera un riesgo de descalzamiento para elementos enterrados, evidenciando la necesidad de obras de control y disipación de energía. evento paralelo al ducto An=0.5m", "PROFUNDIDA": 0.64, "COD_ID": "EG-579", "ENTREGA": "E03_R2", "HRMS": " ", "LATITUD": 5.2024720000000571, "LONGITUD": -74.817872, "ALTURA": 0.0, "NORTE": 2133154.52881, "ESTE": 4798591.2781499997, "IMAGEN_1": "C001_IMG_20260129_101855.jpg", "IMAGEN_2": "C001_IMG_20260129_101911.jpg", "IMAGEN_3": "C001_IMG_20260129_101918.jpg", "VISUALIZAR_IMAGEN_1": "https://drive.google.com/uc?export=view&id=1xmGUM-3Nh_X4D99rIU0cnHYDdILbL0l8", "VISUALIZAR_IMAGEN_2": "https://drive.google.com/uc?export=view&id=1DXfoXOaBqbUpJxK7WpVgF6pdSliwNF1n", "VISUALIZAR_IMAGEN_3": "https://drive.google.com/uc?export=view&id=1yrJ9edrjkMAWTN1_KJxe-9NM1HEhUgJU", "FUENTE": "( )" }, "geometry": { "type": "Point", "coordinates": [ -74.817872, 5.202472, 0.0 ] } },
{ "type": "Feature", "properties": { "OBJECTID": 41, "FECHA": "30/01/2026 00:00:00 (UTC)", "DEPTO": "TOLIMA", "MUNICIPIO": "LÉRIDA", "VEREDA": "EL CENSO", "GASODUCTO": "CENTRO - ORIENTE", "TRAMO": "Ambalema", "TP_DUCTO": "Ramal", "DISTRITO": "2", "DIAMETRO": "2\"", "TRM_REG": "MARIQUITA - GUALANDAY", "ZONA": "2", "PK": "006+629", "PK_PAT": "6697", "ID_EVENTO": "", "TP_EVENTO": "SOCAVACIÓN DE FONDO", "LONG_EVENT": 0.8, "PRIORIDAD": "Alto", "AMENAZA": "Medio", "ESTADO_EG": "Nuevo", "FX2": "20250130_FX2_C02_COR_R-AMBALEMA_PK006+697_VA", "OBSERVACION_GEOTECNISTA": "", "OBSERVACIO": "Se observa tubería descubierta en el fondo del cauce seco debido a erosión por el flujo del agua, la cual retiró la capa de suelo. Esta pérdida de cobertura deja el ducto expuesto a daños mecánicos y factores ambientales, requiriendo intervención.", "PROFUNDIDA": 0.0, "COD_ID": "EG-594", "ENTREGA": "E03_R2", "HRMS": " ", "LATITUD": 4.804, "LONGITUD": -74.8744, "ALTURA": 0.0, "NORTE": 2089120.60256, "ESTE": 4792200.4228499997, "IMAGEN_1": "C001_IMG_20260130_112038.jpg", "IMAGEN_2": "C001_IMG_20260130_112047.jpg", "IMAGEN_3": "C001_IMG_20260130_112059.jpg", "VISUALIZAR_IMAGEN_1": "https://drive.google.com/uc?export=view&id=1rkD32hf3yoiB9kehQy3-yNemlw_W1boV", "VISUALIZAR_IMAGEN_2": "https://drive.google.com/uc?export=view&id=11aFQhGHW_Cey3yS4-Nrq_iJLEUUWGoqC", "VISUALIZAR_IMAGEN_3": "https://drive.google.com/uc?export=view&id=1oRohL4iBQ98Hy5B9YPIHgvjz_cmsldfG", "FUENTE": "( )" }, "geometry": { "type": "Point", "coordinates": [ -74.8744, 4.804, 0.0 ] } },
{ "type": "Feature", "properties": { "OBJECTID": 42, "FECHA": "15/02/2026 00:00:00 (UTC)", "DEPTO": "CALDAS", "MUNICIPIO": "VICTORIA", "VEREDA": "EL LLANO", "GASODUCTO": "CENTRO - ORIENTE", "TRAMO": "La Victoria", "TP_DUCTO": "Ramal", "DISTRITO": "2", "DIAMETRO": "2\"", "TRM_REG": "VASCONIA - MARIQUITA", "ZONA": "2", "PK": "001+230", "PK_PAT": "1290", "ID_EVENTO": "", "TP_EVENTO": "OTRO", "LONG_EVENT": 2.0, "PRIORIDAD": "( )", "AMENAZA": "Bajo", "ESTADO_EG": "Nuevo", "FX2": "20250620_FX2_C02_COR_R-LA VICTORIA_PK001+290_VA", "OBSERVACION_GEOTECNISTA": "", "OBSERVACIO": "Marco H inestable", "PROFUNDIDA": 0.0, "COD_ID": "EG-640", "ENTREGA": "E03_R2", "HRMS": " ", "LATITUD": 5.317412, "LONGITUD": -74.84512, "ALTURA": 0.0, "NORTE": 2145870.1178899999, "ESTE": 4795608.8727099998, "IMAGEN_1": "C001_IMG_20260215_112721.jpg", "IMAGEN_2": "C001_IMG_20260215_112732.jpg", "IMAGEN_3": "C001_IMG_20260215_112738.jpg", "VISUALIZAR_IMAGEN_1": "https://drive.google.com/uc?export=view&id=1ep3r_KNcbfeqrPKdcH-D_IVG4FgXmUZk", "VISUALIZAR_IMAGEN_2": "https://drive.google.com/uc?export=view&id=1f_0Rk_Rnu3ui-vZy8tG7kHPGFlky5dkE", "VISUALIZAR_IMAGEN_3": "https://drive.google.com/uc?export=view&id=1ETfTrB8JUPvWZO2t0xURTzR_6VJf8-hV", "FUENTE": "( )" }, "geometry": { "type": "Point", "coordinates": [ -74.84512, 5.317412, 0.0 ] } }
]
}
