{
"type": "FeatureCollection",
"name": "URL_H_ProcesosMenores",
"crs": { "type": "name", "properties": { "name": "urn:ogc:def:crs:OGC:1.3:CRS84" } },
"features": [
{ "type": "Feature", "properties": { "FECHA": "10/07/2025 00:00:00 (UTC)", "DEPTO": "CUNDINAMARCA", "MUNICIPIO": "PARATEBUENO", "VEREDA": "BRASILIA", "GASODUCTO": "CUSIANA - APIAY - USME", "TRAMO": "Paratebueno", "TP_DUCTO": "Ramal", "DISTRITO": "4", "DIAMETRO": "2\"", "TRM_REG": "CUSIANA - APIAY", "PK": "001+959", "PK_PAT": " ", "ID_EVENTO": "0", "TP_EVENTO": "OTRO", "LONG_EVENT": 0.0, "AMENAZA": "Bajo", "ESTADO_EG": " ", "FX2": " ", "OBSERVACIO": " ", "PROFUNDIDA": 0.0, "COD_ID": "PROC-1", "ENTREGA": "E24_R1", "LATITUD": 4.385091, "LONGITUD": -73.23179, "IMAGEN_1": "C001_IMG_20250710_073806.jpg", "IMAGEN_2": "C001_IMG_20250710_073836.jpg", "IMAGEN_3": "C001_IMG_20250710_073846.jpg", "VISUALIZAR_IMAGEN_1": "https://drive.google.com/uc?export=view&id=1eQ9fIkl0iizpM8qN1nTojX4L6JDO0ezi", "VISUALIZAR_IMAGEN_2": "https://drive.google.com/uc?export=view&id=1GNa4X-0bA37WhA40UgJ5m_Wgoz6TtvsP", "VISUALIZAR_IMAGEN_3": "https://drive.google.com/uc?export=view&id=1tW9iM-BAYBtZJYspyPpjfViPMv3OP8_W" }, "geometry": { "type": "Point", "coordinates": [ -73.23179, 4.385091, 278.359500000005937 ] } },
{ "type": "Feature", "properties": { "FECHA": "2/06/2025 00:00:00 (UTC)", "DEPTO": "TOLIMA", "MUNICIPIO": "VENADILLO", "VEREDA": "LA CUBANA", "GASODUCTO": "CENTRO - ORIENTE", "TRAMO": "Mariquita - Gualanday", "TP_DUCTO": "Troncal", "DISTRITO": "2", "DIAMETRO": "6\"", "TRM_REG": "MARIQUITA - GUALANDAY", "PK": "359+312", "PK_PAT": null, "ID_EVENTO": "0", "TP_EVENTO": "SOCAVACIÓN LATERAL", "LONG_EVENT": null, "AMENAZA": "( )", "ESTADO_EG": " ", "FX2": " ", "OBSERVACIO": "No se observa socavación lateral. Prof. 1.36m en el caño", "PROFUNDIDA": null, "COD_ID": "PROC-1", "ENTREGA": "E15_R1", "LATITUD": 4.6954000000000633, "LONGITUD": -74.9362, "IMAGEN_1": "C001_IMG_20250602_094725.jpg", "IMAGEN_2": "C001_IMG_20250602_094732.jpg", "IMAGEN_3": "C001_IMG_20250602_094741.jpg", "VISUALIZAR_IMAGEN_1": "https://drive.google.com/uc?export=view&id=1OMdzeoi_34qk5Ch92i0B1WQf2o6yDLk7", "VISUALIZAR_IMAGEN_2": "https://drive.google.com/uc?export=view&id=13KliQcuxq6n61HMCSFyNiGyIXaXGVXfF", "VISUALIZAR_IMAGEN_3": "https://drive.google.com/uc?export=view&id=1UNRDUx4ylo7svtIHAxsLFfumFqDScZ0C" }, "geometry": { "type": "Point", "coordinates": [ -74.9362, 4.6954, 0.0 ] } },
{ "type": "Feature", "properties": { "FECHA": "30/05/2025 00:00:00 (UTC)", "DEPTO": "TOLIMA", "MUNICIPIO": "LÉRIDA", "VEREDA": "EL CENSO", "GASODUCTO": "CENTRO - ORIENTE", "TRAMO": "Ambalema", "TP_DUCTO": "Ramal", "DISTRITO": "2", "DIAMETRO": "2\"", "TRM_REG": "MARIQUITA - GUALANDAY", "PK": "006+631", "PK_PAT": null, "ID_EVENTO": "0", "TP_EVENTO": "SOCAVACIÓN DE FONDO", "LONG_EVENT": null, "AMENAZA": "( )", "ESTADO_EG": " ", "FX2": " ", "OBSERVACIO": "Tubería expuesta en cruce subfluvial", "PROFUNDIDA": null, "COD_ID": "PROC-2", "ENTREGA": "E15_R1", "LATITUD": 4.804, "LONGITUD": -74.8744, "IMAGEN_1": "C001_IMG_20250530_083945.jpg", "IMAGEN_2": "C001_IMG_20250530_083950.jpg", "IMAGEN_3": "C001_IMG_20250530_083958.jpg", "VISUALIZAR_IMAGEN_1": "https://drive.google.com/uc?export=view&id=189D9CTzNxb0sBOs2b0xVCdlTBOrbc83Z", "VISUALIZAR_IMAGEN_2": "https://drive.google.com/uc?export=view&id=18-MrARjIdbJQkEJk75UoAcBvsKCFpy6o", "VISUALIZAR_IMAGEN_3": "https://drive.google.com/uc?export=view&id=18ZWl-zG0kLoLO1QC2B2TW8BSEWZLMew6" }, "geometry": { "type": "Point", "coordinates": [ -74.8744, 4.804, 0.0 ] } },
{ "type": "Feature", "properties": { "FECHA": "31/05/2025 00:00:00 (UTC)", "DEPTO": "TOLIMA", "MUNICIPIO": "AMBALEMA", "VEREDA": "TAJO MEDIO", "GASODUCTO": "CENTRO - ORIENTE", "TRAMO": "Ambalema", "TP_DUCTO": "Ramal", "DISTRITO": "2", "DIAMETRO": "2\"", "TRM_REG": "MARIQUITA - GUALANDAY", "PK": "013+272", "PK_PAT": null, "ID_EVENTO": "0", "TP_EVENTO": "OTRO", "LONG_EVENT": null, "AMENAZA": "( )", "ESTADO_EG": " ", "FX2": " ", "OBSERVACIO": "Histórico de excavación sobre el DDV. actualmente (2025) no se observa afectación a la integridad del DDV. Prof. 1,7m", "PROFUNDIDA": null, "COD_ID": "PROC-3", "ENTREGA": "E15_R1", "LATITUD": 4.794755000000066, "LONGITUD": -74.81911, "IMAGEN_1": "C001_IMG_20250531_104259.jpg", "IMAGEN_2": "C001_IMG_20250531_104303.jpg", "IMAGEN_3": "C001_IMG_20250531_104316.jpg", "VISUALIZAR_IMAGEN_1": "https://drive.google.com/uc?export=view&id=1wsOxws1SGX1Zk--Drd6_z0pOTykBwjX6", "VISUALIZAR_IMAGEN_2": "https://drive.google.com/uc?export=view&id=1NPXBY621DeeetFa2u3P-jvfumkgXO-Hu", "VISUALIZAR_IMAGEN_3": "https://drive.google.com/uc?export=view&id=1PRqTxCR-95NkLaaMMJCEr9DauC5e5JOm" }, "geometry": { "type": "Point", "coordinates": [ -74.81911, 4.794755, 0.0 ] } },
{ "type": "Feature", "properties": { "FECHA": "1/06/2025 00:00:00 (UTC)", "DEPTO": "TOLIMA", "MUNICIPIO": "AMBALEMA", "VEREDA": "TAJO MEDIO", "GASODUCTO": "CENTRO - ORIENTE", "TRAMO": "Ambalema", "TP_DUCTO": "Ramal", "DISTRITO": "2", "DIAMETRO": "2\"", "TRM_REG": "MARIQUITA - GUALANDAY", "PK": "015+696", "PK_PAT": null, "ID_EVENTO": "0", "TP_EVENTO": "OTRO", "LONG_EVENT": null, "AMENAZA": "( )", "ESTADO_EG": " ", "FX2": " ", "OBSERVACIO": "No hay excavación. Prof. 1,48m", "PROFUNDIDA": null, "COD_ID": "PROC-4", "ENTREGA": "E15_R1", "LATITUD": 4.780315, "LONGITUD": -74.804485, "IMAGEN_1": "C001_IMG_20250601_092130.jpg", "IMAGEN_2": "C001_IMG_20250601_092143.jpg", "IMAGEN_3": "C001_IMG_20250601_092152.jpg", "VISUALIZAR_IMAGEN_1": "https://drive.google.com/uc?export=view&id=1cTUuWakIqfxsK39ILLaClmNgWkuNS5tI", "VISUALIZAR_IMAGEN_2": "https://drive.google.com/uc?export=view&id=1uAHGUPwmndiwJshvxeViQXqRuDGCix4N", "VISUALIZAR_IMAGEN_3": "https://drive.google.com/uc?export=view&id=1H45gLuLD9Zsm0Hvt2DZud7nXTlzZ65Hz" }, "geometry": { "type": "Point", "coordinates": [ -74.804485, 4.780315, 0.0 ] } },
{ "type": "Feature", "properties": { "FECHA": "5/06/2025 00:00:00 (UTC)", "DEPTO": "VALLE DEL CAUCA", "MUNICIPIO": "PALMIRA", "VEREDA": "GUAYABAL", "GASODUCTO": "MARIQUITA - CALI", "TRAMO": "Pradera", "TP_DUCTO": "Ramal", "DISTRITO": "8", "DIAMETRO": "6\"", "TRM_REG": "ARMENIA - CALI", "PK": "027+688", "PK_PAT": null, "ID_EVENTO": "0", "TP_EVENTO": "SOCAVACIÓN LATERAL", "LONG_EVENT": null, "AMENAZA": "Medio", "ESTADO_EG": " ", "FX2": " ", "OBSERVACIO": "Socavacion lateral", "PROFUNDIDA": null, "COD_ID": "PROC-1", "ENTREGA": "E17_R1_P2", "LATITUD": 3.4887222220000353, "LONGITUD": -76.28988888899994, "IMAGEN_1": "C002_IMG_20250605_100338.jpg", "IMAGEN_2": "C002_IMG_20250605_100343.jpg", "IMAGEN_3": "C002_IMG_20250605_100350.jpg", "VISUALIZAR_IMAGEN_1": "https://drive.google.com/uc?export=view&id=14PAS1_Qb9WeEGemz9NP0dIuEwl3j1i2W", "VISUALIZAR_IMAGEN_2": "https://drive.google.com/uc?export=view&id=1vI2MgjrIraEU-C9i657hNgaiL-O73i7g", "VISUALIZAR_IMAGEN_3": "https://drive.google.com/uc?export=view&id=1RwFBvhL2zSq1mM5fBpP1_QmO9O-H75Z7" }, "geometry": { "type": "Point", "coordinates": [ -76.28988888899994, 3.488722222000035, 0.0 ] } },
{ "type": "Feature", "properties": { "FECHA": "28/05/2025 00:00:00 (UTC)", "DEPTO": "VALLE DEL CAUCA", "MUNICIPIO": "GINEBRA", "VEREDA": "ZABALETAS", "GASODUCTO": "MARIQUITA - CALI", "TRAMO": "Ginebra", "TP_DUCTO": "Ramal", "DISTRITO": "8", "DIAMETRO": "2\"", "TRM_REG": "ARMENIA - CALI", "PK": "005+398", "PK_PAT": null, "ID_EVENTO": "0", "TP_EVENTO": "PROPAGACION LATERAL", "LONG_EVENT": null, "AMENAZA": "Medio", "ESTADO_EG": " ", "FX2": " ", "OBSERVACIO": "Socavación debajo de los sacos", "PROFUNDIDA": null, "COD_ID": "PROC-2", "ENTREGA": "E17_R1_P1", "LATITUD": 3.702000000000055, "LONGITUD": -76.295139, "IMAGEN_1": "C002_IMG_20250528_080643.jpg", "IMAGEN_2": "C002_IMG_20250528_080649.jpg", "IMAGEN_3": "C002_IMG_20250528_080655.jpg", "VISUALIZAR_IMAGEN_1": "https://drive.google.com/uc?export=view&id=1pJjZrtUwK22QzsCcB-iKsuCqTH-sQGSs", "VISUALIZAR_IMAGEN_2": "https://drive.google.com/uc?export=view&id=1CzbChzdvZoj4vnBbyMCvaJtalLxJSD3F", "VISUALIZAR_IMAGEN_3": "https://drive.google.com/uc?export=view&id=11YRsJiGFXLOlIGn45dZlCpw_AEaQAxIO" }, "geometry": { "type": "Point", "coordinates": [ -76.295139, 3.702, 0.0 ] } },
{ "type": "Feature", "properties": { "FECHA": "31/05/2025 00:00:00 (UTC)", "DEPTO": "VALLE DEL CAUCA", "MUNICIPIO": "EL CERRITO", "VEREDA": "SAN ANTONIO", "GASODUCTO": "MARIQUITA - CALI", "TRAMO": "Pradera", "TP_DUCTO": "Ramal", "DISTRITO": "8", "DIAMETRO": "6\"", "TRM_REG": "ARMENIA - CALI", "PK": "000+466", "PK_PAT": null, "ID_EVENTO": "0", "TP_EVENTO": "SOCAVACIÓN LATERAL", "LONG_EVENT": null, "AMENAZA": "Alto", "ESTADO_EG": " ", "FX2": " ", "OBSERVACIO": "Socavación sobre los sacos", "PROFUNDIDA": null, "COD_ID": "PROC-3", "ENTREGA": "E17_R1_P1", "LATITUD": 3.6870555560000753, "LONGITUD": -76.332611110999949, "IMAGEN_1": "C002_IMG_20250531_080327.jpg", "IMAGEN_2": "C002_IMG_20250531_080333.jpg", "IMAGEN_3": "C002_IMG_20250531_080340.jpg", "VISUALIZAR_IMAGEN_1": "https://drive.google.com/uc?export=view&id=1aFYrvKEYo3i3wEb4b-C7wvyzD0CyTK_s", "VISUALIZAR_IMAGEN_2": "https://drive.google.com/uc?export=view&id=1ZoGqW-ZQz-xKVBVLKtzpLDpDf17JVRri", "VISUALIZAR_IMAGEN_3": "https://drive.google.com/uc?export=view&id=1LN0G1TRovmleiyaIG4QCSqStJXl3Su74" }, "geometry": { "type": "Point", "coordinates": [ -76.332611110999949, 3.687055556000075, 0.0 ] } },
{ "type": "Feature", "properties": { "FECHA": "4/06/2025 00:00:00 (UTC)", "DEPTO": "VALLE DEL CAUCA", "MUNICIPIO": "PALMIRA", "VEREDA": "PALMASECA", "GASODUCTO": "MARIQUITA - CALI", "TRAMO": "Pradera", "TP_DUCTO": "Ramal", "DISTRITO": "8", "DIAMETRO": "6\"", "TRM_REG": "ARMENIA - CALI", "PK": "021+217", "PK_PAT": null, "ID_EVENTO": "0", "TP_EVENTO": "OTRO", "LONG_EVENT": null, "AMENAZA": "Medio", "ESTADO_EG": " ", "FX2": " ", "OBSERVACIO": "Se evidente canal de riego, prof de tubería a 1,80 mts", "PROFUNDIDA": null, "COD_ID": "PROC-4", "ENTREGA": "E17_R1_P1", "LATITUD": 3.515833, "LONGITUD": -76.333222, "IMAGEN_1": "C002_IMG_20250604_084148.jpg", "IMAGEN_2": "C002_IMG_20250604_084152.jpg", "IMAGEN_3": "C002_IMG_20250604_084156.jpg", "VISUALIZAR_IMAGEN_1": "https://drive.google.com/uc?export=view&id=1T_320JQa4EMh9MBTodCwPoncychHUQlA", "VISUALIZAR_IMAGEN_2": "https://drive.google.com/uc?export=view&id=1khZwn_9Rp-QUflm_x-coc4qlvJoSDx_1", "VISUALIZAR_IMAGEN_3": "https://drive.google.com/uc?export=view&id=1kD0upVhtFRDuUYXMH_vQZ03xukc5Xh6T" }, "geometry": { "type": "Point", "coordinates": [ -76.333222, 3.515833, 0.0 ] } },
{ "type": "Feature", "properties": { "FECHA": "2/06/2025 00:00:00 (UTC)", "DEPTO": "TOLIMA", "MUNICIPIO": "GUAMO", "VEREDA": "PRINGAMOSAL CENTRO", "GASODUCTO": "CENTRO - ORIENTE", "TRAMO": "Gualanday - Guasimal", "TP_DUCTO": "Troncal", "DISTRITO": "2", "DIAMETRO": "12\"", "TRM_REG": "GUALANDAY - NEIVA", "PK": "446+388", "PK_PAT": null, "ID_EVENTO": "0", "TP_EVENTO": "SOCAVACIÓN LATERAL", "LONG_EVENT": null, "AMENAZA": "Bajo", "ESTADO_EG": " ", "FX2": " ", "OBSERVACIO": "Se cambio respecto a linea base de tipo de evento otro a socavación lateral. Se observa socavación y deterioro parcial del gavión margen derecha", "PROFUNDIDA": null, "COD_ID": "PROC-1", "ENTREGA": "E18_R1", "LATITUD": 4.0271030000000678, "LONGITUD": -74.98129, "IMAGEN_1": "C004_IMG_20250602_080852.jpg", "IMAGEN_2": "C004_IMG_20250602_080924.jpg", "IMAGEN_3": "C004_IMG_20250602_080932.jpg", "VISUALIZAR_IMAGEN_1": "https://drive.google.com/uc?export=view&id=1WAdgM7eyBu5QlRDhw3t5CsG_L4QpfEbB", "VISUALIZAR_IMAGEN_2": "https://drive.google.com/uc?export=view&id=1i7wDLSsDvCLVJzVuFwfkJkTkL9nrhECL", "VISUALIZAR_IMAGEN_3": "https://drive.google.com/uc?export=view&id=1zVUebIyfruWjvqqIGMuZq955e4csRmiZ" }, "geometry": { "type": "Point", "coordinates": [ -74.98129, 4.027103, 0.0 ] } },
{ "type": "Feature", "properties": { "FECHA": "9/06/2025 00:00:00 (UTC)", "DEPTO": "TOLIMA", "MUNICIPIO": "SAN LUIS", "VEREDA": "LA CAÑADA", "GASODUCTO": "CENTRO - ORIENTE", "TRAMO": "Montañuelo - Gualanday", "TP_DUCTO": "Ramal Remitente", "DISTRITO": "2", "DIAMETRO": "6\"", "TRM_REG": "MONTANUELO - GUALANDAY", "PK": "000+673", "PK_PAT": null, "ID_EVENTO": "0", "TP_EVENTO": "SOCAVACIÓN LATERAL", "LONG_EVENT": null, "AMENAZA": "Medio", "ESTADO_EG": " ", "FX2": " ", "OBSERVACIO": "Se cambia respecto a linea base de tipo de evento otro a socavación lateral. Se presenta socavación lateral afectando los gaviones y se encuentran destruidos", "PROFUNDIDA": null, "COD_ID": "PROC-1", "ENTREGA": "E19_R1", "LATITUD": 4.059222, "LONGITUD": -75.154049, "IMAGEN_1": "C003_IMG_20250609_090922.jpg", "IMAGEN_2": "C003_IMG_20250609_090925.jpg", "IMAGEN_3": "C003_IMG_20250609_090934.jpg", "VISUALIZAR_IMAGEN_1": "https://drive.google.com/uc?export=view&id=170CpJH9oRtjYnKihtaEE8LpWexsoO47l", "VISUALIZAR_IMAGEN_2": "https://drive.google.com/uc?export=view&id=1NzTBkRiMt3lux90C49ozrTR1ev6af_3B", "VISUALIZAR_IMAGEN_3": "https://drive.google.com/uc?export=view&id=1MIXaJo-gskteNqBCrwT9QdaPQbjxliVJ" }, "geometry": { "type": "Point", "coordinates": [ -75.154049, 4.059222, 0.0 ] } },
{ "type": "Feature", "properties": { "FECHA": "10/06/2025 00:00:00 (UTC)", "DEPTO": "TOLIMA", "MUNICIPIO": "SAN LUIS", "VEREDA": "CAMPOALEGRE", "GASODUCTO": "CENTRO - ORIENTE", "TRAMO": "Montañuelo - Gualanday", "TP_DUCTO": "Ramal Remitente", "DISTRITO": "2", "DIAMETRO": "6\"", "TRM_REG": "MONTANUELO - GUALANDAY", "PK": "005+827", "PK_PAT": null, "ID_EVENTO": "0", "TP_EVENTO": "OTRO", "LONG_EVENT": null, "AMENAZA": "Bajo", "ESTADO_EG": " ", "FX2": " ", "OBSERVACIO": "No se evidencia proceso", "PROFUNDIDA": null, "COD_ID": "PROC-2", "ENTREGA": "E19_R1", "LATITUD": 4.0754870000000665, "LONGITUD": -75.121899, "IMAGEN_1": "C003_IMG_20250610_083113.jpg", "IMAGEN_2": "C003_IMG_20250610_083122.jpg", "IMAGEN_3": "C003_IMG_20250610_083127.jpg", "VISUALIZAR_IMAGEN_1": "https://drive.google.com/uc?export=view&id=1ko_t4C5sx9Lv5TRbudrlihvBH6VWwS5-", "VISUALIZAR_IMAGEN_2": "https://drive.google.com/uc?export=view&id=12EE8qGwJT5O2TZyctE5cVtK_UBt8rqGX", "VISUALIZAR_IMAGEN_3": "https://drive.google.com/uc?export=view&id=1c38w5YZD2asyQ0nzE4ZcL5vwkM7_9BUG" }, "geometry": { "type": "Point", "coordinates": [ -75.121899, 4.075487, 0.0 ] } },
{ "type": "Feature", "properties": { "FECHA": "10/06/2025 00:00:00 (UTC)", "DEPTO": "TOLIMA", "MUNICIPIO": "SAN LUIS", "VEREDA": "CAMPOALEGRE", "GASODUCTO": "CENTRO - ORIENTE", "TRAMO": "Montañuelo - Gualanday", "TP_DUCTO": "Ramal Remitente", "DISTRITO": "2", "DIAMETRO": "6\"", "TRM_REG": "MONTANUELO - GUALANDAY", "PK": "006+224", "PK_PAT": null, "ID_EVENTO": "0", "TP_EVENTO": "OTRO", "LONG_EVENT": null, "AMENAZA": "Medio", "ESTADO_EG": " ", "FX2": " ", "OBSERVACIO": "No se evidencia proceso", "PROFUNDIDA": null, "COD_ID": "PROC-3", "ENTREGA": "E19_R1", "LATITUD": 4.078894, "LONGITUD": -75.120865, "IMAGEN_1": "C003_IMG_20250610_085249.jpg", "IMAGEN_2": "C003_IMG_20250610_085254.jpg", "IMAGEN_3": "C003_IMG_20250610_085258.jpg", "VISUALIZAR_IMAGEN_1": "https://drive.google.com/uc?export=view&id=1DO8SJs8-aaAq8jQcvJrgSApCjwYYUIdS", "VISUALIZAR_IMAGEN_2": "https://drive.google.com/uc?export=view&id=1XClwPozGVuVAzdZwwPLjtXZDcZ6WKj5b", "VISUALIZAR_IMAGEN_3": "https://drive.google.com/uc?export=view&id=1MgsM0KDuVDB-K-EXrljqiQ4vvaH8UN7T" }, "geometry": { "type": "Point", "coordinates": [ -75.120865, 4.078894, 0.0 ] } },
{ "type": "Feature", "properties": { "FECHA": "5/06/2025 00:00:00 (UTC)", "DEPTO": "TOLIMA", "MUNICIPIO": "GUAMO", "VEREDA": "CERRO GORDO", "GASODUCTO": "CENTRO - ORIENTE", "TRAMO": "Montañuelo - Gualanday", "TP_DUCTO": "Ramal Remitente", "DISTRITO": "2", "DIAMETRO": "6\"", "TRM_REG": "MONTANUELO - GUALANDAY", "PK": "020+124", "PK_PAT": null, "ID_EVENTO": "0", "TP_EVENTO": "OTRO", "LONG_EVENT": null, "AMENAZA": "Bajo", "ESTADO_EG": " ", "FX2": " ", "OBSERVACIO": "No se evidencia proceso", "PROFUNDIDA": null, "COD_ID": "PROC-4", "ENTREGA": "E19_R1", "LATITUD": 4.1710410000000593, "LONGITUD": -75.043763, "IMAGEN_1": "C003_IMG_20250605_092446.jpg", "IMAGEN_2": "C003_IMG_20250605_092455.jpg", "IMAGEN_3": "C003_IMG_20250605_092500.jpg", "VISUALIZAR_IMAGEN_1": "https://drive.google.com/uc?export=view&id=18qFCvozWOd3p5JkemodaMfnfvNH3_FT4", "VISUALIZAR_IMAGEN_2": "https://drive.google.com/uc?export=view&id=1ZxkCQkP9riBCoiU2pTf-MykH2HUHcGYH", "VISUALIZAR_IMAGEN_3": "https://drive.google.com/uc?export=view&id=1pbqVKUPttgk24kZ2h1fynoSwMvAOh8yw" }, "geometry": { "type": "Point", "coordinates": [ -75.043763, 4.171041, 0.0 ] } },
{ "type": "Feature", "properties": { "FECHA": "6/06/2025 00:00:00 (UTC)", "DEPTO": "TOLIMA", "MUNICIPIO": "GUAMO", "VEREDA": "CERRO GORDO", "GASODUCTO": "CENTRO - ORIENTE", "TRAMO": "Montañuelo - Gualanday", "TP_DUCTO": "Ramal Remitente", "DISTRITO": "2", "DIAMETRO": "6\"", "TRM_REG": "MONTANUELO - GUALANDAY", "PK": "017+668", "PK_PAT": null, "ID_EVENTO": "0", "TP_EVENTO": "SURCOS", "LONG_EVENT": null, "AMENAZA": "( )", "ESTADO_EG": " ", "FX2": " ", "OBSERVACIO": "Surcos generados por agua lluvia", "PROFUNDIDA": null, "COD_ID": "PROC-5", "ENTREGA": "E19_R1", "LATITUD": 4.154708, "LONGITUD": -75.0575249, "IMAGEN_1": "C003_IMG_20250606_085915.jpg", "IMAGEN_2": "C003_IMG_20250606_085922.jpg", "IMAGEN_3": "C003_IMG_20250606_085927.jpg", "VISUALIZAR_IMAGEN_1": "https://drive.google.com/uc?export=view&id=1Fnjwu5-8AwJmcc_d9rRSMxiwvNSFolnF", "VISUALIZAR_IMAGEN_2": "https://drive.google.com/uc?export=view&id=1LwXELcrMbOqQSq9doSxK3RxJWas1LltW", "VISUALIZAR_IMAGEN_3": "https://drive.google.com/uc?export=view&id=1iKpmzQf5qRnxzHkzY8889N8orYXuRk_P" }, "geometry": { "type": "Point", "coordinates": [ -75.057524899999976, 4.154708, 0.0 ] } },
{ "type": "Feature", "properties": { "FECHA": "5/06/2025 00:00:00 (UTC)", "DEPTO": "TOLIMA", "MUNICIPIO": "SAN LUIS", "VEREDA": "MALNOMBRE", "GASODUCTO": "CENTRO - ORIENTE", "TRAMO": "Gualanday - Guasimal", "TP_DUCTO": "Troncal", "DISTRITO": "2", "DIAMETRO": "12\"", "TRM_REG": "GUALANDAY - NEIVA", "PK": "460+357", "PK_PAT": null, "ID_EVENTO": "0", "TP_EVENTO": "OTRO", "LONG_EVENT": null, "AMENAZA": "( )", "ESTADO_EG": " ", "FX2": " ", "OBSERVACIO": "No se evidencia evento menor", "PROFUNDIDA": null, "COD_ID": "P_MEN", "ENTREGA": "E20_R1", "LATITUD": 3.9329111100000205, "LONGITUD": -75.039486109999984, "IMAGEN_1": "C004_IMG_20250605_111030.jpg", "IMAGEN_2": "C004_IMG_20250605_111101.jpg", "IMAGEN_3": "C004_IMG_20250605_111106.jpg", "VISUALIZAR_IMAGEN_1": "https://drive.google.com/uc?export=view&id=12ek4z_okhtspcCSq_fzoNeV8zJBGSq7j", "VISUALIZAR_IMAGEN_2": "https://drive.google.com/uc?export=view&id=1GoQdi99lEvEE7iCF9gACcGWkl36kbHq9", "VISUALIZAR_IMAGEN_3": "https://drive.google.com/uc?export=view&id=1pfCzzuGNi8H5p8el4hSD6-cJeXxEfQ0E" }, "geometry": { "type": "Point", "coordinates": [ -75.039486109999984, 3.93291111000002, 0.0 ] } },
{ "type": "Feature", "properties": { "FECHA": "1/07/2025 00:00:00 (UTC)", "DEPTO": "HUILA", "MUNICIPIO": "AIPE", "VEREDA": "DINDAL", "GASODUCTO": "CENTRO - ORIENTE", "TRAMO": "Guasimal - Dina", "TP_DUCTO": "Troncal", "DISTRITO": "2", "DIAMETRO": "12\"", "TRM_REG": "GUALANDAY - NEIVA", "PK": "560+653", "PK_PAT": null, "ID_EVENTO": "0", "TP_EVENTO": "OTRO", "LONG_EVENT": null, "AMENAZA": "Alto", "ESTADO_EG": " ", "FX2": " ", "OBSERVACIO": "Deslizaminto traslaciinal pequeño", "PROFUNDIDA": null, "COD_ID": "PROC-1", "ENTREGA": "E21_R1", "LATITUD": 3.1095970000000648, "LONGITUD": -75.285704, "IMAGEN_1": "C002_IMG_20250701_070839.jpg", "IMAGEN_2": "C002_IMG_20250701_070846.jpg", "IMAGEN_3": "C002_IMG_20250701_070850.jpg", "VISUALIZAR_IMAGEN_1": "https://drive.google.com/uc?export=view&id=1ECJWegBJzloXLSPKSZfqPH_Fv36px7sV", "VISUALIZAR_IMAGEN_2": "https://drive.google.com/uc?export=view&id=1-IxzgWGK4f3W6EGmuwnHPAjjFsWxfSqX", "VISUALIZAR_IMAGEN_3": "https://drive.google.com/uc?export=view&id=16NmO6nfG5UGgAyA12SBG2RVubeHGWSDv" }, "geometry": { "type": "Point", "coordinates": [ -75.285704, 3.109597, 0.0 ] } },
{ "type": "Feature", "properties": { "FECHA": "11/06/2025 00:00:00 (UTC)", "DEPTO": "TOLIMA", "MUNICIPIO": "NATAGAIMA", "VEREDA": "YACO", "GASODUCTO": "CENTRO - ORIENTE", "TRAMO": "Guasimal - Dina", "TP_DUCTO": "Troncal", "DISTRITO": "2", "DIAMETRO": "12\"", "TRM_REG": "GUALANDAY - NEIVA", "PK": "513+912", "PK_PAT": null, "ID_EVENTO": "0", "TP_EVENTO": "OTRO", "LONG_EVENT": null, "AMENAZA": "Alto", "ESTADO_EG": " ", "FX2": " ", "OBSERVACIO": "Prof 0.67m, No se evidencia", "PROFUNDIDA": null, "COD_ID": "PROC-2", "ENTREGA": "E21_R1", "LATITUD": 3.4795120000000566, "LONGITUD": -75.14897, "IMAGEN_1": "C003_IMG_20250611_085244.jpg", "IMAGEN_2": "C003_IMG_20250611_085253.jpg", "IMAGEN_3": "C003_IMG_20250611_085257.jpg", "VISUALIZAR_IMAGEN_1": "https://drive.google.com/uc?export=view&id=1bamwoUcvyGDcHAEni-21Dqeyoe9OKhgY", "VISUALIZAR_IMAGEN_2": "https://drive.google.com/uc?export=view&id=1KxrBnaDX2hY2ri5Hp71bN7IvhnFvLUaM", "VISUALIZAR_IMAGEN_3": "https://drive.google.com/uc?export=view&id=1JbXQ8jQT_RHAVv3sftVLISCHd75Qu9H0" }, "geometry": { "type": "Point", "coordinates": [ -75.14897, 3.479512, 0.0 ] } },
{ "type": "Feature", "properties": { "FECHA": "12/06/2025 00:00:00 (UTC)", "DEPTO": "TOLIMA", "MUNICIPIO": "NATAGAIMA", "VEREDA": "LA PALMITA", "GASODUCTO": "CENTRO - ORIENTE", "TRAMO": "Guasimal - Dina", "TP_DUCTO": "Troncal", "DISTRITO": "2", "DIAMETRO": "12\"", "TRM_REG": "GUALANDAY - NEIVA", "PK": "522+973", "PK_PAT": null, "ID_EVENTO": "0", "TP_EVENTO": "OTRO", "LONG_EVENT": null, "AMENAZA": "Medio", "ESTADO_EG": " ", "FX2": " ", "OBSERVACIO": "Socavacion de fondo", "PROFUNDIDA": null, "COD_ID": "PROC-3", "ENTREGA": "E21_R1", "LATITUD": 3.414998, "LONGITUD": -75.193202, "IMAGEN_1": "C003_IMG_20250612_092342.jpg", "IMAGEN_2": "C003_IMG_20250612_092347.jpg", "IMAGEN_3": "C003_IMG_20250612_092354.jpg", "VISUALIZAR_IMAGEN_1": "https://drive.google.com/uc?export=view&id=1AhYfjv2HOLYhOcHN-lFw0HoyCaDtPLd8", "VISUALIZAR_IMAGEN_2": "https://drive.google.com/uc?export=view&id=11WMDWon0IHmXb7y-KuBLms2kZINU3uDZ", "VISUALIZAR_IMAGEN_3": "https://drive.google.com/uc?export=view&id=1cwU9-h_oIcVsF0V0RLjr0x_YeKkS0quE" }, "geometry": { "type": "Point", "coordinates": [ -75.193202, 3.414998, 0.0 ] } },
{ "type": "Feature", "properties": { "FECHA": "13/06/2025 00:00:00 (UTC)", "DEPTO": "HUILA", "MUNICIPIO": "AIPE", "VEREDA": "PATA", "GASODUCTO": "CENTRO - ORIENTE", "TRAMO": "Guasimal - Dina", "TP_DUCTO": "Troncal", "DISTRITO": "2", "DIAMETRO": "12\"", "TRM_REG": "GUALANDAY - NEIVA", "PK": "530+247", "PK_PAT": null, "ID_EVENTO": "0", "TP_EVENTO": "OTRO", "LONG_EVENT": null, "AMENAZA": "Medio", "ESTADO_EG": " ", "FX2": " ", "OBSERVACIO": "No se evidencia", "PROFUNDIDA": null, "COD_ID": "PROC-4", "ENTREGA": "E21_R1", "LATITUD": 3.3571200000000658, "LONGITUD": -75.214947, "IMAGEN_1": "C003_IMG_20250613_093519.jpg", "IMAGEN_2": "C003_IMG_20250613_093525.jpg", "IMAGEN_3": "C003_IMG_20250613_093530.jpg", "VISUALIZAR_IMAGEN_1": "https://drive.google.com/uc?export=view&id=1oDCjysTrBg6KkfuzVQ2PFkPyr0NrYOWu", "VISUALIZAR_IMAGEN_2": "https://drive.google.com/uc?export=view&id=1oFTnxqNOrZPj9m_0Ic4k92Yh6N4uX5W_", "VISUALIZAR_IMAGEN_3": "https://drive.google.com/uc?export=view&id=1qkg3IiOlcp1ZgdDftQdzFFSmQw82DY6S" }, "geometry": { "type": "Point", "coordinates": [ -75.214947, 3.35712, 0.0 ] } },
{ "type": "Feature", "properties": { "FECHA": "13/06/2025 00:00:00 (UTC)", "DEPTO": "HUILA", "MUNICIPIO": "AIPE", "VEREDA": "PATA", "GASODUCTO": "CENTRO - ORIENTE", "TRAMO": "Guasimal - Dina", "TP_DUCTO": "Troncal", "DISTRITO": "2", "DIAMETRO": "12\"", "TRM_REG": "GUALANDAY - NEIVA", "PK": "530+914", "PK_PAT": null, "ID_EVENTO": "0", "TP_EVENTO": "OTRO", "LONG_EVENT": null, "AMENAZA": "Medio", "ESTADO_EG": " ", "FX2": " ", "OBSERVACIO": "No se evidencia", "PROFUNDIDA": null, "COD_ID": "PROC-5", "ENTREGA": "E21_R1", "LATITUD": 3.354095, "LONGITUD": -75.21958, "IMAGEN_1": "C003_IMG_20250613_095136.jpg", "IMAGEN_2": "C003_IMG_20250613_095144.jpg", "IMAGEN_3": "C003_IMG_20250613_095150.jpg", "VISUALIZAR_IMAGEN_1": "https://drive.google.com/uc?export=view&id=1qXjOWbNNaFX6c0cilpQLDOa6mpbfTeLW", "VISUALIZAR_IMAGEN_2": "https://drive.google.com/uc?export=view&id=1wxwU4oQLTf7Q5C_vVtdShxaN2E3UB0pE", "VISUALIZAR_IMAGEN_3": "https://drive.google.com/uc?export=view&id=1X2xWlhg2iRLoG5QJ6uniaWBHTn54Y29I" }, "geometry": { "type": "Point", "coordinates": [ -75.21958, 3.354095, 0.0 ] } },
{ "type": "Feature", "properties": { "FECHA": "12/06/2025 00:00:00 (UTC)", "DEPTO": "TOLIMA", "MUNICIPIO": "NATAGAIMA", "VEREDA": "LA MOLANA", "GASODUCTO": "CENTRO - ORIENTE", "TRAMO": "Guasimal - Dina", "TP_DUCTO": "Troncal", "DISTRITO": "2", "DIAMETRO": "12\"", "TRM_REG": "GUALANDAY - NEIVA", "PK": "509+447", "PK_PAT": null, "ID_EVENTO": "0", "TP_EVENTO": "SOCAVACIÓN LATERAL", "LONG_EVENT": null, "AMENAZA": "Bajo", "ESTADO_EG": " ", "FX2": " ", "OBSERVACIO": "Socavacion en margen izquierdo", "PROFUNDIDA": null, "COD_ID": "PROC-6", "ENTREGA": "E21_R1", "LATITUD": 3.513114, "LONGITUD": -75.128081, "IMAGEN_1": "C002_IMG_20250612_090549.jpg", "IMAGEN_2": "C002_IMG_20250612_090554.jpg", "IMAGEN_3": "C002_IMG_20250612_090559.jpg", "VISUALIZAR_IMAGEN_1": "https://drive.google.com/uc?export=view&id=1gnKTPqu8-dtrHsosIXjRlmBNoerKy8A5", "VISUALIZAR_IMAGEN_2": "https://drive.google.com/uc?export=view&id=1mev1UgeP_mSSAH-JZnwxUb1cnc8ZTFSU", "VISUALIZAR_IMAGEN_3": "https://drive.google.com/uc?export=view&id=157HP_YBEFOpt8bxFaPS4jUs3jyCGH3pR" }, "geometry": { "type": "Point", "coordinates": [ -75.128081, 3.513114, 0.0 ] } },
{ "type": "Feature", "properties": { "FECHA": "12/06/2025 00:00:00 (UTC)", "DEPTO": "TOLIMA", "MUNICIPIO": "NATAGAIMA", "VEREDA": "VELU", "GASODUCTO": "CENTRO - ORIENTE", "TRAMO": "Guasimal - Dina", "TP_DUCTO": "Troncal", "DISTRITO": "2", "DIAMETRO": "12\"", "TRM_REG": "GUALANDAY - NEIVA", "PK": "508+326", "PK_PAT": null, "ID_EVENTO": "0", "TP_EVENTO": "CARCAVAS", "LONG_EVENT": null, "AMENAZA": "( )", "ESTADO_EG": " ", "FX2": " ", "OBSERVACIO": "Tubería de cenit expuesta", "PROFUNDIDA": null, "COD_ID": "PROC-7", "ENTREGA": "E21_R1", "LATITUD": 3.5228617, "LONGITUD": -75.1259883, "IMAGEN_1": "C002_IMG_20250612_083308.jpg", "IMAGEN_2": "C002_IMG_20250612_083344.jpg", "IMAGEN_3": "C002_IMG_20250612_083352.jpg", "VISUALIZAR_IMAGEN_1": "https://drive.google.com/uc?export=view&id=1tiQ7WqOUfeJSxEgdBoJybnsP8pihGqrP", "VISUALIZAR_IMAGEN_2": "https://drive.google.com/uc?export=view&id=1ol8FkDhiqczsq5UfVaJLYiruYrh1bxxm", "VISUALIZAR_IMAGEN_3": "https://drive.google.com/uc?export=view&id=1nU3Rck31R3UHul4fthPV6sTzJ3aRWA65" }, "geometry": { "type": "Point", "coordinates": [ -75.12598829999996, 3.522861700000021, 0.0 ] } },
{ "type": "Feature", "properties": { "FECHA": "2/07/2025 00:00:00 (UTC)", "DEPTO": "CUNDINAMARCA", "MUNICIPIO": "UNE", "VEREDA": "SAN ISIDRO", "GASODUCTO": "CUSIANA - APIAY - USME", "TRAMO": "Villavicencio - Usme", "TP_DUCTO": "Troncal", "DISTRITO": "4", "DIAMETRO": "6\"", "TRM_REG": "APIAY - USME", "PK": "104+595", "PK_PAT": null, "ID_EVENTO": "0", "TP_EVENTO": "OTRO", "LONG_EVENT": null, "AMENAZA": "Medio", "ESTADO_EG": " ", "FX2": " ", "OBSERVACIO": "Socavación lateral", "PROFUNDIDA": null, "COD_ID": "PROC-1", "ENTREGA": "E22_R1", "LATITUD": 4.39836, "LONGITUD": -74.021094, "IMAGEN_1": "C003_IMG_20250702_082849.jpg", "IMAGEN_2": "C003_IMG_20250702_082859.jpg", "IMAGEN_3": "C003_IMG_20250702_182909.jpg", "VISUALIZAR_IMAGEN_1": "https://drive.google.com/uc?export=view&id=144Kt65gr8k7On6r9xPa44q3USMpWjpIJ", "VISUALIZAR_IMAGEN_2": "https://drive.google.com/uc?export=view&id=1a7_boKAsonsCGjA-QjRu3TaxuTzYc2nt", "VISUALIZAR_IMAGEN_3": "https://drive.google.com/uc?export=view&id=1ocKI7pcl8Ei52yowWQoEb8NDd5FlVPI0" }, "geometry": { "type": "Point", "coordinates": [ -74.021094, 4.39836, 0.0 ] } },
{ "type": "Feature", "properties": { "FECHA": "26/06/2025 00:00:00 (UTC)", "DEPTO": "CUNDINAMARCA", "MUNICIPIO": "FOSCA", "VEREDA": "NOVILLEROS", "GASODUCTO": "CUSIANA - APIAY - USME", "TRAMO": "Villavicencio - Usme", "TP_DUCTO": "Troncal", "DISTRITO": "4", "DIAMETRO": "6\"", "TRM_REG": "APIAY - USME", "PK": "088+443", "PK_PAT": null, "ID_EVENTO": "0", "TP_EVENTO": "OTRO", "LONG_EVENT": null, "AMENAZA": "Bajo", "ESTADO_EG": " ", "FX2": " ", "OBSERVACIO": "Se observa obra geotécnica reciente", "PROFUNDIDA": null, "COD_ID": "PROC-1", "ENTREGA": "E22_R1", "LATITUD": 4.359038000000055, "LONGITUD": -73.921511, "IMAGEN_1": "C003_IMG_20250626_100036.jpg", "IMAGEN_2": "C003_IMG_20250626_100041.jpg", "IMAGEN_3": "C003_IMG_20250626_100049.jpg", "VISUALIZAR_IMAGEN_1": "https://drive.google.com/uc?export=view&id=1CSueQKo8pCaao4vtVeH_obgUPTDkGOw9", "VISUALIZAR_IMAGEN_2": "https://drive.google.com/uc?export=view&id=1Y4syPAfSLahiYzQ8ZOBiapOpmA_foFcW", "VISUALIZAR_IMAGEN_3": "https://drive.google.com/uc?export=view&id=1h1YO61dFx5r9tHWFOrlboZocg_iGb05B" }, "geometry": { "type": "Point", "coordinates": [ -73.921511, 4.359038, 0.0 ] } },
{ "type": "Feature", "properties": { "FECHA": "25/06/2025 00:00:00 (UTC)", "DEPTO": "CUNDINAMARCA", "MUNICIPIO": "FOSCA", "VEREDA": "GRANADILLO", "GASODUCTO": "CUSIANA - APIAY - USME", "TRAMO": "Villavicencio - Usme", "TP_DUCTO": "Troncal", "DISTRITO": "4", "DIAMETRO": "6\"", "TRM_REG": "APIAY - USME", "PK": "085+241", "PK_PAT": null, "ID_EVENTO": "0", "TP_EVENTO": "OTRO", "LONG_EVENT": null, "AMENAZA": "Medio", "ESTADO_EG": " ", "FX2": " ", "OBSERVACIO": "Talud", "PROFUNDIDA": null, "COD_ID": "PROC-2", "ENTREGA": "E22_R1", "LATITUD": 4.336801, "LONGITUD": -73.911905, "IMAGEN_1": "C003_IMG_20250625_160021.jpg", "IMAGEN_2": "C003_IMG_20250625_160025.jpg", "IMAGEN_3": "C003_IMG_20250625_160029.jpg", "VISUALIZAR_IMAGEN_1": "https://drive.google.com/uc?export=view&id=1B0SkCjnGO3nKZY3WMEf30fwfC8izpxsq", "VISUALIZAR_IMAGEN_2": "https://drive.google.com/uc?export=view&id=1N5Jl5eLAQYKg7x36bNcX5j_NVoUZ2Xa0", "VISUALIZAR_IMAGEN_3": "https://drive.google.com/uc?export=view&id=17Ivel_sxCo2cXk38_gswVcWRrBcNLGA_" }, "geometry": { "type": "Point", "coordinates": [ -73.911905, 4.336801, 0.0 ] } },
{ "type": "Feature", "properties": { "FECHA": "1/07/2025 00:00:00 (UTC)", "DEPTO": "CASANARE", "MUNICIPIO": "SABANALARGA", "VEREDA": "NUEVA ZELANDIA", "GASODUCTO": "CUSIANA - APIAY - USME", "TRAMO": "Villanueva", "TP_DUCTO": "Ramal", "DISTRITO": "4", "DIAMETRO": "2\"", "TRM_REG": "CUSIANA - APIAY", "PK": "002+316", "PK_PAT": null, "ID_EVENTO": "0", "TP_EVENTO": "OTRO", "LONG_EVENT": null, "AMENAZA": "Bajo", "ESTADO_EG": " ", "FX2": " ", "OBSERVACIO": "Socavacion pequeña 1 metro alto 2 de ancho, no compromete la infraestructura", "PROFUNDIDA": null, "COD_ID": "PROC-1", "ENTREGA": "E23_R1", "LATITUD": 4.6883260000000746, "LONGITUD": -73.010776, "IMAGEN_1": "C004_IMG_20250701_105022.jpg", "IMAGEN_2": "C004_IMG_20250701_105027.jpg", "IMAGEN_3": "C004_IMG_20250701_105035.jpg", "VISUALIZAR_IMAGEN_1": "https://drive.google.com/uc?export=view&id=15uUcjKrt_O5nL9TMWeVEmybglSTnelaa", "VISUALIZAR_IMAGEN_2": "https://drive.google.com/uc?export=view&id=1ztQt5GxC8svMVMrPfgHPSufuLHQbVA5S", "VISUALIZAR_IMAGEN_3": "https://drive.google.com/uc?export=view&id=1Dv8zIzmLmJysm32k4iybieCPG49ljSPA" }, "geometry": { "type": "Point", "coordinates": [ -73.010776, 4.688326, 0.0 ] } },
{ "type": "Feature", "properties": { "FECHA": "10/07/2025 00:00:00 (UTC)", "DEPTO": "CUNDINAMARCA", "MUNICIPIO": "PARATEBUENO", "VEREDA": "MACAPAY ALTO", "GASODUCTO": "CUSIANA - APIAY - USME", "TRAMO": "PK65 - Apiay", "TP_DUCTO": "Troncal", "DISTRITO": "4", "DIAMETRO": "10\"", "TRM_REG": "CUSIANA - APIAY", "PK": "093+783", "PK_PAT": null, "ID_EVENTO": null, "TP_EVENTO": "SOCAVACIÓN LATERAL", "LONG_EVENT": null, "AMENAZA": "Bajo", "ESTADO_EG": null, "FX2": " ", "OBSERVACIO": "Se cambia respecto a linea base de tipo de evento otro a socavación lateral. Se presenta ambas margenes con socavacion lateral por arrastre de material fino", "PROFUNDIDA": null, "COD_ID": "PROC-2", "ENTREGA": "E23_R1", "LATITUD": 4.4277910000000702, "LONGITUD": -73.198581, "IMAGEN_1": "C004_IMG_20250710_085405.jpg", "IMAGEN_2": "C004_IMG_20250710_085414.jpg", "IMAGEN_3": "C004_IMG_20250710_085421.jpg", "VISUALIZAR_IMAGEN_1": "https://drive.google.com/uc?export=view&id=1OJzm9yU3UZCYydXqvnGgPwJvLDPbhNAY", "VISUALIZAR_IMAGEN_2": "https://drive.google.com/uc?export=view&id=1uNILHxyVEbGTw32an_gquU-IlR93jFPd", "VISUALIZAR_IMAGEN_3": "https://drive.google.com/uc?export=view&id=1IZqG5gVaGvl-AHc05MaWhe_UbTv4H77p" }, "geometry": { "type": "Point", "coordinates": [ -73.198581, 4.427791, 0.0 ] } },
{ "type": "Feature", "properties": { "FECHA": "7/07/2025 00:00:00 (UTC)", "DEPTO": "CUNDINAMARCA", "MUNICIPIO": "PARATEBUENO", "VEREDA": "BRISAS DE MACAPAY", "GASODUCTO": "CUSIANA - APIAY - USME", "TRAMO": "PK65 - Apiay", "TP_DUCTO": "Troncal", "DISTRITO": "4", "DIAMETRO": "10\"", "TRM_REG": "CUSIANA - APIAY", "PK": "086+746", "PK_PAT": null, "ID_EVENTO": null, "TP_EVENTO": "SOCAVACIÓN DE FONDO", "LONG_EVENT": null, "AMENAZA": null, "ESTADO_EG": null, "FX2": "", "OBSERVACIO": "Socavacion de fondo producida por retiro mecanico de material", "PROFUNDIDA": null, "COD_ID": "PROC-3", "ENTREGA": "E23_R1", "LATITUD": 4.4640600000000745, "LONGITUD": -73.14645, "IMAGEN_1": "C004_IMG_20250707_111854.jpg", "IMAGEN_2": "C004_IMG_20250707_111901.jpg", "IMAGEN_3": "C004_IMG_20250707_111905.jpg", "VISUALIZAR_IMAGEN_1": "https://drive.google.com/uc?export=view&id=1pF7ct7m5pylignJK58c3Va6-S7ABaZYh", "VISUALIZAR_IMAGEN_2": "https://drive.google.com/uc?export=view&id=1GrwaiobL9-BQcgG4BSl7tUqFukeWpc7z", "VISUALIZAR_IMAGEN_3": "https://drive.google.com/uc?export=view&id=1_7BIzLAHbvhvYJBHM4eH9BstJg7_qAC2" }, "geometry": { "type": "Point", "coordinates": [ -73.14645, 4.46406, 0.0 ] } },
{ "type": "Feature", "properties": { "FECHA": "1\/04\/2025 00:00:00 (UTC)", "DEPTO": "CALDAS", "MUNICIPIO": "MANIZALES", "VEREDA": "LA ENEA PARTE", "GASODUCTO": "MARIQUITA - CALI", "TRAMO": "Letras - Marsella", "TP_DUCTO": "Troncal", "DISTRITO": "7", "DIAMETRO": "20\"", "TRM_REG": "MARIQUITA - PEREIRA", "PK": "", "PK_PAT": "75900", "ID_EVENTO": "0", "TP_EVENTO": "DESLIZAMIENTO TRASLACIONAL", "LONG_EVENT": 50.0, "AMENAZA": "Alto", "ESTADO_EG": " ", "FX2": " ", "OBSERVACIO": "Deslizamiento al costado derecho, a 2 mts", "PROFUNDIDA": 0.0, "COD_ID": "P_MEN", "ENTREGA": "E09_R1", "LATITUD": 5.0476150000000644, "LONGITUD": -75.404415, "IMAGEN_1": "C002_IMG_20250401_100024.jpg", "IMAGEN_2": "C002_IMG_20250401_100032.jpg", "IMAGEN_3": "C002_IMG_20250401_100040.jpg", "VISUALIZAR_IMAGEN_1": "https:\/\/drive.google.com\/uc?export=view&id=1y_KbRVp0fHOa8vTNpllHeao5jKLJmnZG", "VISUALIZAR_IMAGEN_2": "https:\/\/drive.google.com\/uc?export=view&id=18jNDhH5j53ynYN7mP8-D0GxzoVsvcP9R", "VISUALIZAR_IMAGEN_3": "https:\/\/drive.google.com\/uc?export=view&id=1tlXtz0vbkoOfhz0ePhCdJO0QfqwZ8jQX" }, "geometry": { "type": "Point", "coordinates": [ -75.404415, 5.047615, 0.0 ] } },
{ "type": "Feature", "properties": { "FECHA": "1\/04\/2025 00:00:00 (UTC)", "DEPTO": "CALDAS", "MUNICIPIO": "MANIZALES", "VEREDA": "LA ENEA PARTE", "GASODUCTO": "MARIQUITA - CALI", "TRAMO": "Letras - Marsella", "TP_DUCTO": "Troncal", "DISTRITO": "7", "DIAMETRO": "20\"", "TRM_REG": "MARIQUITA - PEREIRA", "PK": "", "PK_PAT": "77865", "ID_EVENTO": "0", "TP_EVENTO": "DESLIZAMIENTO ROTACIONAL", "LONG_EVENT": 65.0, "AMENAZA": "Alto", "ESTADO_EG": " ", "FX2": "20220526_FX2_C07_MC_LET-MARS_PK077+865_VA", "OBSERVACIO": "Evento repetido", "PROFUNDIDA": 0.0, "COD_ID": "P_MEN", "ENTREGA": "E09_R1", "LATITUD": 5.037917, "LONGITUD": -75.416797, "IMAGEN_1": "C002_IMG_20250401_111351.jpg", "IMAGEN_2": "C002_IMG_20250401_111355.jpg", "IMAGEN_3": "C002_IMG_20250401_111359.jpg", "VISUALIZAR_IMAGEN_1": "https:\/\/drive.google.com\/uc?export=view&id=1SSx_vfiSVOz-mybcR3wDTny2vtWQPGuh", "VISUALIZAR_IMAGEN_2": "https:\/\/drive.google.com\/uc?export=view&id=1vdY_DiIxK5ptV6B8QIeH94gU-ALP_4s3", "VISUALIZAR_IMAGEN_3": "https:\/\/drive.google.com\/uc?export=view&id=1lhUfkgz4TkcgbJ84DjN8nUzS041ul2rL" }, "geometry": { "type": "Point", "coordinates": [ -75.416797, 5.037917, 0.0 ] } },
{ "type": "Feature", "properties": { "FECHA": "31\/03\/2025 00:00:00 (UTC)", "DEPTO": "CALDAS", "MUNICIPIO": "MANIZALES", "VEREDA": "ÁREA URBANA", "GASODUCTO": "MARIQUITA - CALI", "TRAMO": "Letras - Marsella", "TP_DUCTO": "Troncal", "DISTRITO": "7", "DIAMETRO": "20\"", "TRM_REG": "MARIQUITA - PEREIRA", "PK": "", "PK_PAT": "79174", "ID_EVENTO": "0", "TP_EVENTO": "OTRO", "LONG_EVENT": 22.0, "AMENAZA": "Bajo", "ESTADO_EG": " ", "FX2": " ", "OBSERVACIO": "No sé evidencia evento", "PROFUNDIDA": 0.0, "COD_ID": "P_MEN", "ENTREGA": "E09_R1", "LATITUD": 5.0328460000000632, "LONGITUD": -75.426127, "IMAGEN_1": "C002_IMG_20250331_081346.jpg", "IMAGEN_2": "C002_IMG_20250331_081359.jpg", "IMAGEN_3": "C002_IMG_20250331_081404.jpg", "VISUALIZAR_IMAGEN_1": "https:\/\/drive.google.com\/uc?export=view&id=1_96335bYBa-RUaUU8U-puv5ojs0qUuyL", "VISUALIZAR_IMAGEN_2": "https:\/\/drive.google.com\/uc?export=view&id=18wxoWoLJBhRgavW5HyZpqPNsk7GbT51x", "VISUALIZAR_IMAGEN_3": "https:\/\/drive.google.com\/uc?export=view&id=11ry5zWdjjVI-3LgAnhV_arfhiWJBBgiz" }, "geometry": { "type": "Point", "coordinates": [ -75.426127, 5.032846, 0.0 ] } },
{ "type": "Feature", "properties": { "FECHA": "31\/03\/2025 00:00:00 (UTC)", "DEPTO": "CALDAS", "MUNICIPIO": "MANIZALES", "VEREDA": "LA ENEA PARTE", "GASODUCTO": "MARIQUITA - CALI", "TRAMO": "Letras - Marsella", "TP_DUCTO": "Troncal", "DISTRITO": "7", "DIAMETRO": "20\"", "TRM_REG": "MARIQUITA - PEREIRA", "PK": "", "PK_PAT": "80469", "ID_EVENTO": "0", "TP_EVENTO": "SOCAVACIÓN DE FONDO", "LONG_EVENT": 10.0, "AMENAZA": "Medio", "ESTADO_EG": " ", "FX2": " ", "OBSERVACIO": " ", "PROFUNDIDA": 0.0, "COD_ID": "P_MEN", "ENTREGA": "E09_R1", "LATITUD": 5.026148, "LONGITUD": -75.433752, "IMAGEN_1": "C002_IMG_20250331_094948.jpg", "IMAGEN_2": "C002_IMG_20250331_094954.jpg", "IMAGEN_3": "C002_IMG_20250331_094958.jpg", "VISUALIZAR_IMAGEN_1": "https:\/\/drive.google.com\/uc?export=view&id=1BZBcuEH1xT9PlSdbnQmBmfmkTQbUL5n2", "VISUALIZAR_IMAGEN_2": "https:\/\/drive.google.com\/uc?export=view&id=16gAoXFEaN8tWzRXtBF8XgyEMcysKhlgL", "VISUALIZAR_IMAGEN_3": "https:\/\/drive.google.com\/uc?export=view&id=1_eN0b0vXp-_xacIGF6Yh-Daj2jGctN3z" }, "geometry": { "type": "Point", "coordinates": [ -75.433752, 5.026148, 0.0 ] } },
{ "type": "Feature", "properties": { "FECHA": "29\/03\/2025 00:00:00 (UTC)", "DEPTO": "CALDAS", "MUNICIPIO": "MARULANDA", "VEREDA": "EL ZANCUDO", "GASODUCTO": "MARIQUITA - CALI", "TRAMO": "Letras - Marsella", "TP_DUCTO": "Troncal", "DISTRITO": "7", "DIAMETRO": "20\"", "TRM_REG": "MARIQUITA - PEREIRA", "PK": "", "PK_PAT": "68900", "ID_EVENTO": "0", "TP_EVENTO": "DESLIZAMIENTO TRASLACIONAL", "LONG_EVENT": 0.0, "AMENAZA": "Bajo", "ESTADO_EG": " ", "FX2": " ", "OBSERVACIO": "evento de geotecnia  a 20 mts de la tubería, no afecta la estabilidad de la estructura ni de la tubería", "PROFUNDIDA": 0.0, "COD_ID": "P_MEN", "ENTREGA": "E09_R1", "LATITUD": 5.061, "LONGITUD": -75.352055555999982, "IMAGEN_1": "C002_IMG_20250329_094411.jpg", "IMAGEN_2": "C002_IMG_20250329_094428.jpg", "IMAGEN_3": "C002_IMG_20250329_094433.jpg", "VISUALIZAR_IMAGEN_1": "https:\/\/drive.google.com\/uc?export=view&id=17AADoIPe5fbNl__HLdEXoRQ-dZJxwfeN", "VISUALIZAR_IMAGEN_2": "https:\/\/drive.google.com\/uc?export=view&id=1NvXtJRRmCLDtWXs2K8JY-vZdhU1s3z5E", "VISUALIZAR_IMAGEN_3": "https:\/\/drive.google.com\/uc?export=view&id=1XSfLxs0Nz7vyNMjJ-AU3-oMGoRJtswKL" }, "geometry": { "type": "Point", "coordinates": [ -75.352055555999982, 5.061, 0.0 ] } },
{ "type": "Feature", "properties": { "FECHA": "28\/03\/2025 00:00:00 (UTC)", "DEPTO": "TOLIMA", "MUNICIPIO": "HERVEO", "VEREDA": "LA CRISTALINA", "GASODUCTO": "MARIQUITA - CALI", "TRAMO": "Herveo", "TP_DUCTO": "Ramal", "DISTRITO": "7", "DIAMETRO": "2\"", "TRM_REG": "MARIQUITA - PEREIRA", "PK": "", "PK_PAT": "5540", "ID_EVENTO": "0", "TP_EVENTO": "DESLIZAMIENTO TRASLACIONAL", "LONG_EVENT": 20.0, "AMENAZA": "Extremo", "ESTADO_EG": " ", "FX2": "20220520_FX2_C07_MC_R-HERVEO_PK005+540_VA", "OBSERVACIO": "Creciente de la quebrada cercana desplazó material hastacercanias del eje de la tubería", "PROFUNDIDA": 0.0, "COD_ID": "P_MEN", "ENTREGA": "E09_R1", "LATITUD": 5.0766, "LONGITUD": -75.20855, "IMAGEN_1": "C002_IMG_20250328_120257.jpg", "IMAGEN_2": "C002_IMG_20250328_120146.jpg", "IMAGEN_3": "C002_IMG_20250328_120150.jpg", "VISUALIZAR_IMAGEN_1": "https:\/\/drive.google.com\/uc?export=view&id=1dtQQ8ZBdsdtqw1YRziEbMK3sbN0DlxPW", "VISUALIZAR_IMAGEN_2": "https:\/\/drive.google.com\/uc?export=view&id=16OQHrVbDfhrXzno8N5S8GhSiTPygvWEW", "VISUALIZAR_IMAGEN_3": "https:\/\/drive.google.com\/uc?export=view&id=1u4YeihTZfpTICmhILHPS_BqB4UVWfCKM" }, "geometry": { "type": "Point", "coordinates": [ -75.20855, 5.0766, 0.0 ] } },
{ "type": "Feature", "properties": { "FECHA": "1\/04\/2025 00:00:00 (UTC)", "DEPTO": "CALDAS", "MUNICIPIO": "MANIZALES", "VEREDA": "LA ENEA PARTE", "GASODUCTO": "MARIQUITA - CALI", "TRAMO": "Letras - Marsella", "TP_DUCTO": "Troncal", "DISTRITO": "7", "DIAMETRO": "20\"", "TRM_REG": "MARIQUITA - PEREIRA", "PK": "", "PK_PAT": "77650", "ID_EVENTO": "0", "TP_EVENTO": "REPTACION", "LONG_EVENT": 0.0, "AMENAZA": "( )", "ESTADO_EG": " ", "FX2": " ", "OBSERVACIO": " ", "PROFUNDIDA": 0.0, "COD_ID": "P_MEN", "ENTREGA": "E09_R1", "LATITUD": 5.0385620000000699, "LONGITUD": -75.416055, "IMAGEN_1": "C002_IMG_20250401_110609.jpg", "IMAGEN_2": "C002_IMG_20250401_110628.jpg", "IMAGEN_3": "C002_IMG_20250401_110655.jpg", "VISUALIZAR_IMAGEN_1": "https:\/\/drive.google.com\/uc?export=view&id=1DidDqmyDcjKjpT31FTtt3U9CepUViZwJ", "VISUALIZAR_IMAGEN_2": "https:\/\/drive.google.com\/uc?export=view&id=1GQb6tItj719KWNza_QCdC02c7-LB3fsr", "VISUALIZAR_IMAGEN_3": "https:\/\/drive.google.com\/uc?export=view&id=15GSWlSUgHXCSlQJ207H4Xi5BdvQZknxe" }, "geometry": { "type": "Point", "coordinates": [ -75.416055, 5.038562, 0.0 ] } },
{ "type": "Feature", "properties": { "FECHA": "31\/03\/2025 00:00:00 (UTC)", "DEPTO": "CALDAS", "MUNICIPIO": "MANIZALES", "VEREDA": "ÁREA URBANA", "GASODUCTO": "MARIQUITA - CALI", "TRAMO": "Letras - Marsella", "TP_DUCTO": "Troncal", "DISTRITO": "7", "DIAMETRO": "20\"", "TRM_REG": "MARIQUITA - PEREIRA", "PK": "", "PK_PAT": "79630", "ID_EVENTO": "0", "TP_EVENTO": "DESLIZAMIENTO TRASLACIONAL", "LONG_EVENT": 15.0, "AMENAZA": "Alto", "ESTADO_EG": " ", "FX2": "20230411_FX2_C07_MC_LET-MARS_PK079+630_VA", "OBSERVACIO": "Evento repetido", "PROFUNDIDA": 0.0, "COD_ID": "P_MEN", "ENTREGA": "E09_R1", "LATITUD": 5.0295112380000546, "LONGITUD": -75.428084579999961, "IMAGEN_1": "C002_IMG_20250331_090854.jpg", "IMAGEN_2": "C002_IMG_20250331_090858.jpg", "IMAGEN_3": "C002_IMG_20250331_090902.jpg", "VISUALIZAR_IMAGEN_1": "https:\/\/drive.google.com\/uc?export=view&id=1I9MpY5-sYppEpzi54nXxoXm6CubQjqyx", "VISUALIZAR_IMAGEN_2": "https:\/\/drive.google.com\/uc?export=view&id=1Qob-GDEnRVJXnTVSGCTgkBMpnMHJ2qfm", "VISUALIZAR_IMAGEN_3": "https:\/\/drive.google.com\/uc?export=view&id=1LdAiCJzBUwONQB_2NSyY6h5YxmlTMO9O" }, "geometry": { "type": "Point", "coordinates": [ -75.428084579999961, 5.029511238000055, 0.0 ] } },
{ "type": "Feature", "properties": { "FECHA": "1\/04\/2025 00:00:00 (UTC)", "DEPTO": "CALDAS", "MUNICIPIO": "MANIZALES", "VEREDA": "LA ENEA PARTE", "GASODUCTO": "MARIQUITA - CALI", "TRAMO": "Letras - Marsella", "TP_DUCTO": "Troncal", "DISTRITO": "7", "DIAMETRO": "20\"", "TRM_REG": "MARIQUITA - PEREIRA", "PK": "", "PK_PAT": "75270", "ID_EVENTO": "0", "TP_EVENTO": "DESLIZAMIENTO TRASLACIONAL", "LONG_EVENT": 0.0, "AMENAZA": "( )", "ESTADO_EG": " ", "FX2": " ", "OBSERVACIO": "Evento repetido", "PROFUNDIDA": 0.0, "COD_ID": "P_MEN", "ENTREGA": "E09_R1", "LATITUD": 5.050508, "LONGITUD": -75.401058, "IMAGEN_1": "C002_IMG_20250401_093758.jpg", "IMAGEN_2": "C002_IMG_20250401_093802.jpg", "IMAGEN_3": "C002_IMG_20250401_093807.jpg", "VISUALIZAR_IMAGEN_1": "https:\/\/drive.google.com\/uc?export=view&id=1nNYAMxZWz8apm1IAaByy2KEwD57U07eV", "VISUALIZAR_IMAGEN_2": "https:\/\/drive.google.com\/uc?export=view&id=1BS3b0bxpx4sTpCoO-Dab3uzro9aK3895", "VISUALIZAR_IMAGEN_3": "https:\/\/drive.google.com\/uc?export=view&id=1TB38uF8vPquzrRwIuND6wvsXr-kVQYIm" }, "geometry": { "type": "Point", "coordinates": [ -75.401058, 5.050508, 0.0 ] } },
{ "type": "Feature", "properties": { "FECHA": "2\/04\/2025 00:00:00 (UTC)", "DEPTO": "CALDAS", "MUNICIPIO": "MANIZALES", "VEREDA": "LA ENEA PARTE", "GASODUCTO": "MARIQUITA - CALI", "TRAMO": "Letras - Marsella", "TP_DUCTO": "Troncal", "DISTRITO": "7", "DIAMETRO": "20\"", "TRM_REG": "MARIQUITA - PEREIRA", "PK": "", "PK_PAT": "81300", "ID_EVENTO": "0", "TP_EVENTO": "DESLIZAMIENTO TRASLACIONAL", "LONG_EVENT": 0.0, "AMENAZA": "( )", "ESTADO_EG": " ", "FX2": " ", "OBSERVACIO": "No sé evidencia evento", "PROFUNDIDA": 0.0, "COD_ID": "P_MEN", "ENTREGA": "E09_R1", "LATITUD": 5.0228705580000224, "LONGITUD": -75.4393185, "IMAGEN_1": "C002_IMG_20250402_074825.jpg", "IMAGEN_2": "C002_IMG_20250402_074832.jpg", "IMAGEN_3": "C002_IMG_20250402_074837.jpg", "VISUALIZAR_IMAGEN_1": "https:\/\/drive.google.com\/uc?export=view&id=10n-aG3vmZMwtXWIdKgYlGrZeJ98ukJyz", "VISUALIZAR_IMAGEN_2": "https:\/\/drive.google.com\/uc?export=view&id=1ndYjIwkbx0k3DQkDKF60S6lqHS2Q9GPl", "VISUALIZAR_IMAGEN_3": "https:\/\/drive.google.com\/uc?export=view&id=1l0Feb2mzhD6NIFs4osKZg82z6wEJPzo_" }, "geometry": { "type": "Point", "coordinates": [ -75.439318499999956, 5.022870558000022, 0.0 ] } },
{ "type": "Feature", "properties": { "FECHA": "2\/04\/2025 00:00:00 (UTC)", "DEPTO": "CALDAS", "MUNICIPIO": "MANIZALES", "VEREDA": "LA ENEA PARTE", "GASODUCTO": "MARIQUITA - CALI", "TRAMO": "Letras - Marsella", "TP_DUCTO": "Troncal", "DISTRITO": "7", "DIAMETRO": "20\"", "TRM_REG": "MARIQUITA - PEREIRA", "PK": "", "PK_PAT": "80700", "ID_EVENTO": "0", "TP_EVENTO": "DESLIZAMIENTO TRASLACIONAL", "LONG_EVENT": 0.0, "AMENAZA": "( )", "ESTADO_EG": " ", "FX2": " ", "OBSERVACIO": "No sé evidencia evento", "PROFUNDIDA": 0.0, "COD_ID": "P_MEN", "ENTREGA": "E09_R1", "LATITUD": 5.0253782, "LONGITUD": -75.4355801, "IMAGEN_1": "C002_IMG_20250402_092559.jpg", "IMAGEN_2": "C002_IMG_20250402_092607.jpg", "IMAGEN_3": "C002_IMG_20250402_092613.jpg", "VISUALIZAR_IMAGEN_1": "https:\/\/drive.google.com\/uc?export=view&id=1tB0op3Fh4io8WqblG63ruMN8-Y5RV8FN", "VISUALIZAR_IMAGEN_2": "https:\/\/drive.google.com\/uc?export=view&id=17ktHDt9Nf90cxLij3Zk0TacyrcKzOFJd", "VISUALIZAR_IMAGEN_3": "https:\/\/drive.google.com\/uc?export=view&id=1bHESxJOIjVxr8uO9V0sTuNnC8NEhGY8Y" }, "geometry": { "type": "Point", "coordinates": [ -75.435580099999981, 5.025378200000034, 0.0 ] } },
{ "type": "Feature", "properties": { "FECHA": "7\/04\/2025 00:00:00 (UTC)", "DEPTO": "CALDAS", "MUNICIPIO": "MANIZALES", "VEREDA": "ÁREA URBANA", "GASODUCTO": "MARIQUITA - CALI", "TRAMO": "Neira", "TP_DUCTO": "Ramal", "DISTRITO": "7", "DIAMETRO": "2\"", "TRM_REG": "MARIQUITA - PEREIRA", "PK": "", "PK_PAT": "298", "ID_EVENTO": "0", "TP_EVENTO": "OTRO", "LONG_EVENT": 2.5, "AMENAZA": "Bajo", "ESTADO_EG": " ", "FX2": " ", "OBSERVACIO": "No se evidencia evento de geotecnia", "PROFUNDIDA": 0.0, "COD_ID": "P_MEN", "ENTREGA": "E09_R1", "LATITUD": 5.0395990000000666, "LONGITUD": -75.44829, "IMAGEN_1": "C002_IMG_20250407_115525.jpg", "IMAGEN_2": "C002_IMG_20250407_115531.jpg", "IMAGEN_3": "C002_IMG_20250407_115536.jpg", "VISUALIZAR_IMAGEN_1": "https:\/\/drive.google.com\/uc?export=view&id=1XOUhQ2zwPMPPXApPvQC-XNjY0d9DqWs5", "VISUALIZAR_IMAGEN_2": "https:\/\/drive.google.com\/uc?export=view&id=165gqcrlVgxM-jjjbvKHT_OOTiC-DrYyD", "VISUALIZAR_IMAGEN_3": "https:\/\/drive.google.com\/uc?export=view&id=1CjSvg_OOHQhxt_SnrCBoYBVzoa9wncB5" }, "geometry": { "type": "Point", "coordinates": [ -75.44829, 5.039599, 0.0 ] } },
{ "type": "Feature", "properties": { "FECHA": "8\/07\/2025 00:00:00 (UTC)", "DEPTO": "BOYACÁ", "MUNICIPIO": "MOTAVITA", "VEREDA": "RISTA", "GASODUCTO": "BOYACA - SANTANDER", "TRAMO": "Teatinos - Belencito", "TP_DUCTO": "Troncal", "DISTRITO": "5", "DIAMETRO": "10\"", "TRM_REG": "GASODUCTO RAMALES BOYACA - SANTANDER", "PK": "012+639", "PK_PAT": "", "ID_EVENTO": "0", "TP_EVENTO": "OTRO", "LONG_EVENT": 0.0, "AMENAZA": "Bajo", "ESTADO_EG": " ", "FX2": " ", "OBSERVACIO": "Erosion por agua de escorrentia", "PROFUNDIDA": 0.0, "COD_ID": "PROC-1", "ENTREGA": "E25_R1", "LATITUD": 5.5656920000000696, "LONGITUD": -73.389741, "IMAGEN_1": "C003_IMG_20250708_104836.jpg", "IMAGEN_2": "C003_IMG_20250708_104850.jpg", "IMAGEN_3": "C003_IMG_20250708_104904.jpg", "VISUALIZAR_IMAGEN_1": "https:\/\/drive.google.com\/uc?export=view&id=1FHkKm2uhq0JPlZqn-0pLAup0L6c6MaA5", "VISUALIZAR_IMAGEN_2": "https:\/\/drive.google.com\/uc?export=view&id=1YY2FU7dQMSCWVY3muAFAFoh7GsL3U3Lc", "VISUALIZAR_IMAGEN_3": "https:\/\/drive.google.com\/uc?export=view&id=1pQc_Bt-Fcm-OVB-M9e_6cE5VniZqyRLC" }, "geometry": { "type": "Point", "coordinates": [ -73.389741, 5.565692, 0.0 ] } },
{ "type": "Feature", "properties": { "FECHA": "8\/07\/2025 00:00:00 (UTC)", "DEPTO": "BOYACÁ", "MUNICIPIO": "TUNJA", "VEREDA": "TRAS DEL ALTO", "GASODUCTO": "BOYACA - SANTANDER", "TRAMO": "Teatinos - Belencito", "TP_DUCTO": "Troncal", "DISTRITO": "5", "DIAMETRO": "10\"", "TRM_REG": "GASODUCTO RAMALES BOYACA - SANTANDER", "PK": "011+343", "PK_PAT": "", "ID_EVENTO": "0", "TP_EVENTO": "OTRO", "LONG_EVENT": 0.0, "AMENAZA": "Medio", "ESTADO_EG": " ", "FX2": " ", "OBSERVACIO": "Zanja de drenaje", "PROFUNDIDA": 0.0, "COD_ID": "PROC-2", "ENTREGA": "E25_R1", "LATITUD": 5.556809, "LONGITUD": -73.39674, "IMAGEN_1": "C003_IMG_20250708_095417.jpg", "IMAGEN_2": "C003_IMG_20250708_095428.jpg", "IMAGEN_3": "C003_IMG_20250708_095432.jpg", "VISUALIZAR_IMAGEN_1": "https:\/\/drive.google.com\/uc?export=view&id=1F0js9l6Ik_UYA6-EJzM_USpaRX7wxIUi", "VISUALIZAR_IMAGEN_2": "https:\/\/drive.google.com\/uc?export=view&id=19vA1RnRQE5eeZsvCvj40LX-Cc9R0fE3W", "VISUALIZAR_IMAGEN_3": "https:\/\/drive.google.com\/uc?export=view&id=1CAVUTs0zJaVLRzleM84Xlu_A4AxwM_9i" }, "geometry": { "type": "Point", "coordinates": [ -73.39674, 5.556809, 0.0 ] } },
{ "type": "Feature", "properties": { "FECHA": "11\/07\/2025 00:00:00 (UTC)", "DEPTO": "BOYACÁ", "MUNICIPIO": "OICATÁ", "VEREDA": "PORAVITA", "GASODUCTO": "BOYACA - SANTANDER", "TRAMO": "Teatinos - Belencito", "TP_DUCTO": "Troncal", "DISTRITO": "5", "DIAMETRO": "10\"", "TRM_REG": "GASODUCTO RAMALES BOYACA - SANTANDER", "PK": "028+838", "PK_PAT": "", "ID_EVENTO": "0", "TP_EVENTO": "SOCAVACIÓN LATERAL", "LONG_EVENT": 0.0, "AMENAZA": "Medio", "ESTADO_EG": " ", "FX2": " ", "OBSERVACIO": "Se cambia respecto a linea base de tipo de evento otro a socavación lateral. Socavación lateral en margen derecha del cruce subfluvial.  ", "PROFUNDIDA": 0.0, "COD_ID": "PROC-3", "ENTREGA": "E25_R1", "LATITUD": 5.642907, "LONGITUD": -73.284256, "IMAGEN_1": "C003_IMG_20250711_113930.jpg", "IMAGEN_2": "C003_IMG_20250711_114000.jpg", "IMAGEN_3": "C003_IMG_20250711_114009.jpg", "VISUALIZAR_IMAGEN_1": "https:\/\/drive.google.com\/uc?export=view&id=1UR1NeQUIC3Iw3p4JrE0LD-ht0gAGqNma", "VISUALIZAR_IMAGEN_2": "https:\/\/drive.google.com\/uc?export=view&id=1SwAkNolfvS6FtBU8IfFTKf833WReL-UG", "VISUALIZAR_IMAGEN_3": "https:\/\/drive.google.com\/uc?export=view&id=1KVXa1973Ze7WN1exYiTVxBQ6TAsXXdpI" }, "geometry": { "type": "Point", "coordinates": [ -73.284256, 5.642907, 0.0 ] } },
{ "type": "Feature", "properties": { "FECHA": "12\/07\/2025 00:00:00 (UTC)", "DEPTO": "BOYACÁ", "MUNICIPIO": "TUTA", "VEREDA": "DE RESGUARDO", "GASODUCTO": "BOYACA - SANTANDER", "TRAMO": "Teatinos - Belencito", "TP_DUCTO": "Troncal", "DISTRITO": "5", "DIAMETRO": "10\"", "TRM_REG": "GASODUCTO RAMALES BOYACA - SANTANDER", "PK": "039+044", "PK_PAT": "", "ID_EVENTO": "0", "TP_EVENTO": "SOCAVACIÓN LATERAL", "LONG_EVENT": 0.0, "AMENAZA": "Bajo", "ESTADO_EG": " ", "FX2": " ", "OBSERVACIO": "Se cambia respecto a linea base de tipo de evento otro a socavación lateral. Socavacion lateral en margen izquierdo del cruce subfluvial.", "PROFUNDIDA": 0.0, "COD_ID": "PROC-4", "ENTREGA": "E25_R1", "LATITUD": 5.704286, "LONGITUD": -73.225428, "IMAGEN_1": "C003_IMG_20250712_122752.jpg", "IMAGEN_2": "C003_IMG_20250712_122800.jpg", "IMAGEN_3": "C003_IMG_20250712_122805.jpg", "VISUALIZAR_IMAGEN_1": "https:\/\/drive.google.com\/uc?export=view&id=1nHm-PIOboZyAQH9zo-0wW0k9qfKhrbBU", "VISUALIZAR_IMAGEN_2": "https:\/\/drive.google.com\/uc?export=view&id=1wiAZ_wv7mta40k6whsGcFnWGxREpel6Y", "VISUALIZAR_IMAGEN_3": "https:\/\/drive.google.com\/uc?export=view&id=1WPPJGzWlDjANsqEIKMO7_mVI9fa6Nmbw" }, "geometry": { "type": "Point", "coordinates": [ -73.225428, 5.704286, 0.0 ] } },
{ "type": "Feature", "properties": { "FECHA": "28\/07\/2025 00:00:00 (UTC)", "DEPTO": "BOYACÁ", "MUNICIPIO": "RAMIRIQUÍ", "VEREDA": "CHUSCAL", "GASODUCTO": "PORVENIR - LA BELLEZA", "TRAMO": "Miraflores - Sutamarchan", "TP_DUCTO": "Troncal", "DISTRITO": "5", "DIAMETRO": "20\"", "TRM_REG": "EL PORVENIR - LA BELLEZA", "PK": "107+018", "PK_PAT": "", "ID_EVENTO": "", "TP_EVENTO": "OTRO", "LONG_EVENT": 0.0, "AMENAZA": "Medio", "ESTADO_EG": " ", "FX2": " ", "OBSERVACIO": "Deslizamiento de 3m de ancho y 2m de alto por flujo de agua lluvia a 6m del loop", "PROFUNDIDA": 0.0, "COD_ID": "PROC-1", "ENTREGA": "E28_R1", "LATITUD": 5.294285000000059, "LONGITUD": -73.281416, "IMAGEN_1": "C003_IMG_20250728_085330.jpg", "IMAGEN_2": "C003_IMG_20250728_085343.jpg", "IMAGEN_3": "C003_IMG_20250728_085357.jpg", "VISUALIZAR_IMAGEN_1": "https:\/\/drive.google.com\/uc?export=view&id=1GC0j_EtOAhzvdmNXPzserrJH4dTR7JNc", "VISUALIZAR_IMAGEN_2": "https:\/\/drive.google.com\/uc?export=view&id=12ZVY6HYE3m7rdAmrHZKnsH0yYosRiGGO", "VISUALIZAR_IMAGEN_3": "https:\/\/drive.google.com\/uc?export=view&id=12iamT9MYGA1dhLadprbohPSOGsbo72fu" }, "geometry": { "type": "Point", "coordinates": [ -73.281416, 5.294285, 0.0 ] } },
{ "type": "Feature", "properties": { "FECHA": "25\/07\/2025 00:00:00 (UTC)", "DEPTO": "BOYACÁ", "MUNICIPIO": "MIRAFLORES", "VEREDA": "HATO", "GASODUCTO": "PORVENIR - LA BELLEZA", "TRAMO": "Miraflores - Sutamarchan", "TP_DUCTO": "Troncal", "DISTRITO": "5", "DIAMETRO": "20\"", "TRM_REG": "EL PORVENIR - LA BELLEZA", "PK": "088+388", "PK_PAT": "", "ID_EVENTO": "", "TP_EVENTO": "SOCAVACIÓN DE FONDO", "LONG_EVENT": 0.0, "AMENAZA": "( )", "ESTADO_EG": " ", "FX2": " ", "OBSERVACIO": "Socavacion por caida de agua, a 30m de la tuberia", "PROFUNDIDA": 0.0, "COD_ID": "PROC-2", "ENTREGA": "E28_R1", "LATITUD": 5.1910360000000537, "LONGITUD": -73.1775592, "IMAGEN_1": "C003_IMG_20250725_114510.jpg", "IMAGEN_2": "C003_IMG_20250725_114536.jpg", "IMAGEN_3": "C003_IMG_20250725_114529.jpg", "VISUALIZAR_IMAGEN_1": "https:\/\/drive.google.com\/uc?export=view&id=1FV9kT-28-OLSBWdd46Ic5VHIgUJalDyP", "VISUALIZAR_IMAGEN_2": "https:\/\/drive.google.com\/uc?export=view&id=13ieVqZKLRmkxslV8KFqCDlqCGdHWAuX4", "VISUALIZAR_IMAGEN_3": "https:\/\/drive.google.com\/uc?export=view&id=1qh4GuYuQXtFtmSkBpEK98MdG42S1SUlW" }, "geometry": { "type": "Point", "coordinates": [ -73.177559199999962, 5.191036, 0.0 ] } },
{ "type": "Feature", "properties": { "FECHA": "26\/07\/2025 00:00:00 (UTC)", "DEPTO": "BOYACÁ", "MUNICIPIO": "MIRAFLORES", "VEREDA": "RUSITA", "GASODUCTO": "PORVENIR - LA BELLEZA", "TRAMO": "Miraflores - Sutamarchan", "TP_DUCTO": "Troncal", "DISTRITO": "5", "DIAMETRO": "20\"", "TRM_REG": "EL PORVENIR - LA BELLEZA", "PK": "091+192", "PK_PAT": "", "ID_EVENTO": "", "TP_EVENTO": "DESLIZAMIENTO TRASLACIONAL", "LONG_EVENT": 0.0, "AMENAZA": "( )", "ESTADO_EG": " ", "FX2": " ", "OBSERVACIO": "Deslizamiento producido por un flujo de agua que desciende por este sector", "PROFUNDIDA": 0.0, "COD_ID": "PROC-3", "ENTREGA": "E28_R1", "LATITUD": 5.1990880000000743, "LONGITUD": -73.200088, "IMAGEN_1": "C003_IMG_20250726_081912.jpg", "IMAGEN_2": "C003_IMG_20250726_081950.jpg", "IMAGEN_3": "C003_IMG_20250726_083915.jpg", "VISUALIZAR_IMAGEN_1": "https:\/\/drive.google.com\/uc?export=view&id=1lSiDxAJxUdKeiMwe1PcCiTOmWVMM3f0F", "VISUALIZAR_IMAGEN_2": "https:\/\/drive.google.com\/uc?export=view&id=1S5OWVBb0T523_JStkQlEUPcEAVJLA4KV", "VISUALIZAR_IMAGEN_3": "https:\/\/drive.google.com\/uc?export=view&id=1D5ITHRW9DPV8tpkj9xbx_y6FMnQAGQLS" }, "geometry": { "type": "Point", "coordinates": [ -73.200088, 5.199088, 0.0 ] } },
{ "type": "Feature", "properties": { "FECHA": "26\/07\/2025 00:00:00 (UTC)", "DEPTO": "BOYACÁ", "MUNICIPIO": "ZETAQUIRA", "VEREDA": "GUANATA", "GASODUCTO": "PORVENIR - LA BELLEZA", "TRAMO": "Miraflores - Sutamarchan", "TP_DUCTO": "Troncal", "DISTRITO": "5", "DIAMETRO": "20\"", "TRM_REG": "EL PORVENIR - LA BELLEZA", "PK": "095+219", "PK_PAT": "", "ID_EVENTO": "", "TP_EVENTO": "SOCAVACIÓN DE FONDO", "LONG_EVENT": 0.0, "AMENAZA": "( )", "ESTADO_EG": " ", "FX2": " ", "OBSERVACIO": "No se evidencia", "PROFUNDIDA": 0.0, "COD_ID": "PROC-4", "ENTREGA": "E28_R1", "LATITUD": 5.2230235000001004, "LONGITUD": -73.2181401, "IMAGEN_1": "C003_IMG_20250726_131141.jpg", "IMAGEN_2": "C003_IMG_20250726_131211.jpg", "IMAGEN_3": "C003_IMG_20250726_131219.jpg", "VISUALIZAR_IMAGEN_1": "https:\/\/drive.google.com\/uc?export=view&id=1u6lJPO01RRiM8QwITZwRk6zv6NbhJH7K", "VISUALIZAR_IMAGEN_2": "https:\/\/drive.google.com\/uc?export=view&id=1gP-L670Wqna3dELfrf6cCjtDUUwS7fLB", "VISUALIZAR_IMAGEN_3": "https:\/\/drive.google.com\/uc?export=view&id=1AiJ32pssPhxogAPP24KRlBKQAzZDF4Z2" }, "geometry": { "type": "Point", "coordinates": [ -73.218140099999971, 5.223023500000068, 0.0 ] } },
{ "type": "Feature", "properties": { "FECHA": "27\/07\/2025 00:00:00 (UTC)", "DEPTO": "BOYACÁ", "MUNICIPIO": "ZETAQUIRA", "VEREDA": "GUANATA", "GASODUCTO": "PORVENIR - LA BELLEZA", "TRAMO": "Miraflores - Sutamarchan", "TP_DUCTO": "Troncal", "DISTRITO": "5", "DIAMETRO": "20\"", "TRM_REG": "EL PORVENIR - LA BELLEZA", "PK": "097+434", "PK_PAT": "", "ID_EVENTO": "", "TP_EVENTO": "SOCAVACIÓN DE FONDO", "LONG_EVENT": 0.0, "AMENAZA": "( )", "ESTADO_EG": " ", "FX2": " ", "OBSERVACIO": "Socavacion de fondo por caida de agua, prof socavacion 1m, ancho 2m y largo 3m", "PROFUNDIDA": 0.0, "COD_ID": "PROC-5", "ENTREGA": "E28_R1", "LATITUD": 5.23762, "LONGITUD": -73.2289533, "IMAGEN_1": "C003_IMG_20250727_103857.jpg", "IMAGEN_2": "C003_IMG_20250727_103903.jpg", "IMAGEN_3": "C003_IMG_20250727_103910.jpg", "VISUALIZAR_IMAGEN_1": "https:\/\/drive.google.com\/uc?export=view&id=1N0jC0Y2wxVpbCu2zeeQPsLiKlecVcRZh", "VISUALIZAR_IMAGEN_2": "https:\/\/drive.google.com\/uc?export=view&id=1ZXeDFotpMxGvjhpHYISLwc_abRWhFtN9", "VISUALIZAR_IMAGEN_3": "https:\/\/drive.google.com\/uc?export=view&id=1YJZ-OvKg-RW4l4e7MGaE8Y9FtoNO1qee" }, "geometry": { "type": "Point", "coordinates": [ -73.228953299999944, 5.23762, 0.0 ] } },
{ "type": "Feature", "properties": { "FECHA": "27\/07\/2025 00:00:00 (UTC)", "DEPTO": "BOYACÁ", "MUNICIPIO": "ZETAQUIRA", "VEREDA": "GUANATA", "GASODUCTO": "PORVENIR - LA BELLEZA", "TRAMO": "Miraflores - Sutamarchan", "TP_DUCTO": "Troncal", "DISTRITO": "5", "DIAMETRO": "20\"", "TRM_REG": "EL PORVENIR - LA BELLEZA", "PK": "098+025", "PK_PAT": "", "ID_EVENTO": "", "TP_EVENTO": "OTRO", "LONG_EVENT": 0.0, "AMENAZA": "Bajo", "ESTADO_EG": " ", "FX2": " ", "OBSERVACIO": "No se evidencia", "PROFUNDIDA": 0.0, "COD_ID": "PROC-6", "ENTREGA": "E28_R1", "LATITUD": 5.241906, "LONGITUD": -73.231914, "IMAGEN_1": "C003_IMG_20250727_100547.jpg", "IMAGEN_2": "C003_IMG_20250727_100554.jpg", "IMAGEN_3": "C003_IMG_20250727_100603.jpg", "VISUALIZAR_IMAGEN_1": "https:\/\/drive.google.com\/uc?export=view&id=1KjGSOVcZZOl_M_Kf2WtITqKL01skySsl", "VISUALIZAR_IMAGEN_2": "https:\/\/drive.google.com\/uc?export=view&id=1Olwt8VQqVVxAr0xkz4UYY0tVS-hn4Jw6", "VISUALIZAR_IMAGEN_3": "https:\/\/drive.google.com\/uc?export=view&id=1GVMRlX7ngM6SGM0IeTdSe1CoW7qHiRT4" }, "geometry": { "type": "Point", "coordinates": [ -73.231914, 5.241906, 0.0 ] } },
{ "type": "Feature", "properties": { "FECHA": "27\/07\/2025 00:00:00 (UTC)", "DEPTO": "BOYACÁ", "MUNICIPIO": "ZETAQUIRA", "VEREDA": "GUANATA", "GASODUCTO": "PORVENIR - LA BELLEZA", "TRAMO": "Miraflores - Sutamarchan", "TP_DUCTO": "Troncal", "DISTRITO": "5", "DIAMETRO": "20\"", "TRM_REG": "EL PORVENIR - LA BELLEZA", "PK": "098+192", "PK_PAT": "", "ID_EVENTO": "", "TP_EVENTO": "SOCAVACIÓN DE FONDO", "LONG_EVENT": 0.0, "AMENAZA": "( )", "ESTADO_EG": " ", "FX2": " ", "OBSERVACIO": "Socavacion por caida de agua, se observa placa de fondo destruida", "PROFUNDIDA": 0.0, "COD_ID": "PROC-7", "ENTREGA": "E28_R1", "LATITUD": 5.243323, "LONGITUD": -73.232273, "IMAGEN_1": "C003_IMG_20250727_095214.jpg", "IMAGEN_2": "C003_IMG_20250727_095220.jpg", "IMAGEN_3": "C003_IMG_20250727_095242.jpg", "VISUALIZAR_IMAGEN_1": "https:\/\/drive.google.com\/uc?export=view&id=1jINrZHNE68rjJANcu1dvL23PCokHl7QC", "VISUALIZAR_IMAGEN_2": "https:\/\/drive.google.com\/uc?export=view&id=1I9yKSuNv0Y7ipzwd5nisO66sypl5Ti5i", "VISUALIZAR_IMAGEN_3": "https:\/\/drive.google.com\/uc?export=view&id=1VJZ6DH7o4O4yn-sZMKaAaEauw1xFjR5B" }, "geometry": { "type": "Point", "coordinates": [ -73.232273, 5.243323, 0.0 ] } },
{ "type": "Feature", "properties": { "FECHA": "28\/07\/2025 00:00:00 (UTC)", "DEPTO": "BOYACÁ", "MUNICIPIO": "ZETAQUIRA", "VEREDA": "GUANATA", "GASODUCTO": "PORVENIR - LA BELLEZA", "TRAMO": "Miraflores - Sutamarchan", "TP_DUCTO": "Troncal", "DISTRITO": "5", "DIAMETRO": "20\"", "TRM_REG": "EL PORVENIR - LA BELLEZA", "PK": "104+250", "PK_PAT": "", "ID_EVENTO": "", "TP_EVENTO": "PROPAGACION LATERAL", "LONG_EVENT": 0.0, "AMENAZA": "Bajo", "ESTADO_EG": " ", "FX2": " ", "OBSERVACIO": "Cida de material sobre margen de quebrada, antiguo 2m largo, 3m de ancho y 0.4m de alto", "PROFUNDIDA": 0.0, "COD_ID": "PROC-8", "ENTREGA": "E28_R1", "LATITUD": 5.278404, "LONGITUD": -73.266793, "IMAGEN_1": "C003_IMG_20250728_112336.jpg", "IMAGEN_2": "C003_IMG_20250728_112342.jpg", "IMAGEN_3": "C003_IMG_20250728_112402.jpg", "VISUALIZAR_IMAGEN_1": "https:\/\/drive.google.com\/uc?export=view&id=1MQ01cF4TX0wFeptbl4nB4uOTL4RMpBVb", "VISUALIZAR_IMAGEN_2": "https:\/\/drive.google.com\/uc?export=view&id=1oosUp_UKma4JGx884qkosjWodpnYfayC", "VISUALIZAR_IMAGEN_3": "https:\/\/drive.google.com\/uc?export=view&id=10A-JkTFTFfymlYFVFv3MqdZ2ttGM3WIl" }, "geometry": { "type": "Point", "coordinates": [ -73.266793, 5.278404, 0.0 ] } },
{ "type": "Feature", "properties": { "FECHA": "28\/07\/2025 00:00:00 (UTC)", "DEPTO": "BOYACÁ", "MUNICIPIO": "ZETAQUIRA", "VEREDA": "GUANATA", "GASODUCTO": "PORVENIR - LA BELLEZA", "TRAMO": "Miraflores - Sutamarchan", "TP_DUCTO": "Troncal", "DISTRITO": "5", "DIAMETRO": "20\"", "TRM_REG": "EL PORVENIR - LA BELLEZA", "PK": "105+013", "PK_PAT": "", "ID_EVENTO": "", "TP_EVENTO": "SOCAVACIÓN LATERAL", "LONG_EVENT": 0.0, "AMENAZA": "Bajo", "ESTADO_EG": " ", "FX2": " ", "OBSERVACIO": "Deslizamiento lateral antiguo, 2m de largo por 2m de ancho y 1m de altura sobre el loop", "PROFUNDIDA": 0.0, "COD_ID": "PROC-9", "ENTREGA": "E28_R1", "LATITUD": 5.281285, "LONGITUD": -73.272523, "IMAGEN_1": "C003_IMG_20250728_103439.jpg", "IMAGEN_2": "C003_IMG_20250728_103518.jpg", "IMAGEN_3": "C003_IMG_20250728_103529.jpg", "VISUALIZAR_IMAGEN_1": "https:\/\/drive.google.com\/uc?export=view&id=1QeoXVsl_Un64oVd_s6ekwDp6JAZIshRk", "VISUALIZAR_IMAGEN_2": "https:\/\/drive.google.com\/uc?export=view&id=1Jrtv2nmbe0ucExZ3dFbD8dgH-FKlOhCS", "VISUALIZAR_IMAGEN_3": "https:\/\/drive.google.com\/uc?export=view&id=13CosgVxHWbAsoifD7PLr80gT9B7rQ_Gh" }, "geometry": { "type": "Point", "coordinates": [ -73.272523, 5.281285, 0.0 ] } },
{ "type": "Feature", "properties": { "FECHA": "28\/07\/2025 00:00:00 (UTC)", "DEPTO": "BOYACÁ", "MUNICIPIO": "ZETAQUIRA", "VEREDA": "GUANATA", "GASODUCTO": "PORVENIR - LA BELLEZA", "TRAMO": "Miraflores - Sutamarchan", "TP_DUCTO": "Troncal", "DISTRITO": "5", "DIAMETRO": "20\"", "TRM_REG": "EL PORVENIR - LA BELLEZA", "PK": "106+523", "PK_PAT": "", "ID_EVENTO": "", "TP_EVENTO": "DESLIZAMIENTO TRASLACIONAL", "LONG_EVENT": 0.0, "AMENAZA": "( )", "ESTADO_EG": " ", "FX2": " ", "OBSERVACIO": "Deslizamiento de tierra antiguo, revegetalizado, Largo 2m, Ancho 3m, Altura 0.4m", "PROFUNDIDA": 0.0, "COD_ID": "PROC-10", "ENTREGA": "E28_R1", "LATITUD": 5.290357, "LONGITUD": -73.280236, "IMAGEN_1": "C003_IMG_20250728_091401.jpg", "IMAGEN_2": "C003_IMG_20250728_091427.jpg", "IMAGEN_3": "C003_IMG_20250728_091436.jpg", "VISUALIZAR_IMAGEN_1": "https:\/\/drive.google.com\/uc?export=view&id=18-0wtin8rBpzBAiQNmh4pwFsgzz8KtLf", "VISUALIZAR_IMAGEN_2": "https:\/\/drive.google.com\/uc?export=view&id=1tZxzea-SpfCa1SRgEX4hXOLEYI75tpbT", "VISUALIZAR_IMAGEN_3": "https:\/\/drive.google.com\/uc?export=view&id=1dbv-XBzghY2TYHgXOdh61kKV3vF4hbDW" }, "geometry": { "type": "Point", "coordinates": [ -73.280236, 5.290357, 0.0 ] } },
{ "type": "Feature", "properties": { "FECHA": "26\/07\/2025 00:00:00 (UTC)", "DEPTO": "BOYACÁ", "MUNICIPIO": "ZETAQUIRA", "VEREDA": "GUANATA", "GASODUCTO": "PORVENIR - LA BELLEZA", "TRAMO": "Miraflores - Sutamarchan", "TP_DUCTO": "Troncal", "DISTRITO": "5", "DIAMETRO": "20\"", "TRM_REG": "EL PORVENIR - LA BELLEZA", "PK": "095+332", "PK_PAT": "", "ID_EVENTO": "", "TP_EVENTO": "DESLIZAMIENTO TRASLACIONAL", "LONG_EVENT": 0.0, "AMENAZA": "( )", "ESTADO_EG": " ", "FX2": " ", "OBSERVACIO": "Movimiento del terreno por saturacion del suelo", "PROFUNDIDA": 0.0, "COD_ID": "PROC-11", "ENTREGA": "E28_R1", "LATITUD": 5.223829, "LONGITUD": -73.218628, "IMAGEN_1": "C003_IMG_20250726_132042.jpg", "IMAGEN_2": "C003_IMG_20250726_132053.jpg", "IMAGEN_3": "C003_IMG_20250726_132113.jpg", "VISUALIZAR_IMAGEN_1": "https:\/\/drive.google.com\/uc?export=view&id=1UV5BwekQBQnubwhdDme7XK7k0R6kKTQb", "VISUALIZAR_IMAGEN_2": "https:\/\/drive.google.com\/uc?export=view&id=1tozmbIQzuRs9qaeuNCiXu-MsdE_WEMiP", "VISUALIZAR_IMAGEN_3": "https:\/\/drive.google.com\/uc?export=view&id=1_RLGSMZbLQ648wJEC8PoJbjfzT1g1Qa0" }, "geometry": { "type": "Point", "coordinates": [ -73.218628, 5.223829, 0.0 ] } },
{ "type": "Feature", "properties": { "FECHA": "26\/07\/2025 00:00:00 (UTC)", "DEPTO": "BOYACÁ", "MUNICIPIO": "ZETAQUIRA", "VEREDA": "GUANATA", "GASODUCTO": "PORVENIR - LA BELLEZA", "TRAMO": "Miraflores - Sutamarchan", "TP_DUCTO": "Troncal", "DISTRITO": "5", "DIAMETRO": "20\"", "TRM_REG": "EL PORVENIR - LA BELLEZA", "PK": "095+876", "PK_PAT": "", "ID_EVENTO": "", "TP_EVENTO": "SOCAVACIÓN DE FONDO", "LONG_EVENT": 0.0, "AMENAZA": "( )", "ESTADO_EG": " ", "FX2": " ", "OBSERVACIO": "No se evidencia", "PROFUNDIDA": 0.0, "COD_ID": "PROC-12", "ENTREGA": "E28_R1", "LATITUD": 5.227405, "LONGITUD": -73.220995, "IMAGEN_1": "C003_IMG_20250726_140501.jpg", "IMAGEN_2": "C003_IMG_20250726_140509.jpg", "IMAGEN_3": "C003_IMG_20250726_140517.jpg", "VISUALIZAR_IMAGEN_1": "https:\/\/drive.google.com\/uc?export=view&id=16IcE4kaQM8Ha6g26SkaWMWGD377iyMXH", "VISUALIZAR_IMAGEN_2": "https:\/\/drive.google.com\/uc?export=view&id=1hVo9Lgt1uV8X1EhzIatakFbycz1IYOPl", "VISUALIZAR_IMAGEN_3": "https:\/\/drive.google.com\/uc?export=view&id=1_1vHOudhfzkOKX3HiNnac6RT1fWxLgHW" }, "geometry": { "type": "Point", "coordinates": [ -73.220995, 5.227405, 0.0 ] } },
{ "type": "Feature", "properties": { "FECHA": "27\/07\/2025 00:00:00 (UTC)", "DEPTO": "BOYACÁ", "MUNICIPIO": "ZETAQUIRA", "VEREDA": "GUANATA", "GASODUCTO": "PORVENIR - LA BELLEZA", "TRAMO": "Miraflores - Puente Guillermo", "TP_DUCTO": "Loop", "DISTRITO": "5", "DIAMETRO": "20\"", "TRM_REG": "EL PORVENIR - LA BELLEZA", "PK": "098+404", "PK_PAT": " ", "ID_EVENTO": " ", "TP_EVENTO": "SOCAVACIÓN DE FONDO", "LONG_EVENT": 0.0, "AMENAZA": "( )", "ESTADO_EG": " ", "FX2": " ", "OBSERVACIO": " ", "PROFUNDIDA": 0.0, "COD_ID": "P_MEN", "ENTREGA": "E29_R1", "LATITUD": 5.23762, "LONGITUD": -73.2289533, "IMAGEN_1": "C003_IMG_20250727_103857.jpg", "IMAGEN_2": "C003_IMG_20250727_103903.jpg", "IMAGEN_3": "C003_IMG_20250727_103910.jpg", "VISUALIZAR_IMAGEN_1": "https:\/\/drive.google.com\/uc?export=view&id=1N0jC0Y2wxVpbCu2zeeQPsLiKlecVcRZh", "VISUALIZAR_IMAGEN_2": "https:\/\/drive.google.com\/uc?export=view&id=1ZXeDFotpMxGvjhpHYISLwc_abRWhFtN9", "VISUALIZAR_IMAGEN_3": "https:\/\/drive.google.com\/uc?export=view&id=1YJZ-OvKg-RW4l4e7MGaE8Y9FtoNO1qee" }, "geometry": { "type": "Point", "coordinates": [ -73.228953299999944, 5.23762, 0.0 ] } },
{ "type": "Feature", "properties": { "FECHA": "27\/07\/2025 00:00:00 (UTC)", "DEPTO": "BOYACÁ", "MUNICIPIO": "ZETAQUIRA", "VEREDA": "GUANATA", "GASODUCTO": "PORVENIR - LA BELLEZA", "TRAMO": "Miraflores - Puente Guillermo", "TP_DUCTO": "Loop", "DISTRITO": "5", "DIAMETRO": "20\"", "TRM_REG": "EL PORVENIR - LA BELLEZA", "PK": "099+161", "PK_PAT": " ", "ID_EVENTO": " ", "TP_EVENTO": "SOCAVACIÓN DE FONDO", "LONG_EVENT": 0.0, "AMENAZA": "( )", "ESTADO_EG": " ", "FX2": " ", "OBSERVACIO": " ", "PROFUNDIDA": 0.0, "COD_ID": "P_MEN", "ENTREGA": "E29_R1", "LATITUD": 5.243323, "LONGITUD": -73.232273, "IMAGEN_1": "C003_IMG_20250727_095214.jpg", "IMAGEN_2": "C003_IMG_20250727_095220.jpg", "IMAGEN_3": "C003_IMG_20250727_095242.jpg", "VISUALIZAR_IMAGEN_1": "https:\/\/drive.google.com\/uc?export=view&id=1jINrZHNE68rjJANcu1dvL23PCokHl7QC", "VISUALIZAR_IMAGEN_2": "https:\/\/drive.google.com\/uc?export=view&id=1I9yKSuNv0Y7ipzwd5nisO66sypl5Ti5i", "VISUALIZAR_IMAGEN_3": "https:\/\/drive.google.com\/uc?export=view&id=1VJZ6DH7o4O4yn-sZMKaAaEauw1xFjR5B" }, "geometry": { "type": "Point", "coordinates": [ -73.232273, 5.243323, 0.0 ] } },
{ "type": "Feature", "properties": { "FECHA": "28\/07\/2025 00:00:00 (UTC)", "DEPTO": "BOYACÁ", "MUNICIPIO": "ZETAQUIRA", "VEREDA": "GUANATA", "GASODUCTO": "PORVENIR - LA BELLEZA", "TRAMO": "Miraflores - Puente Guillermo", "TP_DUCTO": "Loop", "DISTRITO": "5", "DIAMETRO": "20\"", "TRM_REG": "EL PORVENIR - LA BELLEZA", "PK": "105+970", "PK_PAT": " ", "ID_EVENTO": " ", "TP_EVENTO": "SOCAVACIÓN LATERAL", "LONG_EVENT": 0.0, "AMENAZA": "Bajo", "ESTADO_EG": " ", "FX2": " ", "OBSERVACIO": " ", "PROFUNDIDA": 0.0, "COD_ID": "P_MEN", "ENTREGA": "E29_R1", "LATITUD": 5.281285, "LONGITUD": -73.272523, "IMAGEN_1": "C003_IMG_20250728_103439.jpg", "IMAGEN_2": "C003_IMG_20250728_103518.jpg", "IMAGEN_3": "C003_IMG_20250728_103529.jpg", "VISUALIZAR_IMAGEN_1": "https:\/\/drive.google.com\/uc?export=view&id=1QeoXVsl_Un64oVd_s6ekwDp6JAZIshRk", "VISUALIZAR_IMAGEN_2": "https:\/\/drive.google.com\/uc?export=view&id=1Jrtv2nmbe0ucExZ3dFbD8dgH-FKlOhCS", "VISUALIZAR_IMAGEN_3": "https:\/\/drive.google.com\/uc?export=view&id=13CosgVxHWbAsoifD7PLr80gT9B7rQ_Gh" }, "geometry": { "type": "Point", "coordinates": [ -73.272523, 5.281285, 0.0 ] } }
]
}
