{
"type": "FeatureCollection",
"name": "URL_Eventos",
"crs": { "type": "name", "properties": { "name": "urn:ogc:def:crs:OGC:1.3:CRS84" } },
"features": [
{ "type": "Feature", "properties": { "FECHA": "26/06/2025 00:00:00 (UTC)", "DEPTO": "META", "MUNICIPIO": "CUMARAL", "VEREDA": "CHEPERO", "GASODUCTO": "CUSIANA - APIAY - USME", "TRAMO": "Restrepo", "TP_DUCTO": "Ramal", "DISTRITO": "4", "DIAMETRO": "2\"", "TRM_REG": "CUSIANA - APIAY", "PK": "004+985", "PK_PAT": " ", "ID_EVENTO": "320", "TP_EVENTO": "SOCAVACIÓN LATERAL", "AMENAZA": "Bajo", "ESTADO_EG": "Antiguo", "FX2": "20230301_FX2_C06_CAU_R-RESTREPO_PK004+982_VA", "OBSERVACION_GEOTECNISTA": null, "OBSERVACIO": " ", "PROFUNDIDA": 0.0, "COD_ID": "EVEN-1", "ENTREGA": "E24_R1", "LATITUD": 4.260024, "LONGITUD": -73.44506, "ALTURA": 366.23149999999441, "IMAGEN_1": "C001_IMG_20250626_083848.jpg", "IMAGEN_2": "C001_IMG_20250626_083900.jpg", "IMAGEN_3": "C001_IMG_20250626_084004.jpg", "VISUALIZAR_IMAGEN_1": "https://drive.google.com/uc?export=view&id=1SxnvnN2klPy8Z17u7pNvxbz-PZ1YCHtc", "VISUALIZAR_IMAGEN_2": "https://drive.google.com/uc?export=view&id=1nOupxR77vfDfZmmVxgLxnCbLdK1f2YT-", "VISUALIZAR_IMAGEN_3": "https://drive.google.com/uc?export=view&id=16bG2Vtco0CYYiXvsEmeV5QrK3gTJ8grl" }, "geometry": { "type": "Point", "coordinates": [ -73.44506, 4.260024, 366.231499999994412 ] } },
{ "type": "Feature", "properties": { "FECHA": "8/07/2025 00:00:00 (UTC)", "DEPTO": "CUNDINAMARCA", "MUNICIPIO": "PARATEBUENO", "VEREDA": "JAPON", "GASODUCTO": "CUSIANA - APIAY - USME", "TRAMO": "PK65 - Apiay", "TP_DUCTO": "Troncal", "DISTRITO": "4", "DIAMETRO": "10\"", "TRM_REG": "CUSIANA - APIAY", "PK": "105+790", "PK_PAT": " ", "ID_EVENTO": "323", "TP_EVENTO": "SOCAVACIÓN LATERAL", "AMENAZA": "Bajo", "ESTADO_EG": "Antiguo", "FX2": "20231121_FX2_C06_CAU_PK65-APIAY_PK105+789_VA", "OBSERVACION_GEOTECNISTA": null, "OBSERVACIO": " ", "PROFUNDIDA": 0.0, "COD_ID": "EVEN-2", "ENTREGA": "E24_R1", "LATITUD": 4.3904640000000654, "LONGITUD": -73.292271, "ALTURA": 281.4329, "IMAGEN_1": "C001_IMG_20250708_082857.jpg", "IMAGEN_2": "C001_IMG_20250708_082954.jpg", "IMAGEN_3": "C001_IMG_20250708_082815.jpg", "VISUALIZAR_IMAGEN_1": "https://drive.google.com/uc?export=view&id=1tBDJNnPOU368B9dN68maKG7Ywntu0l0i", "VISUALIZAR_IMAGEN_2": "https://drive.google.com/uc?export=view&id=1HKofBqT2lZWIqC9ws0I24cSP7_-ux8ia", "VISUALIZAR_IMAGEN_3": "https://drive.google.com/uc?export=view&id=1ciYkPcjDx_clo93XloP63suCRsPuN42F" }, "geometry": { "type": "Point", "coordinates": [ -73.292271, 4.390464, 281.43289999999979 ] } },
{ "type": "Feature", "properties": { "FECHA": "8/07/2025 00:00:00 (UTC)", "DEPTO": "CUNDINAMARCA", "MUNICIPIO": "PARATEBUENO", "VEREDA": "JAPON", "GASODUCTO": "CUSIANA - APIAY - USME", "TRAMO": "PK65 - Apiay", "TP_DUCTO": "Troncal", "DISTRITO": "4", "DIAMETRO": "10\"", "TRM_REG": "CUSIANA - APIAY", "PK": "108+042", "PK_PAT": " ", "ID_EVENTO": "324", "TP_EVENTO": "SOCAVACIÓN LATERAL", "AMENAZA": "Alto", "ESTADO_EG": "Antiguo", "FX2": "20210826_FX2_C06_CAU_PK65-APIAY_PK108+054_VB", "OBSERVACION_GEOTECNISTA": null, "OBSERVACIO": " ", "PROFUNDIDA": 0.0, "COD_ID": "EVEN-3", "ENTREGA": "E24_R1", "LATITUD": 4.3736964600000761, "LONGITUD": -73.3001603, "ALTURA": 293.0298, "IMAGEN_1": "C001_IMG_20250708_112526.jpg", "IMAGEN_2": "C001_IMG_20250708_112539.jpg", "IMAGEN_3": "C001_IMG_20250708_112545.jpg", "VISUALIZAR_IMAGEN_1": "https://drive.google.com/uc?export=view&id=1kMsFlnBXFuhVe0dpxKdaXUDocct2xdKr", "VISUALIZAR_IMAGEN_2": "https://drive.google.com/uc?export=view&id=1-H7TBL7YDwHTRnVA3kBLYAcaWZvtVzIC", "VISUALIZAR_IMAGEN_3": "https://drive.google.com/uc?export=view&id=13suLXgxtil5g6dVmHH6n9VlijXrSGLKE" }, "geometry": { "type": "Point", "coordinates": [ -73.300160299999959, 4.373696460000076, 293.029800000003888 ] } },
{ "type": "Feature", "properties": { "FECHA": "7/07/2025 00:00:00 (UTC)", "DEPTO": "CUNDINAMARCA", "MUNICIPIO": "PARATEBUENO", "VEREDA": "SANTA CECILIA", "GASODUCTO": "CUSIANA - APIAY - USME", "TRAMO": "PK65 - Apiay", "TP_DUCTO": "Troncal", "DISTRITO": "4", "DIAMETRO": "10\"", "TRM_REG": "CUSIANA - APIAY", "PK": "113+073", "PK_PAT": " ", "ID_EVENTO": "326", "TP_EVENTO": "SOCAVACIÓN DE FONDO", "AMENAZA": "Alto", "ESTADO_EG": "Antiguo", "FX2": "20220112_FX2_C06_CAU_PK65-APIAY_PK113+057_VA", "OBSERVACION_GEOTECNISTA": null, "OBSERVACIO": " ", "PROFUNDIDA": 0.0, "COD_ID": "EVEN-4", "ENTREGA": "E24_R1", "LATITUD": 4.3403760100000568, "LONGITUD": -73.32605486999995, "ALTURA": 382.7173, "IMAGEN_1": "C001_IMG_20250707_110811.jpg", "IMAGEN_2": "C001_IMG_20250707_110820.jpg", "IMAGEN_3": "C001_IMG_20250707_110829.jpg", "VISUALIZAR_IMAGEN_1": "https://drive.google.com/uc?export=view&id=1WV6ERYt6gGrLRT02RJHx-ZxqBcVNTXyP", "VISUALIZAR_IMAGEN_2": "https://drive.google.com/uc?export=view&id=1A7gcSNkgY8uUDfiqBmsRw_R2WRA6Zmvt", "VISUALIZAR_IMAGEN_3": "https://drive.google.com/uc?export=view&id=1WDam4sObbuccy89KcSaOFVlziKVNX-dQ" }, "geometry": { "type": "Point", "coordinates": [ -73.32605486999995, 4.340376010000057, 382.717300000003888 ] } },
{ "type": "Feature", "properties": { "FECHA": "7/07/2025 00:00:00 (UTC)", "DEPTO": "CUNDINAMARCA", "MUNICIPIO": "PARATEBUENO", "VEREDA": "SANTA CECILIA", "GASODUCTO": "CUSIANA - APIAY - USME", "TRAMO": "PK65 - Apiay", "TP_DUCTO": "Troncal", "DISTRITO": "4", "DIAMETRO": "10\"", "TRM_REG": "CUSIANA - APIAY", "PK": "115+142", "PK_PAT": " ", "ID_EVENTO": "327", "TP_EVENTO": "SOCAVACIÓN DE FONDO", "AMENAZA": "Medio", "ESTADO_EG": "Antiguo", "FX2": "20240510_FX2_C06_CAU_PK65-APIAY_PK115+237_VA.xlsx", "OBSERVACION_GEOTECNISTA": null, "OBSERVACIO": " ", "PROFUNDIDA": 0.0, "COD_ID": "EVEN-5", "ENTREGA": "E24_R1", "LATITUD": 4.340064, "LONGITUD": -73.344381, "ALTURA": 394.0485, "IMAGEN_1": "C001_IMG_20250707_123815.jpg", "IMAGEN_2": "C001_IMG_20250707_123807.jpg", "IMAGEN_3": "C001_IMG_20250707_123759.jpg", "VISUALIZAR_IMAGEN_1": "https://drive.google.com/uc?export=view&id=1L6vhlvMzpAymVm5Ph7vedzRPzFX5BTqt", "VISUALIZAR_IMAGEN_2": "https://drive.google.com/uc?export=view&id=1ChcgLcuSAefdfXQTS6e38LdqbCqRnTc9", "VISUALIZAR_IMAGEN_3": "https://drive.google.com/uc?export=view&id=1XDSUG-BXjtwgq7IIOtLg31fk4XclXOCC" }, "geometry": { "type": "Point", "coordinates": [ -73.344381, 4.340064, 394.048500000004424 ] } },
{ "type": "Feature", "properties": { "FECHA": "5/07/2025 00:00:00 (UTC)", "DEPTO": "CUNDINAMARCA", "MUNICIPIO": "PARATEBUENO", "VEREDA": "SANTA INES", "GASODUCTO": "CUSIANA - APIAY - USME", "TRAMO": "PK65 - Apiay", "TP_DUCTO": "Troncal", "DISTRITO": "4", "DIAMETRO": "10\"", "TRM_REG": "CUSIANA - APIAY", "PK": "119+885", "PK_PAT": " ", "ID_EVENTO": "328", "TP_EVENTO": "SOCAVACIÓN DE FONDO", "AMENAZA": "Medio", "ESTADO_EG": "Antiguo", "FX2": "20240515_FX2_C06_CAU_PK65-APIAY_PK119+867_VB", "OBSERVACION_GEOTECNISTA": null, "OBSERVACIO": " ", "PROFUNDIDA": 0.0, "COD_ID": "EVEN-6", "ENTREGA": "E24_R1", "LATITUD": 4.3264330000000655, "LONGITUD": -73.384012, "ALTURA": 314.8395, "IMAGEN_1": "C001_IMG_20250705_083450.jpg", "IMAGEN_2": "C001_IMG_20250705_083456.jpg", "IMAGEN_3": "C001_IMG_20250705_083507.jpg", "VISUALIZAR_IMAGEN_1": "https://drive.google.com/uc?export=view&id=1ZoFNS2ObTmPjCsIsxMSZNGII7G7f8lEP", "VISUALIZAR_IMAGEN_2": "https://drive.google.com/uc?export=view&id=1xPrPhjdf9JoXdQsfvi-zgvaSPAYKkqQy", "VISUALIZAR_IMAGEN_3": "https://drive.google.com/uc?export=view&id=1Dej45nbUEKMYoCGPNDaHx-bkTgAAMyFF" }, "geometry": { "type": "Point", "coordinates": [ -73.384012, 4.326433, 314.839500000001863 ] } },
{ "type": "Feature", "properties": { "FECHA": "5/07/2025 00:00:00 (UTC)", "DEPTO": "CUNDINAMARCA", "MUNICIPIO": "PARATEBUENO", "VEREDA": "BOQUERON", "GASODUCTO": "CUSIANA - APIAY - USME", "TRAMO": "PK65 - Apiay", "TP_DUCTO": "Troncal", "DISTRITO": "4", "DIAMETRO": "10\"", "TRM_REG": "CUSIANA - APIAY", "PK": "123+127", "PK_PAT": " ", "ID_EVENTO": "329", "TP_EVENTO": "SOCAVACIÓN DE FONDO", "AMENAZA": "Bajo", "ESTADO_EG": "Antiguo", "FX2": "20240515_FX2_C06_CAU_PK65-APIAY_PK123+127_VB", "OBSERVACION_GEOTECNISTA": null, "OBSERVACIO": " ", "PROFUNDIDA": 0.0, "COD_ID": "EVEN-7", "ENTREGA": "E24_R1", "LATITUD": 4.314895, "LONGITUD": -73.409791, "ALTURA": 338.63280000000668, "IMAGEN_1": "C001_IMG_20250705_102452.jpg", "IMAGEN_2": "C001_IMG_20250705_102557.jpg", "IMAGEN_3": "C001_IMG_20250705_102609.jpg", "VISUALIZAR_IMAGEN_1": "https://drive.google.com/uc?export=view&id=1Jwm2PZ24R1UwOTl1SrkLo7n_SspoaGk2", "VISUALIZAR_IMAGEN_2": "https://drive.google.com/uc?export=view&id=1bI1EMx4EbgSZBVdDb4rPFeKQTpHadgyy", "VISUALIZAR_IMAGEN_3": "https://drive.google.com/uc?export=view&id=1tUDcbA18jYtfoaXEdXeCtUg9Kxuk5dZ-" }, "geometry": { "type": "Point", "coordinates": [ -73.409791, 4.314895, 338.632800000006682 ] } },
{ "type": "Feature", "properties": { "FECHA": "4/07/2025 00:00:00 (UTC)", "DEPTO": "META", "MUNICIPIO": "CUMARAL", "VEREDA": "INSPECCIÓN PRESENTADO", "GASODUCTO": "CUSIANA - APIAY - USME", "TRAMO": "PK65 - Apiay", "TP_DUCTO": "Troncal", "DISTRITO": "4", "DIAMETRO": "10\"", "TRM_REG": "CUSIANA - APIAY", "PK": "126+680", "PK_PAT": " ", "ID_EVENTO": "330", "TP_EVENTO": "SOCAVACIÓN DE FONDO", "AMENAZA": "Medio", "ESTADO_EG": "Antiguo", "FX2": "20240516_FX2_C06_CAU_PK65-APIAY_PK126+679_VA.xlsx", "OBSERVACION_GEOTECNISTA": null, "OBSERVACIO": " ", "PROFUNDIDA": 0.0, "COD_ID": "EVEN-8", "ENTREGA": "E24_R1", "LATITUD": 4.2841, "LONGITUD": -73.4083, "ALTURA": 332.0791, "IMAGEN_1": "C001_IMG_20250704_094416.jpg", "IMAGEN_2": "C001_IMG_20250704_094433.jpg", "IMAGEN_3": "C001_IMG_20250704_094440.jpg", "VISUALIZAR_IMAGEN_1": "https://drive.google.com/uc?export=view&id=17EUhyPDtvF5Ic8nJxtwrdLQ9gPwW7otI", "VISUALIZAR_IMAGEN_2": "https://drive.google.com/uc?export=view&id=1qM4xIhD4bShDJpTM5YiidERdTk0w62SM", "VISUALIZAR_IMAGEN_3": "https://drive.google.com/uc?export=view&id=1h_I4cfcxX5KaDUIIlE-yYp2STYu1TT46" }, "geometry": { "type": "Point", "coordinates": [ -73.4083, 4.2841, 332.079100000002654 ] } },
{ "type": "Feature", "properties": { "FECHA": "2/07/2025 00:00:00 (UTC)", "DEPTO": "META", "MUNICIPIO": "CUMARAL", "VEREDA": "INSPECCION SAN NICOLAS", "GASODUCTO": "CUSIANA - APIAY - USME", "TRAMO": "PK65 - Apiay", "TP_DUCTO": "Troncal", "DISTRITO": "4", "DIAMETRO": "10\"", "TRM_REG": "CUSIANA - APIAY", "PK": "134+803", "PK_PAT": " ", "ID_EVENTO": "332", "TP_EVENTO": "SOCAVACIÓN DE FONDO", "AMENAZA": "Extremo", "ESTADO_EG": "Antiguo", "FX2": "20220113_FX2_C06_CAU_PK65-APIAY_PK134+814_VA", "OBSERVACION_GEOTECNISTA": null, "OBSERVACIO": " ", "PROFUNDIDA": 0.0, "COD_ID": "EVEN-9", "ENTREGA": "E24_R1", "LATITUD": 4.212699, "LONGITUD": -73.394052, "ALTURA": 338.7703, "IMAGEN_1": "C001_IMG_20250702_091037.jpg", "IMAGEN_2": "C001_IMG_20250702_091022.jpg", "IMAGEN_3": "C001_IMG_20250702_091001.jpg", "VISUALIZAR_IMAGEN_1": "https://drive.google.com/uc?export=view&id=1IiOGpDPGLqgUQDrF9zsmE81oiUXyRoPu", "VISUALIZAR_IMAGEN_2": "https://drive.google.com/uc?export=view&id=1uBSBJixktmZ8A9nFw_oZgklbh1rZMmky", "VISUALIZAR_IMAGEN_3": "https://drive.google.com/uc?export=view&id=1RChDS14kXZY-z3W5g-f-rnR38T6ghKYd" }, "geometry": { "type": "Point", "coordinates": [ -73.394052, 4.212699, 338.770300000003772 ] } },
{ "type": "Feature", "properties": { "FECHA": "2/07/2025 00:00:00 (UTC)", "DEPTO": "META", "MUNICIPIO": "CUMARAL", "VEREDA": "INSPECCION SAN NICOLAS", "GASODUCTO": "CUSIANA - APIAY - USME", "TRAMO": "PK65 - Apiay", "TP_DUCTO": "Troncal", "DISTRITO": "4", "DIAMETRO": "10\"", "TRM_REG": "CUSIANA - APIAY", "PK": "135+049", "PK_PAT": " ", "ID_EVENTO": "333", "TP_EVENTO": "SOCAVACIÓN DE FONDO", "AMENAZA": "Extremo", "ESTADO_EG": "Antiguo", "FX2": "20220113_FX2_C06_CAU_PK65-APIAY_PK135+040_VB", "OBSERVACION_GEOTECNISTA": null, "OBSERVACIO": " ", "PROFUNDIDA": 0.0, "COD_ID": "EVEN-10", "ENTREGA": "E24_R1", "LATITUD": 4.210738, "LONGITUD": -73.39391, "ALTURA": 336.5716, "IMAGEN_1": "C001_IMG_20250702_092334.jpg", "IMAGEN_2": "C001_IMG_20250702_092353.jpg", "IMAGEN_3": "C001_IMG_20250702_092413.jpg", "VISUALIZAR_IMAGEN_1": "https://drive.google.com/uc?export=view&id=1LAQlEGQP5FIgCiC5G8Acuz7S7bpJCO0h", "VISUALIZAR_IMAGEN_2": "https://drive.google.com/uc?export=view&id=1-990mu9obzJHPf380Asph2Biyd8ZKtF8", "VISUALIZAR_IMAGEN_3": "https://drive.google.com/uc?export=view&id=1vJ4mS61sTX_7ocBng_MejOg_0nXPE_RZ" }, "geometry": { "type": "Point", "coordinates": [ -73.39391, 4.210738, 336.571599999995669 ] } },
{ "type": "Feature", "properties": { "FECHA": "7/07/2025 00:00:00 (UTC)", "DEPTO": "CUNDINAMARCA", "MUNICIPIO": "PARATEBUENO", "VEREDA": "SANTA CECILIA", "GASODUCTO": "CUSIANA - APIAY - USME", "TRAMO": "PK65 - Apiay", "TP_DUCTO": "Troncal", "DISTRITO": "4", "DIAMETRO": "10\"", "TRM_REG": "CUSIANA - APIAY", "PK": "114+251", "PK_PAT": " ", "ID_EVENTO": "731", "TP_EVENTO": "SOCAVACIÓN DE FONDO", "AMENAZA": "Medio", "ESTADO_EG": "Antiguo", "FX2": "20240510_FX2_C06_CAU_PK65-APIAY_PK114+290_VB", "OBSERVACION_GEOTECNISTA": null, "OBSERVACIO": " ", "PROFUNDIDA": 0.0, "COD_ID": "EVEN-11", "ENTREGA": "E24_R1", "LATITUD": 4.34025, "LONGITUD": -73.336818, "ALTURA": 397.4063, "IMAGEN_1": "C001_IMG_20250707_115420.jpg", "IMAGEN_2": "C001_IMG_20250707_115424.jpg", "IMAGEN_3": "C001_IMG_20250707_115434.jpg", "VISUALIZAR_IMAGEN_1": "https://drive.google.com/uc?export=view&id=1lk8SvbvUS5i6gFhHwk_dPnKhjbGUCTE7", "VISUALIZAR_IMAGEN_2": "https://drive.google.com/uc?export=view&id=1JmyUXu0OvxrwKE77VQ0vDmR6uihKn_Zj", "VISUALIZAR_IMAGEN_3": "https://drive.google.com/uc?export=view&id=1vhV_S86KXV-CSEWEp6f58CKWjUcWq2EK" }, "geometry": { "type": "Point", "coordinates": [ -73.336818, 4.34025, 397.406300000002375 ] } },
{ "type": "Feature", "properties": { "FECHA": "7/07/2025 00:00:00 (UTC)", "DEPTO": "CUNDINAMARCA", "MUNICIPIO": "PARATEBUENO", "VEREDA": "SANTA CECILIA", "GASODUCTO": "CUSIANA - APIAY - USME", "TRAMO": "PK65 - Apiay", "TP_DUCTO": "Troncal", "DISTRITO": "4", "DIAMETRO": "10\"", "TRM_REG": "CUSIANA - APIAY", "PK": "114+783", "PK_PAT": " ", "ID_EVENTO": "732", "TP_EVENTO": "SOCAVACIÓN DE FONDO", "AMENAZA": "Alto", "ESTADO_EG": "Antiguo", "FX2": "20220112_FX2_C06_CAU_PK65-APIAY_PK114+885_VA", "OBSERVACION_GEOTECNISTA": null, "OBSERVACIO": " ", "PROFUNDIDA": 0.0, "COD_ID": "EVEN-12", "ENTREGA": "E24_R1", "LATITUD": 4.3403940000000603, "LONGITUD": -73.341337, "ALTURA": 398.4908, "IMAGEN_1": "C001_IMG_20250707_121248.jpg", "IMAGEN_2": "C001_IMG_20250707_121252.jpg", "IMAGEN_3": "C001_IMG_20250707_121302.jpg", "VISUALIZAR_IMAGEN_1": "https://drive.google.com/uc?export=view&id=1zvSWqsn_ZoPy3HlEJBD2Rbrhyp4NZ-xf", "VISUALIZAR_IMAGEN_2": "https://drive.google.com/uc?export=view&id=19DOhMsNEevGTPtif6Q-b2u5hIo0P3YwC", "VISUALIZAR_IMAGEN_3": "https://drive.google.com/uc?export=view&id=1E72ZJ2C-x_nLGHSTipir8xhKDZ8SzS0E" }, "geometry": { "type": "Point", "coordinates": [ -73.341337, 4.340394, 398.490799999999581 ] } },
{ "type": "Feature", "properties": { "FECHA": "4/07/2025 00:00:00 (UTC)", "DEPTO": "META", "MUNICIPIO": "CUMARAL", "VEREDA": "INSPECCIÓN PRESENTADO", "GASODUCTO": "CUSIANA - APIAY - USME", "TRAMO": "PK65 - Apiay", "TP_DUCTO": "Troncal", "DISTRITO": "4", "DIAMETRO": "10\"", "TRM_REG": "CUSIANA - APIAY", "PK": "125+271", "PK_PAT": " ", "ID_EVENTO": "734", "TP_EVENTO": "SOCAVACIÓN DE FONDO", "AMENAZA": "Extremo", "ESTADO_EG": "Antiguo", "FX2": "20220112_FX2_C06_CAU_PK65-APIAY_PK125+266_VA", "OBSERVACION_GEOTECNISTA": null, "OBSERVACIO": " ", "PROFUNDIDA": 0.0, "COD_ID": "EVEN-13", "ENTREGA": "E24_R1", "LATITUD": 4.2966430000000742, "LONGITUD": -73.410076, "ALTURA": 336.4575, "IMAGEN_1": "C001_IMG_20250704_110716.jpg", "IMAGEN_2": "C001_IMG_20250704_110719.jpg", "IMAGEN_3": "C001_IMG_20250704_110725.jpg", "VISUALIZAR_IMAGEN_1": "https://drive.google.com/uc?export=view&id=1LyL1INAlmJnbYQ87vOYOjVEX_pw_BbsT", "VISUALIZAR_IMAGEN_2": "https://drive.google.com/uc?export=view&id=14fpJJfMtkw85RKlVnAGN-MSsE2Vnt31q", "VISUALIZAR_IMAGEN_3": "https://drive.google.com/uc?export=view&id=1tnRvESq6kIkOJ4Zm2MbedeVd7GH6aUFw" }, "geometry": { "type": "Point", "coordinates": [ -73.410076, 4.296643, 336.457500000004075 ] } },
{ "type": "Feature", "properties": { "FECHA": "4/07/2025 00:00:00 (UTC)", "DEPTO": "META", "MUNICIPIO": "CUMARAL", "VEREDA": "INSPECCIÓN PRESENTADO", "GASODUCTO": "CUSIANA - APIAY - USME", "TRAMO": "PK65 - Apiay", "TP_DUCTO": "Troncal", "DISTRITO": "4", "DIAMETRO": "10\"", "TRM_REG": "CUSIANA - APIAY", "PK": "125+270", "PK_PAT": " ", "ID_EVENTO": "735", "TP_EVENTO": "SOCAVACIÓN DE FONDO", "AMENAZA": "Extremo", "ESTADO_EG": "Antiguo", "FX2": "20220112_FX2_C06_CAU_PK65-APIAY_PK125+801_VB", "OBSERVACION_GEOTECNISTA": null, "OBSERVACIO": " ", "PROFUNDIDA": 0.0, "COD_ID": "EVEN-14", "ENTREGA": "E24_R1", "LATITUD": 4.2966500000000565, "LONGITUD": -73.410092, "ALTURA": 336.4111, "IMAGEN_1": "C001_IMG_20250704_110436.jpg", "IMAGEN_2": "C001_IMG_20250704_110432.jpg", "IMAGEN_3": "C001_IMG_20250704_110644.jpg", "VISUALIZAR_IMAGEN_1": "https://drive.google.com/uc?export=view&id=1speQsFt77YtsJ-YJGLDBGKmw18OzTG1w", "VISUALIZAR_IMAGEN_2": "https://drive.google.com/uc?export=view&id=1QofYxesmduCNEWEgmwSvmFYK1AwFzY8o", "VISUALIZAR_IMAGEN_3": "https://drive.google.com/uc?export=view&id=1GVT4V3B0h5AbNUtsGHmyD8rNnjnhA4Fq" }, "geometry": { "type": "Point", "coordinates": [ -73.410092, 4.29665, 336.411099999997532 ] } },
{ "type": "Feature", "properties": { "FECHA": "9/07/2025 00:00:00 (UTC)", "DEPTO": "CUNDINAMARCA", "MUNICIPIO": "PARATEBUENO", "VEREDA": "LA EUROPA", "GASODUCTO": "CUSIANA - APIAY - USME", "TRAMO": "PK65 - Apiay", "TP_DUCTO": "Troncal", "DISTRITO": "4", "DIAMETRO": "10\"", "TRM_REG": "CUSIANA - APIAY", "PK": "103+125", "PK_PAT": " ", "ID_EVENTO": "728", "TP_EVENTO": "SOCAVACIÓN DE FONDO", "AMENAZA": "Alto", "ESTADO_EG": "Antiguo", "FX2": "20210826_FX2_C06_CAU_PK65-APIAY_PK103+125_VB", "OBSERVACION_GEOTECNISTA": null, "OBSERVACIO": " ", "PROFUNDIDA": 0.0, "COD_ID": "EVEN-15", "ENTREGA": "E24_R1", "LATITUD": 4.387778, "LONGITUD": -73.269377, "ALTURA": 299.32000000000698, "IMAGEN_1": "C001_IMG_20250709_102851.jpg", "IMAGEN_2": "C001_IMG_20250709_102858.jpg", "IMAGEN_3": "C001_IMG_20250709_102905.jpg", "VISUALIZAR_IMAGEN_1": "https://drive.google.com/uc?export=view&id=1s7MZGHBOppvT55vggDk9Fl-cGuFFGf3j", "VISUALIZAR_IMAGEN_2": "https://drive.google.com/uc?export=view&id=1MdkwV_O1ckeba7W5-9PArVZUcH0y7XpJ", "VISUALIZAR_IMAGEN_3": "https://drive.google.com/uc?export=view&id=1rTgESsa4Kd3vt3K0OoOD-MHq7kJUKbm9" }, "geometry": { "type": "Point", "coordinates": [ -73.269377, 4.387778, 299.320000000006985 ] } },
{ "type": "Feature", "properties": { "FECHA": "4/06/2025 00:00:00 (UTC)", "DEPTO": "TOLIMA", "MUNICIPIO": "ALVARADO", "VEREDA": "CALDAS VIEJO", "GASODUCTO": "CENTRO - ORIENTE", "TRAMO": "Mariquita - Gualanday", "TP_DUCTO": "Troncal", "DISTRITO": "2", "DIAMETRO": "6\"", "TRM_REG": "MARIQUITA - GUALANDAY", "PK": "", "PK_PAT": null, "ID_EVENTO": "0", "TP_EVENTO": "SOCAVACIÓN DE FONDO", "AMENAZA": "Alto", "ESTADO_EG": "Antiguo", "FX2": "20210818_FX2_C02_COR_MAR-GUAL_PK365+508_VA", "OBSERVACION_GEOTECNISTA": "", "OBSERVACIO": "TUBERÍA EXPUESTA EN CAÑO", "PROFUNDIDA": null, "COD_ID": "EVEN-1", "ENTREGA": "E16_R1", "LATITUD": 4.638702, "LONGITUD": -74.935715, "ALTURA": 0.0, "IMAGEN_1": "C001_IMG_20250604_082232.jpg", "IMAGEN_2": "C001_IMG_20250604_082237.jpg", "IMAGEN_3": "C001_IMG_20250604_082243.jpg", "VISUALIZAR_IMAGEN_1": "https://drive.google.com/uc?export=view&id=1CxreoJiu4F2y9E__Y-oxbbm1O_HJbJUH", "VISUALIZAR_IMAGEN_2": "https://drive.google.com/uc?export=view&id=1jMhSIoK3PXsnMhzltNrPVWjP2Af_Ajro", "VISUALIZAR_IMAGEN_3": "https://drive.google.com/uc?export=view&id=1gIu81319YXvC2ZYOeC8DZBmNS8fQS6HZ" }, "geometry": { "type": "Point", "coordinates": [ -74.935715, 4.638702, 0.0 ] } },
{ "type": "Feature", "properties": { "FECHA": "6/06/2025 00:00:00 (UTC)", "DEPTO": "TOLIMA", "MUNICIPIO": "ALVARADO", "VEREDA": "CABECERA MUNICIPAL", "GASODUCTO": "CENTRO - ORIENTE", "TRAMO": "Mariquita - Gualanday", "TP_DUCTO": "Troncal", "DISTRITO": "2", "DIAMETRO": "6\"", "TRM_REG": "MARIQUITA - GUALANDAY", "PK": "", "PK_PAT": null, "ID_EVENTO": "0", "TP_EVENTO": "SOCAVACIÓN DE FONDO", "AMENAZA": "Alto", "ESTADO_EG": "Antiguo", "FX2": "20210818_FX2_C02_COR_MAR-GUAL_PK374+400_VA", "OBSERVACION_GEOTECNISTA": "", "OBSERVACIO": "OBRAS DE CANALIZACIÓN. DDV INTERVENIDO Y ESTABLE EN EL 2025. PROD. 1,68M", "PROFUNDIDA": null, "COD_ID": "EVEN-2", "ENTREGA": "E16_R1", "LATITUD": 4.567261, "LONGITUD": -74.947583, "ALTURA": 0.0, "IMAGEN_1": "C001_IMG_20250606_085804.jpg", "IMAGEN_2": "C001_IMG_20250606_085828.jpg", "IMAGEN_3": "C001_IMG_20250606_085832.jpg", "VISUALIZAR_IMAGEN_1": "https://drive.google.com/uc?export=view&id=1ZzDzspVSxotUEFlRIqsgSXyAz8m3WKkk", "VISUALIZAR_IMAGEN_2": "https://drive.google.com/uc?export=view&id=1tG11PysPWRpf7cxmzD-qtnc9ringha1E", "VISUALIZAR_IMAGEN_3": "https://drive.google.com/uc?export=view&id=1YCy3VmaaPDSidfFJ-GszJtaksc-7M8BC" }, "geometry": { "type": "Point", "coordinates": [ -74.947583, 4.567261, 0.0 ] } },
{ "type": "Feature", "properties": { "FECHA": "27/05/2025 00:00:00 (UTC)", "DEPTO": "TOLIMA", "MUNICIPIO": "PIEDRAS", "VEREDA": "ESTACION DOIMA", "GASODUCTO": "CENTRO - ORIENTE", "TRAMO": "Mariquita - Gualanday", "TP_DUCTO": "Troncal", "DISTRITO": "2", "DIAMETRO": "6\"", "TRM_REG": "MARIQUITA - GUALANDAY", "PK": "", "PK_PAT": null, "ID_EVENTO": "0", "TP_EVENTO": "CARCAVAS", "AMENAZA": "Alto", "ESTADO_EG": "Antiguo", "FX2": "20230921_FX2_C02_COR_MAR-GUAL_PK393+592_VA", "OBSERVACION_GEOTECNISTA": "", "OBSERVACIO": "Prof 0.45m", "PROFUNDIDA": null, "COD_ID": "EVEN-3", "ENTREGA": "E16_R1", "LATITUD": 4.419628, "LONGITUD": -75.013052, "ALTURA": 0.0, "IMAGEN_1": "C003_IMG_20250527_100244.jpg", "IMAGEN_2": "C003_IMG_20250527_100300.jpg", "IMAGEN_3": "C003_IMG_20250527_100313.jpg", "VISUALIZAR_IMAGEN_1": "https://drive.google.com/uc?export=view&id=1w0oKSbeFk-YBEZfC8fBki3vpyXxwVQxl", "VISUALIZAR_IMAGEN_2": "https://drive.google.com/uc?export=view&id=1hZDCiHJHViG1YlrEY-pT0JbUsmt-Bp7G", "VISUALIZAR_IMAGEN_3": "https://drive.google.com/uc?export=view&id=17AkC_ryVJ-PDm6cs771XQ2RuXrK2Ghvp" }, "geometry": { "type": "Point", "coordinates": [ -75.013052, 4.419628, 0.0 ] } },
{ "type": "Feature", "properties": { "FECHA": "27/05/2025 00:00:00 (UTC)", "DEPTO": "TOLIMA", "MUNICIPIO": "PIEDRAS", "VEREDA": "ESTACION DOIMA", "GASODUCTO": "CENTRO - ORIENTE", "TRAMO": "Mariquita - Gualanday", "TP_DUCTO": "Troncal", "DISTRITO": "2", "DIAMETRO": "6\"", "TRM_REG": "MARIQUITA - GUALANDAY", "PK": "", "PK_PAT": null, "ID_EVENTO": "0", "TP_EVENTO": "OTRO", "AMENAZA": "Alto", "ESTADO_EG": "Antiguo", "FX2": "20220120_FX2_C02_COR_MAR-GUAL_PK396+784_VA", "OBSERVACION_GEOTECNISTA": "", "OBSERVACIO": "Se evidencia placa y cunetas de concreto en cada margen de la via de hechura reciente", "PROFUNDIDA": null, "COD_ID": "EVEN-4", "ENTREGA": "E16_R1", "LATITUD": 4.399758, "LONGITUD": -75.03178, "ALTURA": 0.0, "IMAGEN_1": "C003_IMG_20250527_120834.jpg", "IMAGEN_2": "C003_IMG_20250527_120841.jpg", "IMAGEN_3": "C003_IMG_20250527_120847.jpg", "VISUALIZAR_IMAGEN_1": "https://drive.google.com/uc?export=view&id=1OQGKH5O9REy5GUuJu3FG4TfP2GqMnkVm", "VISUALIZAR_IMAGEN_2": "https://drive.google.com/uc?export=view&id=1NRv4Yb7UGPWL62fzIgBFArQf11KATLNa", "VISUALIZAR_IMAGEN_3": "https://drive.google.com/uc?export=view&id=1KhfTAAwUONRHFVobLp40d7w1ziTZdmnn" }, "geometry": { "type": "Point", "coordinates": [ -75.03178, 4.399758, 0.0 ] } },
{ "type": "Feature", "properties": { "FECHA": "31/05/2025 00:00:00 (UTC)", "DEPTO": "TOLIMA", "MUNICIPIO": "COELLO", "VEREDA": "GUALANDAY", "GASODUCTO": "CENTRO - ORIENTE", "TRAMO": "Mariquita - Gualanday", "TP_DUCTO": "Troncal", "DISTRITO": "2", "DIAMETRO": "6\"", "TRM_REG": "MARIQUITA - GUALANDAY", "PK": "", "PK_PAT": null, "ID_EVENTO": "0", "TP_EVENTO": "CARCAVAS", "AMENAZA": "Alto", "ESTADO_EG": "Antiguo", "FX2": "20220120_FX2_C02_COR_MAR-GUAL_PK413+667_VA", "OBSERVACION_GEOTECNISTA": "", "OBSERVACIO": "Obra de contencion reciente", "PROFUNDIDA": null, "COD_ID": "EVEN-5", "ENTREGA": "E16_R1", "LATITUD": 4.2841500000000678, "LONGITUD": -75.029832, "ALTURA": 0.0, "IMAGEN_1": "C003_IMG_20250531_093355.jpg", "IMAGEN_2": "C003_IMG_20250531_093408.jpg", "IMAGEN_3": "C003_IMG_20250531_093414.jpg", "VISUALIZAR_IMAGEN_1": "https://drive.google.com/uc?export=view&id=1s_4_8_i-iUJQFJuvG7sKcJJbC4ZXTlkF", "VISUALIZAR_IMAGEN_2": "https://drive.google.com/uc?export=view&id=1J1Gi5eiMCzVIq8Y6TgIHXYrW6y-i9C36", "VISUALIZAR_IMAGEN_3": "https://drive.google.com/uc?export=view&id=1VLD0nHtt3p2t11Reb9BWE7ekCYkpmja_" }, "geometry": { "type": "Point", "coordinates": [ -75.029832, 4.28415, 0.0 ] } },
{ "type": "Feature", "properties": { "FECHA": "31/05/2025 00:00:00 (UTC)", "DEPTO": "TOLIMA", "MUNICIPIO": "IBAGUÉ", "VEREDA": "BRICEÑO", "GASODUCTO": "CENTRO - ORIENTE", "TRAMO": "Mariquita - Gualanday", "TP_DUCTO": "Troncal", "DISTRITO": "2", "DIAMETRO": "6\"", "TRM_REG": "MARIQUITA - GUALANDAY", "PK": "", "PK_PAT": null, "ID_EVENTO": "0", "TP_EVENTO": "OTRO", "AMENAZA": "Alto", "ESTADO_EG": "Antiguo", "FX2": "20240125_FX2_C02_COR_MAR-GUAL_PK412+234_VB", "OBSERVACION_GEOTECNISTA": "", "OBSERVACIO": "Obras de canalizacion nueva", "PROFUNDIDA": null, "COD_ID": "EVEN-6", "ENTREGA": "E16_R1", "LATITUD": 4.2957000000000676, "LONGITUD": -75.0337, "ALTURA": 0.0, "IMAGEN_1": "C003_IMG_20250531_075844.jpg", "IMAGEN_2": "C003_IMG_20250531_075852.jpg", "IMAGEN_3": "C003_IMG_20250531_075858.jpg", "VISUALIZAR_IMAGEN_1": "https://drive.google.com/uc?export=view&id=1yabPlBjLEO6oOL-FfYCMJLTCpgfUweyj", "VISUALIZAR_IMAGEN_2": "https://drive.google.com/uc?export=view&id=1DdoScha0SQhL9f7IVJCWSvWJMZKVnsmm", "VISUALIZAR_IMAGEN_3": "https://drive.google.com/uc?export=view&id=1jNI1XctDA-gzK3vzs0LX7KuGjstrDjfs" }, "geometry": { "type": "Point", "coordinates": [ -75.0337, 4.2957, 0.0 ] } },
{ "type": "Feature", "properties": { "FECHA": "31/05/2025 00:00:00 (UTC)", "DEPTO": "TOLIMA", "MUNICIPIO": "COELLO", "VEREDA": "GUALANDAY", "GASODUCTO": "CENTRO - ORIENTE", "TRAMO": "Mariquita - Gualanday", "TP_DUCTO": "Troncal", "DISTRITO": "2", "DIAMETRO": "6\"", "TRM_REG": "MARIQUITA - GUALANDAY", "PK": "", "PK_PAT": null, "ID_EVENTO": null, "TP_EVENTO": "OTRO", "AMENAZA": "Alto", "ESTADO_EG": "Nuevo", "FX2": " ", "OBSERVACION_GEOTECNISTA": "", "OBSERVACIO": "Tuberia descubierta por el agua, Aprobado como EG Acta revisión de hallazgos (27/03/2025)", "PROFUNDIDA": null, "COD_ID": "EVEN-7", "ENTREGA": "", "LATITUD": 4.291048, "LONGITUD": -75.031988, "ALTURA": 0.0, "IMAGEN_1": "C003_IMG_20250531_085226.jpg", "IMAGEN_2": "C003_IMG_20250531_085235.jpg", "IMAGEN_3": "C003_IMG_20250531_085239.jpg", "VISUALIZAR_IMAGEN_1": "https://drive.google.com/uc?export=view&id=1eDo-J0XPCNxF1ms4JC3ABpF5TXaEd1y1", "VISUALIZAR_IMAGEN_2": "https://drive.google.com/uc?export=view&id=1tQIE9Olel015Fy51431TebgVkkitjVlx", "VISUALIZAR_IMAGEN_3": "https://drive.google.com/uc?export=view&id=1vGDHvVB7U0Mc2UdN6-v2dXabgQC_9TDQ" }, "geometry": { "type": "Point", "coordinates": [ -75.031988, 4.291048, 0.0 ] } },
{ "type": "Feature", "properties": { "FECHA": "30/05/2025 00:00:00 (UTC)", "DEPTO": "TOLIMA", "MUNICIPIO": "LÉRIDA", "VEREDA": "EL CENSO", "GASODUCTO": "CENTRO - ORIENTE", "TRAMO": "Ambalema", "TP_DUCTO": "Ramal", "DISTRITO": "2", "DIAMETRO": "2\"", "TRM_REG": "MARIQUITA - GUALANDAY", "PK": "006+631", "PK_PAT": null, "ID_EVENTO": "0", "TP_EVENTO": "SOCAVACIÓN DE FONDO", "AMENAZA": "Medio", "ESTADO_EG": "Nuevo", "FX2": "20250130_FX2_C02_COR_R-AMBALEMA_PK006+697_VA", "OBSERVACION_GEOTECNISTA": null, "OBSERVACIO": "Tubería expuesta por socavación en caño. Prof. 0,0", "PROFUNDIDA": null, "COD_ID": "EVEN-1", "ENTREGA": "E15_R1", "LATITUD": 4.804, "LONGITUD": -74.8744, "ALTURA": 0.0, "IMAGEN_1": "C001_IMG_20250530_083834.jpg", "IMAGEN_2": "C001_IMG_20250530_083839.jpg", "IMAGEN_3": "C001_IMG_20250530_083843.jpg", "VISUALIZAR_IMAGEN_1": "https://drive.google.com/uc?export=view&id=1LUCw02UIvcFYyoaPXHdTgHTr-hzOug0c", "VISUALIZAR_IMAGEN_2": "https://drive.google.com/uc?export=view&id=1ZDfFVTZZec7UWBC2gZ4gEW3wqM3QZvFN", "VISUALIZAR_IMAGEN_3": "https://drive.google.com/uc?export=view&id=1RF-LWUHkaBlumdNt56fSbFRXJ3RSN_rU" }, "geometry": { "type": "Point", "coordinates": [ -74.8744, 4.804, 0.0 ] } },
{ "type": "Feature", "properties": { "FECHA": "7/06/2025 00:00:00 (UTC)", "DEPTO": "VALLE DEL CAUCA", "MUNICIPIO": "PRADERA", "VEREDA": "BOLO HARTONAL", "GASODUCTO": "MARIQUITA - CALI", "TRAMO": "Pradera", "TP_DUCTO": "Ramal", "DISTRITO": "8", "DIAMETRO": "6\"", "TRM_REG": "ARMENIA - CALI", "PK": "035+782", "PK_PAT": null, "ID_EVENTO": "0", "TP_EVENTO": "OTRO", "AMENAZA": "Alto", "ESTADO_EG": "Antiguo", "FX2": "20240306_FX2_C08_MC_R-PRADERA_PK036+030_VA", "OBSERVACION_GEOTECNISTA": "", "OBSERVACIO": "1.60", "PROFUNDIDA": null, "COD_ID": "EVEN-1", "ENTREGA": "E17_R1_P2", "LATITUD": 3.425764000000072, "LONGITUD": -76.253546, "ALTURA": 0.0, "IMAGEN_1": "C002_IMG_20250607_093408.jpg", "IMAGEN_2": "C002_IMG_20250607_093418.jpg", "IMAGEN_3": "C002_IMG_20250607_093422.jpg", "VISUALIZAR_IMAGEN_1": "https://drive.google.com/uc?export=view&id=14Ynsm7AVlSQEZYrnIHbCX1Rc1p7Kp_tn", "VISUALIZAR_IMAGEN_2": "https://drive.google.com/uc?export=view&id=1L6C19TPC6udNeeOOd0wsmUS0Sq7T4Mi6", "VISUALIZAR_IMAGEN_3": "https://drive.google.com/uc?export=view&id=14qzD_anUHK9PGt8Ir2-sIPIYYwJ-kdLY" }, "geometry": { "type": "Point", "coordinates": [ -76.253546, 3.425764, 0.0 ] } },
{ "type": "Feature", "properties": { "FECHA": "31/05/2025 00:00:00 (UTC)", "DEPTO": "VALLE DEL CAUCA", "MUNICIPIO": "EL CERRITO", "VEREDA": "SAN ANTONIO", "GASODUCTO": "MARIQUITA - CALI", "TRAMO": "Pradera", "TP_DUCTO": "Ramal", "DISTRITO": "8", "DIAMETRO": "6\"", "TRM_REG": "ARMENIA - CALI", "PK": "003+820", "PK_PAT": null, "ID_EVENTO": "0", "TP_EVENTO": "SOCAVACIÓN LATERAL", "AMENAZA": "Alto", "ESTADO_EG": "Antiguo", "FX2": "20231213_FX2_C08_MC_R-PRADERA_PK003+831_VA", "OBSERVACION_GEOTECNISTA": "", "OBSERVACIO": "Estanque, no se evidencia evento", "PROFUNDIDA": null, "COD_ID": "EVEN-2", "ENTREGA": "E17_R1_P1", "LATITUD": 3.664337, "LONGITUD": -76.315792, "ALTURA": 0.0, "IMAGEN_1": "C002_IMG_20250531_101222.jpg", "IMAGEN_2": "C002_IMG_20250531_101230.jpg", "IMAGEN_3": "C002_IMG_20250531_101235.jpg", "VISUALIZAR_IMAGEN_1": "https://drive.google.com/uc?export=view&id=1u9FgNFg7lW6mq3-XtPF49xpfNjhZjAbY", "VISUALIZAR_IMAGEN_2": "https://drive.google.com/uc?export=view&id=1zK1FsqMygqZAz_Kr_AVa8DqB8PrfpDd2", "VISUALIZAR_IMAGEN_3": "https://drive.google.com/uc?export=view&id=19z7IE_OqQiFE2Cbhx_xTHLodOdSXWF2Z" }, "geometry": { "type": "Point", "coordinates": [ -76.315792, 3.664337, 0.0 ] } },
{ "type": "Feature", "properties": { "FECHA": "4/06/2025 00:00:00 (UTC)", "DEPTO": "VALLE DEL CAUCA", "MUNICIPIO": "PALMIRA", "VEREDA": "PALMASECA", "GASODUCTO": "MARIQUITA - CALI", "TRAMO": "Pradera", "TP_DUCTO": "Ramal", "DISTRITO": "8", "DIAMETRO": "6\"", "TRM_REG": "ARMENIA - CALI", "PK": "020+789", "PK_PAT": null, "ID_EVENTO": "0", "TP_EVENTO": "CARCAVAS", "AMENAZA": "Medio", "ESTADO_EG": "Antiguo", "FX2": "20231213_FX2_C08_MC_R-PRADERA_PK020+000_VA", "OBSERVACION_GEOTECNISTA": "", "OBSERVACIO": "No se evidencia carcavas", "PROFUNDIDA": null, "COD_ID": "EVEN-3", "ENTREGA": "E17_R1_P1", "LATITUD": 3.520203, "LONGITUD": -76.332975, "ALTURA": 0.0, "IMAGEN_1": "C002_IMG_20250604_081601.jpg", "IMAGEN_2": "C002_IMG_20250604_081605.jpg", "IMAGEN_3": "C002_IMG_20250604_081607.jpg", "VISUALIZAR_IMAGEN_1": "https://drive.google.com/uc?export=view&id=1nKp2FzdhBgwbVRZ-lFmOHFVbqiXhIhuC", "VISUALIZAR_IMAGEN_2": "https://drive.google.com/uc?export=view&id=1XQ5hs9_GfEmEmA9hVdJFEhZg0bofziEY", "VISUALIZAR_IMAGEN_3": "https://drive.google.com/uc?export=view&id=1xfrqSKaqRBK4cvxuJPOk5XeCmOnskM0P" }, "geometry": { "type": "Point", "coordinates": [ -76.332975, 3.520203, 0.0 ] } },
{ "type": "Feature", "properties": { "FECHA": "27/05/2025 00:00:00 (UTC)", "DEPTO": "TOLIMA", "MUNICIPIO": "GUAMO", "VEREDA": "LAS MERCEDES EL OVAL", "GASODUCTO": "CENTRO - ORIENTE", "TRAMO": "Gualanday - Guasimal", "TP_DUCTO": "Troncal", "DISTRITO": "2", "DIAMETRO": "12\"", "TRM_REG": "GUALANDAY - NEIVA", "PK": "428+465", "PK_PAT": null, "ID_EVENTO": "0", "TP_EVENTO": "SOCAVACIÓN DE FONDO", "AMENAZA": "Alto", "ESTADO_EG": "Antiguo", "FX2": "20210820_FX2_C02_COR_GUAL-GUAS_PK428+589_VA", "OBSERVACION_GEOTECNISTA": "", "OBSERVACIO": "No se evidencia evento menor", "PROFUNDIDA": null, "COD_ID": "EVEN-1", "ENTREGA": "E18_R1", "LATITUD": 4.1777230000000714, "LONGITUD": -74.991552, "ALTURA": 0.0, "IMAGEN_1": "C004_IMG_20250527_090308.jpg", "IMAGEN_2": "C004_IMG_20250527_090335.jpg", "IMAGEN_3": "C004_IMG_20250527_090418.jpg", "VISUALIZAR_IMAGEN_1": "https://drive.google.com/uc?export=view&id=1j-wJwyu6zr3jwPaXeSvvZpglXtJg1ohu", "VISUALIZAR_IMAGEN_2": "https://drive.google.com/uc?export=view&id=1GwKwZTTGHAwELTk4ttAxY7aRRhJqJHln", "VISUALIZAR_IMAGEN_3": "https://drive.google.com/uc?export=view&id=150nSF6yS0uYM5t2qVbnfKT88yFwdwVWN" }, "geometry": { "type": "Point", "coordinates": [ -74.991552, 4.177723, 0.0 ] } },
{ "type": "Feature", "properties": { "FECHA": "28/05/2025 00:00:00 (UTC)", "DEPTO": "TOLIMA", "MUNICIPIO": "GUAMO", "VEREDA": "CALLEJON DE GUADUAS", "GASODUCTO": "CENTRO - ORIENTE", "TRAMO": "Gualanday - Guasimal", "TP_DUCTO": "Troncal", "DISTRITO": "2", "DIAMETRO": "12\"", "TRM_REG": "GUALANDAY - NEIVA", "PK": "432+010", "PK_PAT": null, "ID_EVENTO": "0", "TP_EVENTO": "SOCAVACIÓN DE FONDO", "AMENAZA": "Alto", "ESTADO_EG": "Antiguo", "FX2": "20230921_FX2_C02_COR_GUAL-GUAS_PK432+019_VA", "OBSERVACION_GEOTECNISTA": "", "OBSERVACIO": "Se evidencia socavacion de menor tamaño 3 m aproximación.", "PROFUNDIDA": null, "COD_ID": "EVEN-2", "ENTREGA": "E18_R1", "LATITUD": 4.14781, "LONGITUD": -74.981088, "ALTURA": 0.0, "IMAGEN_1": "C004_IMG_20250528_083553.jpg", "IMAGEN_2": "C004_IMG_20250528_083601.jpg", "IMAGEN_3": "C004_IMG_20250528_083618.jpg", "VISUALIZAR_IMAGEN_1": "https://drive.google.com/uc?export=view&id=1Eg9mXxKD4b1Iv7VAOk06Juw6OCmVgbBy", "VISUALIZAR_IMAGEN_2": "https://drive.google.com/uc?export=view&id=1aViKpm0Avu0T-GsY0qV_kNpS9xg8bMG_", "VISUALIZAR_IMAGEN_3": "https://drive.google.com/uc?export=view&id=1FgmbjxTDofwe1Ob9B1dwhPXBDkSxtZxo" }, "geometry": { "type": "Point", "coordinates": [ -74.981088, 4.14781, 0.0 ] } },
{ "type": "Feature", "properties": { "FECHA": "29/05/2025 00:00:00 (UTC)", "DEPTO": "TOLIMA", "MUNICIPIO": "GUAMO", "VEREDA": "JAGUALITO PUEBLO NUEVO", "GASODUCTO": "CENTRO - ORIENTE", "TRAMO": "Gualanday - Guasimal", "TP_DUCTO": "Troncal", "DISTRITO": "2", "DIAMETRO": "12\"", "TRM_REG": "GUALANDAY - NEIVA", "PK": "435+184", "PK_PAT": null, "ID_EVENTO": "0", "TP_EVENTO": "SOCAVACIÓN DE FONDO", "AMENAZA": "Alto", "ESTADO_EG": "Antiguo", "FX2": "20210820_FX2_C02_COR_GUAL-GUAS_PK435+200_VB", "OBSERVACION_GEOTECNISTA": "", "OBSERVACIO": "Socavacion longitudinal donde termina la placa.", "PROFUNDIDA": null, "COD_ID": "EVEN-3", "ENTREGA": "E18_R1", "LATITUD": 4.120984, "LONGITUD": -74.974548, "ALTURA": 0.0, "IMAGEN_1": "C004_IMG_20250529_081951.jpg", "IMAGEN_2": "C004_IMG_20250529_081957.jpg", "IMAGEN_3": "C004_IMG_20250529_082016.jpg", "VISUALIZAR_IMAGEN_1": "https://drive.google.com/uc?export=view&id=1RWpR9Ud_bHottkyGumObcqZIHLF9o-BN", "VISUALIZAR_IMAGEN_2": "https://drive.google.com/uc?export=view&id=1jv4SOLPgMud-ktbnBiF4E0ViT0AWLYJd", "VISUALIZAR_IMAGEN_3": "https://drive.google.com/uc?export=view&id=1TpkkfjvLQh0giF_nv325oxt0ec0c8l_5" }, "geometry": { "type": "Point", "coordinates": [ -74.974548, 4.120984, 0.0 ] } },
{ "type": "Feature", "properties": { "FECHA": "31/05/2025 00:00:00 (UTC)", "DEPTO": "TOLIMA", "MUNICIPIO": "GUAMO", "VEREDA": "EL BADEO", "GASODUCTO": "CENTRO - ORIENTE", "TRAMO": "Gualanday - Guasimal", "TP_DUCTO": "Troncal", "DISTRITO": "2", "DIAMETRO": "12\"", "TRM_REG": "GUALANDAY - NEIVA", "PK": "442+592", "PK_PAT": null, "ID_EVENTO": "0", "TP_EVENTO": "SOCAVACIÓN DE FONDO", "AMENAZA": "Alto", "ESTADO_EG": "Antiguo", "FX2": "20210819_FX2_C02_COR_GUAL-GUAS_PK442+592_VA", "OBSERVACION_GEOTECNISTA": "", "OBSERVACIO": "", "PROFUNDIDA": null, "COD_ID": "EVEN-4", "ENTREGA": "E18_R1", "LATITUD": 4.058648000000062, "LONGITUD": -74.972808, "ALTURA": 0.0, "IMAGEN_1": "C004_IMG_20250531_100146.jpg", "IMAGEN_2": "C004_IMG_20250531_100155.jpg", "IMAGEN_3": "C004_IMG_20250531_100201.jpg", "VISUALIZAR_IMAGEN_1": "https://drive.google.com/uc?export=view&id=1smoTp9fNQxl5E9UVV8OewqV0awKeGs7A", "VISUALIZAR_IMAGEN_2": "https://drive.google.com/uc?export=view&id=1BriYQF12OlNBRudhou_3wkp2b83aTr33", "VISUALIZAR_IMAGEN_3": "https://drive.google.com/uc?export=view&id=1yK1xi3qNVohg9pt6bD-yy5eR0qwu55m1" }, "geometry": { "type": "Point", "coordinates": [ -74.972808, 4.058648, 0.0 ] } },
{ "type": "Feature", "properties": { "FECHA": "3/06/2025 00:00:00 (UTC)", "DEPTO": "TOLIMA", "MUNICIPIO": "GUAMO", "VEREDA": "CARACOLI E IGUAES", "GASODUCTO": "CENTRO - ORIENTE", "TRAMO": "Gualanday - Guasimal", "TP_DUCTO": "Troncal", "DISTRITO": "2", "DIAMETRO": "12\"", "TRM_REG": "GUALANDAY - NEIVA", "PK": "449+209", "PK_PAT": null, "ID_EVENTO": "0", "TP_EVENTO": "SOCAVACIÓN DE FONDO", "AMENAZA": "Alto", "ESTADO_EG": "Antiguo", "FX2": "20210819_FX2_C02_COR_GUAL-GUAS_PK449+216_VA", "OBSERVACION_GEOTECNISTA": "", "OBSERVACIO": "", "PROFUNDIDA": null, "COD_ID": "EVEN-5", "ENTREGA": "E18_R1", "LATITUD": 4.003298, "LONGITUD": -74.981863, "ALTURA": 0.0, "IMAGEN_1": "C004_IMG_20250603_071347.jpg", "IMAGEN_2": "C004_IMG_20250603_071352.jpg", "IMAGEN_3": "C004_IMG_20250603_071400.jpg", "VISUALIZAR_IMAGEN_1": "https://drive.google.com/uc?export=view&id=1EBIPe4Qrb2jb1qycWgtw3J2Jtp4fK7_Y", "VISUALIZAR_IMAGEN_2": "https://drive.google.com/uc?export=view&id=19MSPVNW_IqNk_1_kea5ci3A9xWa-zX9O", "VISUALIZAR_IMAGEN_3": "https://drive.google.com/uc?export=view&id=1bVd305mliIo5zNMujm46tfcN0vQcawVk" }, "geometry": { "type": "Point", "coordinates": [ -74.981863, 4.003298, 0.0 ] } },
{ "type": "Feature", "properties": { "FECHA": "28/05/2025 00:00:00 (UTC)", "DEPTO": "TOLIMA", "MUNICIPIO": "GUAMO", "VEREDA": "CAÑADA BAJA", "GASODUCTO": "CENTRO - ORIENTE", "TRAMO": "Gualanday - Guasimal", "TP_DUCTO": "Troncal", "DISTRITO": "2", "DIAMETRO": "12\"", "TRM_REG": "GUALANDAY - NEIVA", "PK": "432+593", "PK_PAT": null, "ID_EVENTO": "0", "TP_EVENTO": "SOCAVACIÓN DE FONDO", "AMENAZA": "Alto", "ESTADO_EG": "Antiguo", "FX2": "20230221_FX2_C02_COR_GUAL-GUAS_PK432+591_VA", "OBSERVACION_GEOTECNISTA": "", "OBSERVACIO": "No se evidencia evento menor", "PROFUNDIDA": null, "COD_ID": "EVEN-6", "ENTREGA": "E18_R1", "LATITUD": 4.143136, "LONGITUD": -74.978821, "ALTURA": 0.0, "IMAGEN_1": "C004_IMG_20250528_093447.jpg", "IMAGEN_2": "C004_IMG_20250528_093500.jpg", "IMAGEN_3": "C004_IMG_20250528_093513.jpg", "VISUALIZAR_IMAGEN_1": "https://drive.google.com/uc?export=view&id=1fflW8eJ6SM4XATB-w_aiNwe_XAlJWHr5", "VISUALIZAR_IMAGEN_2": "https://drive.google.com/uc?export=view&id=1nKmUFKfH2J745bP-PQAjdcmFh5onrsKD", "VISUALIZAR_IMAGEN_3": "https://drive.google.com/uc?export=view&id=1O0kCivXF-ls5YY4nuC_YJDSpT57s0Lx_" }, "geometry": { "type": "Point", "coordinates": [ -74.978821, 4.143136, 0.0 ] } },
{ "type": "Feature", "properties": { "FECHA": "26/05/2025 00:00:00 (UTC)", "DEPTO": "TOLIMA", "MUNICIPIO": "GUAMO", "VEREDA": "LAS MERCEDES", "GASODUCTO": "CENTRO - ORIENTE", "TRAMO": "Gualanday - Guasimal", "TP_DUCTO": "Troncal", "DISTRITO": "2", "DIAMETRO": "12\"", "TRM_REG": "GUALANDAY - NEIVA", "PK": "425+053", "PK_PAT": null, "ID_EVENTO": "0", "TP_EVENTO": "OTRO", "AMENAZA": "Extremo", "ESTADO_EG": "Antiguo", "FX2": "20230921_FX2_C02_COR_GUAL-GUAS_PK425+051_VA", "OBSERVACION_GEOTECNISTA": "", "OBSERVACIO": "No se evidencia evento geotecnico", "PROFUNDIDA": null, "COD_ID": "EVEN-7", "ENTREGA": "E18_R1", "LATITUD": 4.2080570000000534, "LONGITUD": -74.995913, "ALTURA": 0.0, "IMAGEN_1": "C004_IMG_20250526_102408.jpg", "IMAGEN_2": "C004_IMG_20250526_102416.jpg", "IMAGEN_3": "C004_IMG_20250526_102428.jpg", "VISUALIZAR_IMAGEN_1": "https://drive.google.com/uc?export=view&id=1xEK2lcYBgpuUxI1N4-WPD04tYRtlFK3L", "VISUALIZAR_IMAGEN_2": "https://drive.google.com/uc?export=view&id=11VaCEeIOlie2Qn2Y3yWXr4CO9ZbV16fE", "VISUALIZAR_IMAGEN_3": "https://drive.google.com/uc?export=view&id=1pVUAX75fsNs3B9Oo_pwmu0tImyzfCGN_" }, "geometry": { "type": "Point", "coordinates": [ -74.995913, 4.208057, 0.0 ] } },
{ "type": "Feature", "properties": { "FECHA": "2/06/2025 00:00:00 (UTC)", "DEPTO": "TOLIMA", "MUNICIPIO": "COELLO", "VEREDA": "CHAGUALA  AFUERA", "GASODUCTO": "CENTRO - ORIENTE", "TRAMO": "Gualanday - Guasimal", "TP_DUCTO": "Troncal", "DISTRITO": "2", "DIAMETRO": "12\"", "TRM_REG": "GUALANDAY - NEIVA", "PK": "420+599", "PK_PAT": null, "ID_EVENTO": "0", "TP_EVENTO": "SOCAVACIÓN DE FONDO", "AMENAZA": "Extremo", "ESTADO_EG": "Antiguo", "FX2": "20220616_FX2_C02_COR_GUAL-GUAS_PK420+362_VA", "OBSERVACION_GEOTECNISTA": "", "OBSERVACIO": "Se ejecutan obras en este momento.", "PROFUNDIDA": null, "COD_ID": "EVEN-8", "ENTREGA": "E18_R1", "LATITUD": 4.2456290000000649, "LONGITUD": -74.990932, "ALTURA": 0.0, "IMAGEN_1": "C003_IMG_20250602_090701.jpg", "IMAGEN_2": "C003_IMG_20250602_090710.jpg", "IMAGEN_3": "C003_IMG_20250602_090716.jpg", "VISUALIZAR_IMAGEN_1": "https://drive.google.com/uc?export=view&id=1MQVslS8KIPWzd8IzcbvsLR2lTiK233iI", "VISUALIZAR_IMAGEN_2": "https://drive.google.com/uc?export=view&id=1PNhAa2xxp-Cg52D4wkPOD0DnzKrte227", "VISUALIZAR_IMAGEN_3": "https://drive.google.com/uc?export=view&id=1s96qXCdxqtyi1bdb0xf5bHYiiLKbPdyW" }, "geometry": { "type": "Point", "coordinates": [ -74.990932, 4.245629, 0.0 ] } },
{ "type": "Feature", "properties": { "FECHA": "9/06/2025 00:00:00 (UTC)", "DEPTO": "TOLIMA", "MUNICIPIO": "SAN LUIS", "VEREDA": "LA CAÑADA", "GASODUCTO": "CENTRO - ORIENTE", "TRAMO": "Montañuelo - Gualanday", "TP_DUCTO": "Ramal Remitente", "DISTRITO": "2", "DIAMETRO": "6\"", "TRM_REG": "MONTANUELO - GUALANDAY", "PK": "001+805", "PK_PAT": null, "ID_EVENTO": "0", "TP_EVENTO": "OTRO", "AMENAZA": "Bajo", "ESTADO_EG": "Antiguo", "FX2": "20230410_FX2_C02_COR_R-MONTANUEL_PK001+807_VA", "OBSERVACION_GEOTECNISTA": "", "OBSERVACIO": "Cavidad en cuneta", "PROFUNDIDA": null, "COD_ID": "EVEN-1", "ENTREGA": "E19_R1", "LATITUD": 4.0582840000000715, "LONGITUD": -75.146869, "ALTURA": 0.0, "IMAGEN_1": "C003_IMG_20250609_094400.jpg", "IMAGEN_2": "C003_IMG_20250609_094414.jpg", "IMAGEN_3": "C003_IMG_20250609_094418.jpg", "VISUALIZAR_IMAGEN_1": "https://drive.google.com/uc?export=view&id=1ajUyM_q54oWM2fS_JxSwiYl3cqB6GSDs", "VISUALIZAR_IMAGEN_2": "https://drive.google.com/uc?export=view&id=1C3AwPll0rJSIJzV5Z0ohLDXtElxxwz6l", "VISUALIZAR_IMAGEN_3": "https://drive.google.com/uc?export=view&id=1Vjl-Uon3pTD_P1ojnsWDWbBsJYBqh5iz" }, "geometry": { "type": "Point", "coordinates": [ -75.146869, 4.058284, 0.0 ] } },
{ "type": "Feature", "properties": { "FECHA": "8/06/2025 00:00:00 (UTC)", "DEPTO": "TOLIMA", "MUNICIPIO": "SALDAÑA", "VEREDA": "JABALCÓN", "GASODUCTO": "CENTRO - ORIENTE", "TRAMO": "Gualanday - Guasimal", "TP_DUCTO": "Troncal", "DISTRITO": "2", "DIAMETRO": "12\"", "TRM_REG": "GUALANDAY - NEIVA", "PK": "469+035", "PK_PAT": null, "ID_EVENTO": "0", "TP_EVENTO": "SURCOS", "AMENAZA": "Medio", "ESTADO_EG": "Antiguo", "FX2": "20230829_FX2_C02_COR_GUAL-GUAS_PK469+033_VA", "OBSERVACION_GEOTECNISTA": null, "OBSERVACIO": "Se evidencia surcos que se direccionan en paralelo con el eje de la tuberia.", "PROFUNDIDA": null, "COD_ID": "EG", "ENTREGA": "E20_R1", "LATITUD": 3.8608790000000681, "LONGITUD": -75.052323, "ALTURA": 0.0, "IMAGEN_1": "C004_IMG_20250608_082412.jpg", "IMAGEN_2": "C004_IMG_20250608_082418.jpg", "IMAGEN_3": "C004_IMG_20250608_082425.jpg", "VISUALIZAR_IMAGEN_1": "https://drive.google.com/uc?export=view&id=1thIc_Dl2MtaIhKKSUOwUwviF6IvGY-uY", "VISUALIZAR_IMAGEN_2": "https://drive.google.com/uc?export=view&id=1CmtVH9KVEPFZz1cSO0RuQk_C-1KjQz69", "VISUALIZAR_IMAGEN_3": "https://drive.google.com/uc?export=view&id=1lKo9PvdjQ8s24cf1czbpDQ-0BM8Wn_hZ" }, "geometry": { "type": "Point", "coordinates": [ -75.052323, 3.860879, 0.0 ] } },
{ "type": "Feature", "properties": { "FECHA": "11/06/2025 00:00:00 (UTC)", "DEPTO": "TOLIMA", "MUNICIPIO": "COYAIMA", "VEREDA": "SAN MIGUEL", "GASODUCTO": "CENTRO - ORIENTE", "TRAMO": "Gualanday - Guasimal", "TP_DUCTO": "Troncal", "DISTRITO": "2", "DIAMETRO": "12\"", "TRM_REG": "GUALANDAY - NEIVA", "PK": "480+668", "PK_PAT": null, "ID_EVENTO": "0", "TP_EVENTO": "SOCAVACIÓN LATERAL", "AMENAZA": "Alto", "ESTADO_EG": "Antiguo", "FX2": "20220119_FX2_C02_COR_GUAL-GUAS_PK480+664_VA", "OBSERVACION_GEOTECNISTA": null, "OBSERVACIO": "Se evidencia socavacion lateral", "PROFUNDIDA": null, "COD_ID": "EG", "ENTREGA": "E20_R1", "LATITUD": 3.7593230000000517, "LONGITUD": -75.07539, "ALTURA": 0.0, "IMAGEN_1": "C004_IMG_20250611_083150.jpg", "IMAGEN_2": "C004_IMG_20250611_083202.jpg", "IMAGEN_3": "C004_IMG_20250611_083211.jpg", "VISUALIZAR_IMAGEN_1": "https://drive.google.com/uc?export=view&id=1yIczYTHD4uS0bJNP8S1DyGfyZfVNQofY", "VISUALIZAR_IMAGEN_2": "https://drive.google.com/uc?export=view&id=1BStpcNYlfvx1QitwRG32VyOY7EhVXzN0", "VISUALIZAR_IMAGEN_3": "https://drive.google.com/uc?export=view&id=1d_JJ4Ll6h2hzOQw4jZWeJ3duNCUOjIyG" }, "geometry": { "type": "Point", "coordinates": [ -75.07539, 3.759323, 0.0 ] } },
{ "type": "Feature", "properties": { "FECHA": "30/06/2025 00:00:00 (UTC)", "DEPTO": "HUILA", "MUNICIPIO": "AIPE", "VEREDA": "DINDAL", "GASODUCTO": "CENTRO - ORIENTE", "TRAMO": "Guasimal - Dina", "TP_DUCTO": "Troncal", "DISTRITO": "2", "DIAMETRO": "12\"", "TRM_REG": "GUALANDAY - NEIVA", "PK": "555+612", "PK_PAT": null, "ID_EVENTO": "599", "TP_EVENTO": "SOCAVACIÓN LATERAL", "AMENAZA": "Extremo", "ESTADO_EG": "Antiguo", "FX2": "20220119_FX2_C02_COR_GUAS-DINA_PK555+615_VA", "OBSERVACION_GEOTECNISTA": null, "OBSERVACIO": "Tubería expuesta", "PROFUNDIDA": null, "COD_ID": "EVEN-1", "ENTREGA": "E21_R1", "LATITUD": 3.1537040000000616, "LONGITUD": -75.27788, "ALTURA": 0.0, "IMAGEN_1": "C002_IMG_20250630_074138.jpg", "IMAGEN_2": "C002_IMG_20250630_074143.jpg", "IMAGEN_3": "C002_IMG_20250630_074149.jpg", "VISUALIZAR_IMAGEN_1": "https://drive.google.com/uc?export=view&id=1K3ToCQf7oJGQp-h46GIYvavUJkJAM7CA", "VISUALIZAR_IMAGEN_2": "https://drive.google.com/uc?export=view&id=1oERoZV2xlCVd_wGUHBztluIS_5Hv1Nxg", "VISUALIZAR_IMAGEN_3": "https://drive.google.com/uc?export=view&id=1sOkjrqP7ROTmr_zMoUG83FzzgMlWTeXr" }, "geometry": { "type": "Point", "coordinates": [ -75.27788, 3.153704, 0.0 ] } },
{ "type": "Feature", "properties": { "FECHA": "30/06/2025 00:00:00 (UTC)", "DEPTO": "HUILA", "MUNICIPIO": "AIPE", "VEREDA": "DINDAL", "GASODUCTO": "CENTRO - ORIENTE", "TRAMO": "Guasimal - Dina", "TP_DUCTO": "Troncal", "DISTRITO": "2", "DIAMETRO": "12\"", "TRM_REG": "GUALANDAY - NEIVA", "PK": "556+217", "PK_PAT": null, "ID_EVENTO": "600", "TP_EVENTO": "SOCAVACIÓN DE FONDO", "AMENAZA": "Alto", "ESTADO_EG": "Antiguo", "FX2": "20220118_FX2_C02_COR_GUAS-DINA_PK556+220_VA", "OBSERVACION_GEOTECNISTA": null, "OBSERVACIO": "Socavacion en base de muro", "PROFUNDIDA": null, "COD_ID": "EVEN-2", "ENTREGA": "E21_R1", "LATITUD": 3.148335, "LONGITUD": -75.278798, "ALTURA": 0.0, "IMAGEN_1": "C002_IMG_20250630_080226.jpg", "IMAGEN_2": "C002_IMG_20250630_080230.jpg", "IMAGEN_3": "C002_IMG_20250630_080242.jpg", "VISUALIZAR_IMAGEN_1": "https://drive.google.com/uc?export=view&id=1p7sb5GpOx0v0cen1LEtFtjZVTozzxe4o", "VISUALIZAR_IMAGEN_2": "https://drive.google.com/uc?export=view&id=1BNqkdh7vHXjkv0JvbrBiAk9q9n8lIVwh", "VISUALIZAR_IMAGEN_3": "https://drive.google.com/uc?export=view&id=1Gyc7K9npi1mJRCgmHnP6YFQ5d9oEhZlJ" }, "geometry": { "type": "Point", "coordinates": [ -75.278798, 3.148335, 0.0 ] } },
{ "type": "Feature", "properties": { "FECHA": "26/06/2025 00:00:00 (UTC)", "DEPTO": "HUILA", "MUNICIPIO": "AIPE", "VEREDA": "RIO AIPE", "GASODUCTO": "CENTRO - ORIENTE", "TRAMO": "Guasimal - Dina", "TP_DUCTO": "Troncal", "DISTRITO": "2", "DIAMETRO": "12\"", "TRM_REG": "GUALANDAY - NEIVA", "PK": "538+381", "PK_PAT": null, "ID_EVENTO": "969", "TP_EVENTO": "OTRO", "AMENAZA": "Bajo", "ESTADO_EG": "Antiguo", "FX2": "20211104_FX2_C02_COR_GUAS-DINA_PK535+194_VA", "OBSERVACION_GEOTECNISTA": null, "OBSERVACIO": "No se evidencia evento", "PROFUNDIDA": null, "COD_ID": "EVEN-3", "ENTREGA": "E21_R1", "LATITUD": 3.2965620000000513, "LONGITUD": -75.246013, "ALTURA": 0.0, "IMAGEN_1": "C002_IMG_20250626_081502.jpg", "IMAGEN_2": "C002_IMG_20250626_081509.jpg", "IMAGEN_3": "C002_IMG_20250626_081516.jpg", "VISUALIZAR_IMAGEN_1": "https://drive.google.com/uc?export=view&id=1C3kQv5aVr81kbGyE2gN8Ulmj9JnSDfk9", "VISUALIZAR_IMAGEN_2": "https://drive.google.com/uc?export=view&id=1OX154n30kw1afCnsKAuhBvmEYBlopCvi", "VISUALIZAR_IMAGEN_3": "https://drive.google.com/uc?export=view&id=1XT7mUx1ORZsF-UGD_LVSXAJDVRdatDdS" }, "geometry": { "type": "Point", "coordinates": [ -75.246013, 3.296562, 0.0 ] } },
{ "type": "Feature", "properties": { "FECHA": "5/07/2025 00:00:00 (UTC)", "DEPTO": "HUILA", "MUNICIPIO": "NEIVA", "VEREDA": "VENADO", "GASODUCTO": "CENTRO - ORIENTE", "TRAMO": "Dina - Tello", "TP_DUCTO": "Troncal", "DISTRITO": "2", "DIAMETRO": "6\"", "TRM_REG": "GUALANDAY - NEIVA", "PK": "012+982", "PK_PAT": null, "ID_EVENTO": "1012", "TP_EVENTO": "CARCAVAS", "AMENAZA": "Alto", "ESTADO_EG": "Antiguo", "FX2": "20220615_FX2_C02_COR_DINA-TELLO_PK012+958_VA", "OBSERVACION_GEOTECNISTA": null, "OBSERVACIO": "Obra nueva, no existe evento", "PROFUNDIDA": null, "COD_ID": "EVEN-4", "ENTREGA": "E21_R1", "LATITUD": 2.9847960000000739, "LONGITUD": -75.26676, "ALTURA": 0.0, "IMAGEN_1": "C002_IMG_20250705_083240.jpg", "IMAGEN_2": "C002_IMG_20250705_083246.jpg", "IMAGEN_3": "C002_IMG_20250705_083251.jpg", "VISUALIZAR_IMAGEN_1": "https://drive.google.com/uc?export=view&id=1ji6-5GQSMiasy6akfkOonL0Q89OT12Gy", "VISUALIZAR_IMAGEN_2": "https://drive.google.com/uc?export=view&id=1MV4WnnjyUHxBxRSOL1VET2k1wd0Dmeon", "VISUALIZAR_IMAGEN_3": "https://drive.google.com/uc?export=view&id=11HzidGZIEYgofHulMOF9ipyK4YDCfxZ6" }, "geometry": { "type": "Point", "coordinates": [ -75.26676, 2.984796, 0.0 ] } },
{ "type": "Feature", "properties": { "FECHA": "5/07/2025 00:00:00 (UTC)", "DEPTO": "HUILA", "MUNICIPIO": "NEIVA", "VEREDA": "VENADO", "GASODUCTO": "CENTRO - ORIENTE", "TRAMO": "Dina - Tello", "TP_DUCTO": "Troncal", "DISTRITO": "2", "DIAMETRO": "6\"", "TRM_REG": "GUALANDAY - NEIVA", "PK": "014+828", "PK_PAT": null, "ID_EVENTO": "1013", "TP_EVENTO": "SOCAVACIÓN DE FONDO", "AMENAZA": "Extremo", "ESTADO_EG": "Antiguo", "FX2": "20220615_FX2_C02_COR_DINA-TELLO_PK014+836_VA", "OBSERVACION_GEOTECNISTA": null, "OBSERVACIO": "No existe Evento", "PROFUNDIDA": null, "COD_ID": "EVEN-5", "ENTREGA": "E21_R1", "LATITUD": 2.974863, "LONGITUD": -75.254438, "ALTURA": 0.0, "IMAGEN_1": "C002_IMG_20250705_094941.jpg", "IMAGEN_2": "C002_IMG_20250705_094946.jpg", "IMAGEN_3": "C002_IMG_20250705_094950.jpg", "VISUALIZAR_IMAGEN_1": "https://drive.google.com/uc?export=view&id=18QAtFSbmUyu-kI4BPVt8jZSsPQ-mmcaM", "VISUALIZAR_IMAGEN_2": "https://drive.google.com/uc?export=view&id=1GozSLiWfTzFZeSq4g8XcIH9bAHaEJ3ki", "VISUALIZAR_IMAGEN_3": "https://drive.google.com/uc?export=view&id=1gCza2YenblIXfm-XuJno47Wp-AmZCdws" }, "geometry": { "type": "Point", "coordinates": [ -75.254438, 2.974863, 0.0 ] } },
{ "type": "Feature", "properties": { "FECHA": "12/06/2025 00:00:00 (UTC)", "DEPTO": "TOLIMA", "MUNICIPIO": "NATAGAIMA", "VEREDA": "PUEBLO NUEVO", "GASODUCTO": "CENTRO - ORIENTE", "TRAMO": "Guasimal - Dina", "TP_DUCTO": "Troncal", "DISTRITO": "2", "DIAMETRO": "12\"", "TRM_REG": "GUALANDAY - NEIVA", "PK": "518+773", "PK_PAT": null, "ID_EVENTO": "0", "TP_EVENTO": "CARCAVAS", "AMENAZA": "Alto", "ESTADO_EG": "Antiguo", "FX2": "20230919_FX2_C02_COR_GUAS-DINA_PK518+772_VA", "OBSERVACION_GEOTECNISTA": null, "OBSERVACIO": "Carcavas sobre el DDV", "PROFUNDIDA": null, "COD_ID": "EVEN-6", "ENTREGA": "E21_R1", "LATITUD": 3.444021, "LONGITUD": -75.169807, "ALTURA": 0.0, "IMAGEN_1": "C003_IMG_20250612_073713.jpg", "IMAGEN_2": "C003_IMG_20250612_073723.jpg", "IMAGEN_3": "C003_IMG_20250612_073728.jpg", "VISUALIZAR_IMAGEN_1": "https://drive.google.com/uc?export=view&id=1EZ2TXYtvvaMpVYwCNBiW1kXayUy1wh32", "VISUALIZAR_IMAGEN_2": "https://drive.google.com/uc?export=view&id=1h5FA6xkSowScmNrEJwP7PMrUAhdRlniX", "VISUALIZAR_IMAGEN_3": "https://drive.google.com/uc?export=view&id=1_uqlYi1n_m7rCLvXmqhV5g3U93pays0H" }, "geometry": { "type": "Point", "coordinates": [ -75.169807, 3.444021, 0.0 ] } },
{ "type": "Feature", "properties": { "FECHA": "13/06/2025 00:00:00 (UTC)", "DEPTO": "HUILA", "MUNICIPIO": "AIPE", "VEREDA": "PATA", "GASODUCTO": "CENTRO - ORIENTE", "TRAMO": "Guasimal - Dina", "TP_DUCTO": "Troncal", "DISTRITO": "2", "DIAMETRO": "12\"", "TRM_REG": "GUALANDAY - NEIVA", "PK": "529+544", "PK_PAT": null, "ID_EVENTO": "0", "TP_EVENTO": "SURCOS", "AMENAZA": "Medio", "ESTADO_EG": "Antiguo", "FX2": "20230316_FX2_C02_COR_GUAS-DINA_PK529+552_VA", "OBSERVACION_GEOTECNISTA": null, "OBSERVACIO": "Evento subsanado, obras de drenaje en concreto recientes", "PROFUNDIDA": null, "COD_ID": "EVEN-7", "ENTREGA": "E21_R1", "LATITUD": 3.362215, "LONGITUD": -75.211283, "ALTURA": 0.0, "IMAGEN_1": "C003_IMG_20250613_091424.jpg", "IMAGEN_2": "C003_IMG_20250613_091434.jpg", "IMAGEN_3": "C003_IMG_20250613_091439.jpg", "VISUALIZAR_IMAGEN_1": "https://drive.google.com/uc?export=view&id=1dKOqS_hb8KZeBRiAw6gYxhOU9Z4MqChE", "VISUALIZAR_IMAGEN_2": "https://drive.google.com/uc?export=view&id=1YL-eRMpNpKUADxuDbAy8HMYwsOTdCFng", "VISUALIZAR_IMAGEN_3": "https://drive.google.com/uc?export=view&id=15JQ5edkuUSPoAJpdNiKNB83LeINJVNxd" }, "geometry": { "type": "Point", "coordinates": [ -75.211283, 3.362215, 0.0 ] } },
{ "type": "Feature", "properties": { "FECHA": "13/06/2025 00:00:00 (UTC)", "DEPTO": "HUILA", "MUNICIPIO": "AIPE", "VEREDA": "PATA", "GASODUCTO": "CENTRO - ORIENTE", "TRAMO": "Guasimal - Dina", "TP_DUCTO": "Troncal", "DISTRITO": "2", "DIAMETRO": "12\"", "TRM_REG": "GUALANDAY - NEIVA", "PK": "530+827", "PK_PAT": null, "ID_EVENTO": "0", "TP_EVENTO": "CARCAVAS", "AMENAZA": "Alto", "ESTADO_EG": "Antiguo", "FX2": "20220119_FX2_C02_COR_GUAS-DINA_PK530+850_VA", "OBSERVACION_GEOTECNISTA": null, "OBSERVACIO": "No se evidencia", "PROFUNDIDA": null, "COD_ID": "EVEN-8", "ENTREGA": "E21_R1", "LATITUD": 3.3544450000000552, "LONGITUD": -75.218925, "ALTURA": 0.0, "IMAGEN_1": "C003_IMG_20250613_094839.jpg", "IMAGEN_2": "C003_IMG_20250613_094904.jpg", "IMAGEN_3": "C003_IMG_20250613_094909.jpg", "VISUALIZAR_IMAGEN_1": "https://drive.google.com/uc?export=view&id=1PVnLIxcZwRXWjHYg6vqDDQ4bZo_D_78o", "VISUALIZAR_IMAGEN_2": "https://drive.google.com/uc?export=view&id=13bI0DbAOklP72n3u0L2QFnViYlqYHsMF", "VISUALIZAR_IMAGEN_3": "https://drive.google.com/uc?export=view&id=1KXDqvQlgiRZLIArUmavS-ba44JX9PH_t" }, "geometry": { "type": "Point", "coordinates": [ -75.218925, 3.354445, 0.0 ] } },
{ "type": "Feature", "properties": { "FECHA": "13/06/2025 00:00:00 (UTC)", "DEPTO": "HUILA", "MUNICIPIO": "AIPE", "VEREDA": "PATA", "GASODUCTO": "CENTRO - ORIENTE", "TRAMO": "Guasimal - Dina", "TP_DUCTO": "Troncal", "DISTRITO": "2", "DIAMETRO": "12\"", "TRM_REG": "GUALANDAY - NEIVA", "PK": "528+927", "PK_PAT": null, "ID_EVENTO": "0", "TP_EVENTO": "OTRO", "AMENAZA": "Extremo", "ESTADO_EG": "Antiguo", "FX2": "20240404_FX2_C02_COR_GUAS-DINA_PK528+928_VA", "OBSERVACION_GEOTECNISTA": null, "OBSERVACIO": "Tuberia descubierta", "PROFUNDIDA": null, "COD_ID": "EVEN-9", "ENTREGA": "E21_R1", "LATITUD": 3.366787, "LONGITUD": -75.208072, "ALTURA": 0.0, "IMAGEN_1": "C003_IMG_20250613_090218.jpg", "IMAGEN_2": "C003_IMG_20250613_090230.jpg", "IMAGEN_3": "C003_IMG_20250613_090234.jpg", "VISUALIZAR_IMAGEN_1": "https://drive.google.com/uc?export=view&id=1_wduMu395SY_BwFLw4_yQ_8GNTtG08as", "VISUALIZAR_IMAGEN_2": "https://drive.google.com/uc?export=view&id=18jbJsDB-z2jvgpoCiioGWQJ_RFV2LY4Z", "VISUALIZAR_IMAGEN_3": "https://drive.google.com/uc?export=view&id=1ekbzPxw2CPCglS0mUB3GypVUTaL85dk_" }, "geometry": { "type": "Point", "coordinates": [ -75.208072, 3.366787, 0.0 ] } },
{ "type": "Feature", "properties": { "FECHA": "10/06/2025 00:00:00 (UTC)", "DEPTO": "TOLIMA", "MUNICIPIO": "NATAGAIMA", "VEREDA": "SAN MIGUEL", "GASODUCTO": "CENTRO - ORIENTE", "TRAMO": "Gualanday - Guasimal", "TP_DUCTO": "Troncal", "DISTRITO": "2", "DIAMETRO": "12\"", "TRM_REG": "GUALANDAY - NEIVA", "PK": "496+280", "PK_PAT": null, "ID_EVENTO": "0", "TP_EVENTO": "SOCAVACIÓN LATERAL", "AMENAZA": "Bajo", "ESTADO_EG": "Antiguo", "FX2": "20210819_FX2_C02_COR_GUAL-GUAS_PK496+281_VA", "OBSERVACION_GEOTECNISTA": null, "OBSERVACIO": " ", "PROFUNDIDA": null, "COD_ID": "EVEN-10", "ENTREGA": "E21_R1", "LATITUD": 3.622402, "LONGITUD": -75.100198, "ALTURA": 0.0, "IMAGEN_1": "C002_IMG_20250610_073914.jpg", "IMAGEN_2": "C002_IMG_20250610_073926.jpg", "IMAGEN_3": "C002_IMG_20250610_073934.jpg", "VISUALIZAR_IMAGEN_1": "https://drive.google.com/uc?export=view&id=16GWoWQZmw6vBLlIsIKklp-YfVYT3JAn2", "VISUALIZAR_IMAGEN_2": "https://drive.google.com/uc?export=view&id=1I-NeBAAV1jytgF3YJ0XAn4-1QBkbnz3G", "VISUALIZAR_IMAGEN_3": "https://drive.google.com/uc?export=view&id=14qePYKsL5vEohKIuR6awGAF27G8M-eyT" }, "geometry": { "type": "Point", "coordinates": [ -75.100198, 3.622402, 0.0 ] } },
{ "type": "Feature", "properties": { "FECHA": "10/06/2025 00:00:00 (UTC)", "DEPTO": "TOLIMA", "MUNICIPIO": "NATAGAIMA", "VEREDA": "SAN MIGUEL", "GASODUCTO": "CENTRO - ORIENTE", "TRAMO": "Gualanday - Guasimal", "TP_DUCTO": "Troncal", "DISTRITO": "2", "DIAMETRO": "( )", "TRM_REG": "GUALANDAY - NEIVA", "PK": "496+538", "PK_PAT": null, "ID_EVENTO": null, "TP_EVENTO": "SOCAVACIÓN LATERAL", "AMENAZA": "Bajo", "ESTADO_EG": "Nuevo", "FX2": null, "OBSERVACION_GEOTECNISTA": null, "OBSERVACIO": "", "PROFUNDIDA": null, "COD_ID": "EVEN-11", "ENTREGA": "E21_R1", "LATITUD": 3.6200838630000476, "LONGITUD": -75.100349552999944, "ALTURA": 326.69160000000556, "IMAGEN_1": "C002_IMG_20250610_075112.jpg", "IMAGEN_2": "C002_IMG_20250610_075129.jpg", "IMAGEN_3": "C002_IMG_20250610_075134.jpg", "VISUALIZAR_IMAGEN_1": "https://drive.google.com/uc?export=view&id=1Unu66LRnLWMnfa0G0NMnLsU6iVDOj9Xi", "VISUALIZAR_IMAGEN_2": "https://drive.google.com/uc?export=view&id=1N17nxx5wfK3RZp8BDCNC579Txx72iRZ_", "VISUALIZAR_IMAGEN_3": "https://drive.google.com/uc?export=view&id=1ddVhrdpu1PEk-2wC4v_BtCCJpIwnUvsn" }, "geometry": { "type": "Point", "coordinates": [ -75.100349552999944, 3.620083863000048, 326.691600000005565 ] } },
{ "type": "Feature", "properties": { "FECHA": "3/07/2025 00:00:00 (UTC)", "DEPTO": "CUNDINAMARCA", "MUNICIPIO": "CHIPAQUE", "VEREDA": "ALTO DEL RAMO", "GASODUCTO": "CUSIANA - APIAY - USME", "TRAMO": "Chipaque", "TP_DUCTO": "Ramal", "DISTRITO": "4", "DIAMETRO": "2\"", "TRM_REG": "APIAY - USME", "PK": "002+072", "PK_PAT": null, "ID_EVENTO": "510", "TP_EVENTO": "OTRO", "AMENAZA": "Alto", "ESTADO_EG": "Antiguo", "FX2": "20221101_FX2_C06_CAU_R-CHIPAQUE_PK002+088_VB", "OBSERVACION_GEOTECNISTA": "", "OBSERVACIO": "No se evidencia", "PROFUNDIDA": null, "COD_ID": "EVEN-1", "ENTREGA": "E22_R1", "LATITUD": 4.4469270000000733, "LONGITUD": -74.055443, "ALTURA": 0.0, "IMAGEN_1": "C003_IMG_20250703_085108.jpg", "IMAGEN_2": "C003_IMG_20250703_085113.jpg", "IMAGEN_3": "C003_IMG_20250703_085118.jpg", "VISUALIZAR_IMAGEN_1": "https://drive.google.com/uc?export=view&id=1IMNggXbQloM4lvXh11XpNbLXoI1lmtJP", "VISUALIZAR_IMAGEN_2": "https://drive.google.com/uc?export=view&id=1YgrrO_h5XgVCsEHL7CByiJx8YMlIFN6E", "VISUALIZAR_IMAGEN_3": "https://drive.google.com/uc?export=view&id=1ACWfprXPf95NDmp47sZOfVBlQdSAtvAn" }, "geometry": { "type": "Point", "coordinates": [ -74.055443, 4.446927, 0.0 ] } },
{ "type": "Feature", "properties": { "FECHA": "2/07/2025 00:00:00 (UTC)", "DEPTO": "CUNDINAMARCA", "MUNICIPIO": "UNE", "VEREDA": "SAN LUIS", "GASODUCTO": "CUSIANA - APIAY - USME", "TRAMO": "Villavicencio - Usme", "TP_DUCTO": "Troncal", "DISTRITO": "4", "DIAMETRO": "6\"", "TRM_REG": "APIAY - USME", "PK": "104+288", "PK_PAT": null, "ID_EVENTO": "536", "TP_EVENTO": "SOCAVACIÓN LATERAL", "AMENAZA": "Extremo", "ESTADO_EG": "Antiguo", "FX2": "20230217_FX2_C06_CAU_VILLAV-USME_PK104+289_VB", "OBSERVACION_GEOTECNISTA": "", "OBSERVACIO": "Socavacion lateral en obra geotecnica", "PROFUNDIDA": null, "COD_ID": "EVEN-2", "ENTREGA": "E22_R1", "LATITUD": 4.3990210000000616, "LONGITUD": -74.018891, "ALTURA": 0.0, "IMAGEN_1": "C003_IMG_20250702_081158.jpg", "IMAGEN_2": "C003_IMG_20250702_081234.jpg", "IMAGEN_3": "C003_IMG_20250702_081247.jpg", "VISUALIZAR_IMAGEN_1": "https://drive.google.com/uc?export=view&id=1Kj-4vlymLUUmBezDDg22_bFU5wW0sOrb", "VISUALIZAR_IMAGEN_2": "https://drive.google.com/uc?export=view&id=1wjY1UMHrAvacX7lI1Zor9TOHQRx5lCKE", "VISUALIZAR_IMAGEN_3": "https://drive.google.com/uc?export=view&id=1ZRnaVrHRiKNJ_ouIffiGX9w2tk8kT6Fk" }, "geometry": { "type": "Point", "coordinates": [ -74.018891, 4.399021, 0.0 ] } },
{ "type": "Feature", "properties": { "FECHA": "4/07/2025 00:00:00 (UTC)", "DEPTO": "CUNDINAMARCA", "MUNICIPIO": "CHIPAQUE", "VEREDA": "CALDERA", "GASODUCTO": "CUSIANA - APIAY - USME", "TRAMO": "Villavicencio - Usme", "TP_DUCTO": "Troncal", "DISTRITO": "4", "DIAMETRO": "6\"", "TRM_REG": "APIAY - USME", "PK": "114+369", "PK_PAT": null, "ID_EVENTO": "540", "TP_EVENTO": "DESLIZAMIENTO TRASLACIONAL", "AMENAZA": "Medio", "ESTADO_EG": "Antiguo", "FX2": "20240411_FX2_C06_CAU_VILLAV-USME_PK114+369_VC", "OBSERVACION_GEOTECNISTA": "", "OBSERVACIO": "Prof 1.83m, no se evidencia evento geotécnico", "PROFUNDIDA": null, "COD_ID": "EVEN-3", "ENTREGA": "E22_R1", "LATITUD": 4.4312370000000669, "LONGITUD": -74.073865, "ALTURA": 0.0, "IMAGEN_1": "C003_IMG_20250704_124532.jpg", "IMAGEN_2": "C003_IMG_20250704_124547.jpg", "IMAGEN_3": "C003_IMG_20250704_124555.jpg", "VISUALIZAR_IMAGEN_1": "https://drive.google.com/uc?export=view&id=16yzVaxVdzpyUai59X7P5130OFfJuG4dF", "VISUALIZAR_IMAGEN_2": "https://drive.google.com/uc?export=view&id=1vewu582GmuHRkEzWcwxevH4PsQMpwtjZ", "VISUALIZAR_IMAGEN_3": "https://drive.google.com/uc?export=view&id=1MHMKUP171Q-1RMDgtIGHD9JZNfkqlJnj" }, "geometry": { "type": "Point", "coordinates": [ -74.073865, 4.431237, 0.0 ] } },
{ "type": "Feature", "properties": { "FECHA": "3/07/2025 00:00:00 (UTC)", "DEPTO": "CUNDINAMARCA", "MUNICIPIO": "CHIPAQUE", "VEREDA": "ALTO DEL RAMO", "GASODUCTO": "CUSIANA - APIAY - USME", "TRAMO": "Chipaque", "TP_DUCTO": "Ramal", "DISTRITO": "4", "DIAMETRO": "2\"", "TRM_REG": "APIAY - USME", "PK": "002+158", "PK_PAT": null, "ID_EVENTO": "779", "TP_EVENTO": "REPTACION", "AMENAZA": "Extremo", "ESTADO_EG": "Antiguo", "FX2": "20221101_FX2_C06_CAU_R-CHIPAQUE_PK002+200_VB", "OBSERVACION_GEOTECNISTA": "", "OBSERVACIO": "Prof 0.5, se observa canal en tierra", "PROFUNDIDA": null, "COD_ID": "EVEN-4", "ENTREGA": "E22_R1", "LATITUD": 4.447195, "LONGITUD": -74.054706, "ALTURA": 0.0, "IMAGEN_1": "C003_IMG_20250703_090321.jpg", "IMAGEN_2": "C003_IMG_20250703_090333.jpg", "IMAGEN_3": "C003_IMG_20250703_090342.jpg", "VISUALIZAR_IMAGEN_1": "https://drive.google.com/uc?export=view&id=19ZBZJECRdTmXWQmYcEyVMfRKbOs3XBRi", "VISUALIZAR_IMAGEN_2": "https://drive.google.com/uc?export=view&id=1tMyupBwSykvoc8RrN1AN7sPD6hPMBHCT", "VISUALIZAR_IMAGEN_3": "https://drive.google.com/uc?export=view&id=1-wZbtE-yzHrq61RFdgVKqrqDRqQ9JwRp" }, "geometry": { "type": "Point", "coordinates": [ -74.054706, 4.447195, 0.0 ] } },
{ "type": "Feature", "properties": { "FECHA": "25/06/2025 00:00:00 (UTC)", "DEPTO": "CUNDINAMARCA", "MUNICIPIO": "FOSCA", "VEREDA": "GRANADILLO", "GASODUCTO": "CUSIANA - APIAY - USME", "TRAMO": "Villavicencio - Usme", "TP_DUCTO": "Troncal", "DISTRITO": "4", "DIAMETRO": "6\"", "TRM_REG": "APIAY - USME", "PK": "085+215", "PK_PAT": null, "ID_EVENTO": "530", "TP_EVENTO": "OTRO", "AMENAZA": "Extremo", "ESTADO_EG": "Antiguo", "FX2": "20220616_FX2_C06_CAUS_VILLAV-USME_PK085+219_VB", "OBSERVACION_GEOTECNISTA": "", "OBSERVACIO": "Se observs placa huella eciente", "PROFUNDIDA": null, "COD_ID": "EVEN-1", "ENTREGA": "E22_R1", "LATITUD": 4.336577, "LONGITUD": -73.911794, "ALTURA": 0.0, "IMAGEN_1": "C003_IMG_20250625_155302.jpg", "IMAGEN_2": "C003_IMG_20250625_155308.jpg", "IMAGEN_3": "C003_IMG_20250625_155313.jpg", "VISUALIZAR_IMAGEN_1": "https://drive.google.com/uc?export=view&id=1WSc-oEruC6z8zfVKfHdh8zpwRtaUZBpj", "VISUALIZAR_IMAGEN_2": "https://drive.google.com/uc?export=view&id=1mKJkeXZMuvMikuCVFoRD4wtnG_LQ74Ue", "VISUALIZAR_IMAGEN_3": "https://drive.google.com/uc?export=view&id=1tjxPZz4CGgKsjKasOEF6vLJ33HK48ZWn" }, "geometry": { "type": "Point", "coordinates": [ -73.911794, 4.336577, 0.0 ] } },
{ "type": "Feature", "properties": { "FECHA": "26/06/2025 00:00:00 (UTC)", "DEPTO": "CUNDINAMARCA", "MUNICIPIO": "FOSCA", "VEREDA": "EL ESPINO", "GASODUCTO": "CUSIANA - APIAY - USME", "TRAMO": "Villavicencio - Usme", "TP_DUCTO": "Troncal", "DISTRITO": "4", "DIAMETRO": "6\"", "TRM_REG": "APIAY - USME", "PK": "085+892", "PK_PAT": null, "ID_EVENTO": "531", "TP_EVENTO": "SOCAVACIÓN DE FONDO", "AMENAZA": "Medio", "ESTADO_EG": "Antiguo", "FX2": "20240311_FX2_C06_CAU_VILLAV-USME_PK085+915_VB", "OBSERVACION_GEOTECNISTA": "", "OBSERVACIO": "No se evidencia", "PROFUNDIDA": null, "COD_ID": "EVEN-2", "ENTREGA": "E22_R1", "LATITUD": 4.34191, "LONGITUD": -73.914635, "ALTURA": 0.0, "IMAGEN_1": "C003_IMG_20250626_140559.jpg", "IMAGEN_2": "C003_IMG_20250626_140607.jpg", "IMAGEN_3": "C003_IMG_20250626_140615.jpg", "VISUALIZAR_IMAGEN_1": "https://drive.google.com/uc?export=view&id=1NpFpz3MSnKVpKYt0nMDabozfHGOLTQp-", "VISUALIZAR_IMAGEN_2": "https://drive.google.com/uc?export=view&id=1GrCALgHFSqWYaH8g4fyEl2ckxDKSJ76A", "VISUALIZAR_IMAGEN_3": "https://drive.google.com/uc?export=view&id=1JvdsRjlYkPP7IrouzPKCkdV43GCgUfiQ" }, "geometry": { "type": "Point", "coordinates": [ -73.914635, 4.34191, 0.0 ] } },
{ "type": "Feature", "properties": { "FECHA": "26/06/2025 00:00:00 (UTC)", "DEPTO": "CUNDINAMARCA", "MUNICIPIO": "FOSCA", "VEREDA": "SANAME", "GASODUCTO": "CUSIANA - APIAY - USME", "TRAMO": "Villavicencio - Usme", "TP_DUCTO": "Troncal", "DISTRITO": "4", "DIAMETRO": "6\"", "TRM_REG": "APIAY - USME", "PK": "087+349", "PK_PAT": null, "ID_EVENTO": "532", "TP_EVENTO": "FLUJOS", "AMENAZA": "Medio", "ESTADO_EG": "Antiguo", "FX2": "20240312_FX2_C06_CAU_VILLAV-USME_PK087+354_VB", "OBSERVACION_GEOTECNISTA": "", "OBSERVACIO": "No se evidencia", "PROFUNDIDA": null, "COD_ID": "EVEN-3", "ENTREGA": "E22_R1", "LATITUD": 4.3504090000000701, "LONGITUD": -73.92012, "ALTURA": 0.0, "IMAGEN_1": "C003_IMG_20250626_114932.jpg", "IMAGEN_2": "C003_IMG_20250626_114938.jpg", "IMAGEN_3": "C003_IMG_20250626_114942.jpg", "VISUALIZAR_IMAGEN_1": "https://drive.google.com/uc?export=view&id=1o57MyJCDC660fARBOOx3EDH3aUaxfZQi", "VISUALIZAR_IMAGEN_2": "https://drive.google.com/uc?export=view&id=1UR9eL7V80qPRh1Md8wWA7g_kqEEwIMAk", "VISUALIZAR_IMAGEN_3": "https://drive.google.com/uc?export=view&id=1KNYkGei5B0TsisrPQagngRVoWf4umVwm" }, "geometry": { "type": "Point", "coordinates": [ -73.92012, 4.350409, 0.0 ] } },
{ "type": "Feature", "properties": { "FECHA": "25/06/2025 00:00:00 (UTC)", "DEPTO": "CUNDINAMARCA", "MUNICIPIO": "FOSCA", "VEREDA": "GRANADILLO", "GASODUCTO": "CUSIANA - APIAY - USME", "TRAMO": "Villavicencio - Usme", "TP_DUCTO": "Troncal", "DISTRITO": "4", "DIAMETRO": "6\"", "TRM_REG": "APIAY - USME", "PK": "083+574", "PK_PAT": null, "ID_EVENTO": "681", "TP_EVENTO": "DESLIZAMIENTO TRASLACIONAL", "AMENAZA": "Extremo", "ESTADO_EG": "Antiguo", "FX2": "20220616_FX2_C06_CAUS_VILLAV-USME_PK083+571_VA", "OBSERVACION_GEOTECNISTA": "", "OBSERVACIO": "Prof 1.7m placa huella reciente", "PROFUNDIDA": null, "COD_ID": "EVEN-4", "ENTREGA": "E22_R1", "LATITUD": 4.326423, "LONGITUD": -73.905294, "ALTURA": 0.0, "IMAGEN_1": "C003_IMG_20250625_142228.jpg", "IMAGEN_2": "C003_IMG_20250625_142232.jpg", "IMAGEN_3": "C003_IMG_20250625_142240.jpg", "VISUALIZAR_IMAGEN_1": "https://drive.google.com/uc?export=view&id=15kKj_jkJnqKQgDMmTjAVFSqx2YPkN04O", "VISUALIZAR_IMAGEN_2": "https://drive.google.com/uc?export=view&id=1PSCGpO9RQf8yuOh-38RKUAEvEZxam9U4", "VISUALIZAR_IMAGEN_3": "https://drive.google.com/uc?export=view&id=12VxtYt-EB43GL_aS58PeiJ5oX__v4B9w" }, "geometry": { "type": "Point", "coordinates": [ -73.905294, 4.326423, 0.0 ] } },
{ "type": "Feature", "properties": { "FECHA": "30/06/2025 00:00:00 (UTC)", "DEPTO": "CUNDINAMARCA", "MUNICIPIO": "CÁQUEZA", "VEREDA": "MERCADILLO", "GASODUCTO": "CUSIANA - APIAY - USME", "TRAMO": "Villavicencio - Usme", "TP_DUCTO": "Troncal", "DISTRITO": "4", "DIAMETRO": "6\"", "TRM_REG": "APIAY - USME", "PK": "098+629", "PK_PAT": null, "ID_EVENTO": "534", "TP_EVENTO": "OTRO", "AMENAZA": "Medio", "ESTADO_EG": "Antiguo", "FX2": "20221205_FX2_C06_CAUS_VILLAV-USME_PK098+712_VA", "OBSERVACION_GEOTECNISTA": "", "OBSERVACIO": "Se observa obras geotécnicas en buen estado", "PROFUNDIDA": null, "COD_ID": "EVEN-5", "ENTREGA": "E22_R1", "LATITUD": 4.387665, "LONGITUD": -73.982106, "ALTURA": 0.0, "IMAGEN_1": "C003_IMG_20250630_134640.jpg", "IMAGEN_2": "C003_IMG_20250630_134648.jpg", "IMAGEN_3": "C003_IMG_20250630_134700.jpg", "VISUALIZAR_IMAGEN_1": "https://drive.google.com/uc?export=view&id=1zeBzYGwA_sRIKkCNAKTW1Ns2V0nZXkhB", "VISUALIZAR_IMAGEN_2": "https://drive.google.com/uc?export=view&id=1RvQlFCjkfB9nRWNagiir1KZqMKskozEa", "VISUALIZAR_IMAGEN_3": "https://drive.google.com/uc?export=view&id=1GflTjGavBZKxzgcLWibM4XhanWeX7moy" }, "geometry": { "type": "Point", "coordinates": [ -73.982106, 4.387665, 0.0 ] } },
{ "type": "Feature", "properties": { "FECHA": "29/06/2025 00:00:00 (UTC)", "DEPTO": "CASANARE", "MUNICIPIO": "MONTERREY", "VEREDA": "TIERRA GRATA", "GASODUCTO": "CUSIANA - APIAY - USME", "TRAMO": "Cusiana - PK65", "TP_DUCTO": "Troncal", "DISTRITO": "4", "DIAMETRO": "12\"", "TRM_REG": "CUSIANA - APIAY", "PK": "029+068", "PK_PAT": null, "ID_EVENTO": "703", "TP_EVENTO": "SOCAVACIÓN LATERAL", "AMENAZA": "Extremo", "ESTADO_EG": "Antiguo", "FX2": "20220403_FX2_C04_CAU_CUS-PK65_PK029+055_VA", "OBSERVACION_GEOTECNISTA": null, "OBSERVACIO": "Se cambia respecto a linea base de tipo de evento socavación de fondo a socavación lateral. Socavacion lateral de la banca en el margen derecho", "PROFUNDIDA": null, "COD_ID": "EVEN-1", "ENTREGA": "E23_R1", "LATITUD": 4.8879700000000526, "LONGITUD": -72.90476, "ALTURA": 0.0, "IMAGEN_1": "C004_IMG_20250629_080357.jpg", "IMAGEN_2": "C004_IMG_20250629_080406.jpg", "IMAGEN_3": "C004_IMG_20250629_080411.jpg", "VISUALIZAR_IMAGEN_1": "https://drive.google.com/uc?export=view&id=1xmE417uids9qhUPVkPjBuHv_w6M2sVQ1", "VISUALIZAR_IMAGEN_2": "https://drive.google.com/uc?export=view&id=1lMz6Aue3k1zpZlmasarbobQGju_RRJaJ", "VISUALIZAR_IMAGEN_3": "https://drive.google.com/uc?export=view&id=1XPqsrELur0nPnwJatRYxHzWya_HugKzN" }, "geometry": { "type": "Point", "coordinates": [ -72.90476, 4.88797, 0.0 ] } },
{ "type": "Feature", "properties": { "FECHA": "1/07/2025 00:00:00 (UTC)", "DEPTO": "CASANARE", "MUNICIPIO": "SABANALARGA", "VEREDA": "NUEVA ZELANDIA", "GASODUCTO": "CUSIANA - APIAY - USME", "TRAMO": "Villanueva", "TP_DUCTO": "Ramal", "DISTRITO": "4", "DIAMETRO": "2\"", "TRM_REG": "CUSIANA - APIAY", "PK": "003+692", "PK_PAT": null, "ID_EVENTO": "169", "TP_EVENTO": "SOCAVACIÓN DE FONDO", "AMENAZA": "Extremo", "ESTADO_EG": "Antiguo", "FX2": "20210827_FX2_C06_CAU_R-VILLANUEVA_PK003+677_VA", "OBSERVACION_GEOTECNISTA": null, "OBSERVACIO": "Excavacion y obra civil en proceso, para intervenciones al gasoducto", "PROFUNDIDA": null, "COD_ID": "EVEN-2", "ENTREGA": "E23_R1", "LATITUD": 4.6803162, "LONGITUD": -73.001553789999946, "ALTURA": 0.0, "IMAGEN_1": "C004_IMG_20250701_115750.jpg", "IMAGEN_2": "C004_IMG_20250701_115756.jpg", "IMAGEN_3": "C004_IMG_20250701_115802.jpg", "VISUALIZAR_IMAGEN_1": "https://drive.google.com/uc?export=view&id=190sXoHhwFJ4Ai7cCfbInzcEWgGrihliI", "VISUALIZAR_IMAGEN_2": "https://drive.google.com/uc?export=view&id=1vyzKTR81XAvc67UrJKRoY56QxQw8T7jg", "VISUALIZAR_IMAGEN_3": "https://drive.google.com/uc?export=view&id=1yu_Z8ZgCT-k-OPraLfgFbVmx0NI6WnZu" }, "geometry": { "type": "Point", "coordinates": [ -73.001553789999946, 4.68031620000005, 0.0 ] } },
{ "type": "Feature", "properties": { "FECHA": "28/06/2025 00:00:00 (UTC)", "DEPTO": "CASANARE", "MUNICIPIO": "SABANALARGA", "VEREDA": "BOTIJERA ALTA", "GASODUCTO": "CUSIANA - APIAY - USME", "TRAMO": "Cusiana - PK65", "TP_DUCTO": "Troncal", "DISTRITO": "4", "DIAMETRO": "12\"", "TRM_REG": "CUSIANA - APIAY", "PK": "044+814", "PK_PAT": null, "ID_EVENTO": null, "TP_EVENTO": "SOCAVACIÓN DE FONDO", "AMENAZA": "Extremo", "ESTADO_EG": "Antiguo", "FX2": null, "OBSERVACION_GEOTECNISTA": null, "OBSERVACIO": "Se cambia respecto a linea base de tipo de evento otro a socavación de fondo. Se evidencia socavacion y exposición del tubo sobre fuente hídrica, debido al arrastre de material fino", "PROFUNDIDA": null, "COD_ID": "EVEN-3", "ENTREGA": "E23_R1", "LATITUD": 4.780876, "LONGITUD": -72.994694, "ALTURA": 336.5, "IMAGEN_1": "C004_IMG_20250628_091557.jpg", "IMAGEN_2": "C004_IMG_20250628_091609.jpg", "IMAGEN_3": "C004_IMG_20250628_091617.jpg", "VISUALIZAR_IMAGEN_1": "https://drive.google.com/uc?export=view&id=1oG3qQwLc0mMEP6zAAdAZBKMpwNTuO6yc", "VISUALIZAR_IMAGEN_2": "https://drive.google.com/uc?export=view&id=1-ATgQ4AGlZ40dhV4CFKi8VP040eteLoy", "VISUALIZAR_IMAGEN_3": "https://drive.google.com/uc?export=view&id=1T-9PIeQ_67K7Rekf8QYoPhiwrY2ie2L4" }, "geometry": { "type": "Point", "coordinates": [ -72.994694, 4.780876, 336.5 ] } },
{ "type": "Feature", "properties": { "FECHA": "29/06/2025 00:00:00 (UTC)", "DEPTO": "CASANARE", "MUNICIPIO": "MONTERREY", "VEREDA": "GUANEYES", "GASODUCTO": "CUSIANA - APIAY - USME", "TRAMO": "Cusiana - PK65", "TP_DUCTO": "Troncal", "DISTRITO": "4", "DIAMETRO": "12\"", "TRM_REG": "CUSIANA - APIAY", "PK": "036+392", "PK_PAT": null, "ID_EVENTO": null, "TP_EVENTO": "SOCAVACIÓN DE FONDO", "AMENAZA": "Extremo", "ESTADO_EG": "Antiguo", "FX2": "20230111_FX2_C06_CAU_CUS-PK65_PK036+537_VA", "OBSERVACION_GEOTECNISTA": null, "OBSERVACIO": "Se presenta socavacion de fondo por arrastre de material de río, con tubo expuesto en todo el paso de la fuente hídrica.material de arrastre mayor a 10 pulgadas.", "PROFUNDIDA": null, "COD_ID": "EVEN-4", "ENTREGA": "E23_R1", "LATITUD": 4.8331220000000599, "LONGITUD": -72.942488, "ALTURA": 400.7556, "IMAGEN_1": "C004_IMG_20250626_110932.jpg", "IMAGEN_2": "C004_IMG_20250626_110943.jpg", "IMAGEN_3": "C004_IMG_20250626_110958.jpg", "VISUALIZAR_IMAGEN_1": "https://drive.google.com/uc?export=view&id=1MNGkOPcGEekekW2zpXoZzX5UPD8Z59XY", "VISUALIZAR_IMAGEN_2": "https://drive.google.com/uc?export=view&id=1VfCX0tI7xikN7PgLZ9E4q7CtFm3Lt68V", "VISUALIZAR_IMAGEN_3": "https://drive.google.com/uc?export=view&id=1AidTskbFOv-W_jkUplZJ4DU-ddtHJ6qD" }, "geometry": { "type": "Point", "coordinates": [ -72.942488, 4.833122, 400.755600000004051 ] } },
{ "type": "Feature", "properties": { "FECHA": "6/07/2025 00:00:00 (UTC)", "DEPTO": "CUNDINAMARCA", "MUNICIPIO": "PARATEBUENO", "VEREDA": "CABUYARITO", "GASODUCTO": "CUSIANA - APIAY - USME", "TRAMO": "PK65 - Apiay", "TP_DUCTO": "Troncal", "DISTRITO": "4", "DIAMETRO": "10\"", "TRM_REG": "CUSIANA - APIAY", "PK": "078+897", "PK_PAT": null, "ID_EVENTO": "215", "TP_EVENTO": "SOCAVACIÓN DE FONDO", "AMENAZA": "Medio", "ESTADO_EG": "Antiguo", "FX2": "20240419_FX2_C06_CAU_PK65-APIAY_PK078+877_VB", "OBSERVACION_GEOTECNISTA": null, "OBSERVACIO": "No se evidencia socavacion de fondo", "PROFUNDIDA": null, "COD_ID": "EVEN-5", "ENTREGA": "E23_R1", "LATITUD": 4.509646, "LONGITUD": -73.09679, "ALTURA": 0.0, "IMAGEN_1": "C004_IMG_20250706_083437.jpg", "IMAGEN_2": "C004_IMG_20250706_083441.jpg", "IMAGEN_3": "C004_IMG_20250706_083448.jpg", "VISUALIZAR_IMAGEN_1": "https://drive.google.com/uc?export=view&id=1wldKIVGLXmq2ht7zptXl2X3jmkHcOUKl", "VISUALIZAR_IMAGEN_2": "https://drive.google.com/uc?export=view&id=1X2LlGaUl8HTVHLhTv4zKHN4c7VC6NIME", "VISUALIZAR_IMAGEN_3": "https://drive.google.com/uc?export=view&id=1bL5bhRKW907re0m-WPeqdGiRkMFWhyIY" }, "geometry": { "type": "Point", "coordinates": [ -73.09679, 4.509646, 0.0 ] } },
{ "type": "Feature", "properties": { "FECHA": "9/07/2025 00:00:00 (UTC)", "DEPTO": "CUNDINAMARCA", "MUNICIPIO": "PARATEBUENO", "VEREDA": "MACAPAY ALTO", "GASODUCTO": "CUSIANA - APIAY - USME", "TRAMO": "PK65 - Apiay", "TP_DUCTO": "Troncal", "DISTRITO": "4", "DIAMETRO": "10\"", "TRM_REG": "CUSIANA - APIAY", "PK": "090+889", "PK_PAT": null, "ID_EVENTO": "216", "TP_EVENTO": "SOCAVACIÓN LATERAL", "AMENAZA": "Alto", "ESTADO_EG": "Antiguo", "FX2": "20210526_FX2_C06_CAU_PK65-APIAY_PK090+891_VB", "OBSERVACION_GEOTECNISTA": null, "OBSERVACIO": "No se evidencia socavacion lateral", "PROFUNDIDA": null, "COD_ID": "EVEN-6", "ENTREGA": "E23_R1", "LATITUD": 4.4406940000000645, "LONGITUD": -73.174584, "ALTURA": 0.0, "IMAGEN_1": "C004_IMG_20250709_083636.jpg", "IMAGEN_2": "C004_IMG_20250709_083642.jpg", "IMAGEN_3": "C004_IMG_20250709_083712.jpg", "VISUALIZAR_IMAGEN_1": "https://drive.google.com/uc?export=view&id=1jbnyyoTebPnel0BpGYKq1mD1UlweK3mU", "VISUALIZAR_IMAGEN_2": "https://drive.google.com/uc?export=view&id=1-3tu-iSaYlVetdlLDYCF2Xj27WBvYjto", "VISUALIZAR_IMAGEN_3": "https://drive.google.com/uc?export=view&id=1K9yqGNr_R44mprbS4HqxCCROMuQL0Tw2" }, "geometry": { "type": "Point", "coordinates": [ -73.174584, 4.440694, 0.0 ] } },
{ "type": "Feature", "properties": { "FECHA": "9/07/2025 00:00:00 (UTC)", "DEPTO": "CUNDINAMARCA", "MUNICIPIO": "PARATEBUENO", "VEREDA": "MACAPAY ALTO", "GASODUCTO": "CUSIANA - APIAY - USME", "TRAMO": "PK65 - Apiay", "TP_DUCTO": "Troncal", "DISTRITO": "4", "DIAMETRO": "10\"", "TRM_REG": "CUSIANA - APIAY", "PK": "092+032", "PK_PAT": null, "ID_EVENTO": "217", "TP_EVENTO": "CARCAVAS", "AMENAZA": "Medio", "ESTADO_EG": "Antiguo", "FX2": "20240425_FX2_C06_CAU_PK65-APIAY_PK092+033_VB", "OBSERVACION_GEOTECNISTA": null, "OBSERVACIO": " ", "PROFUNDIDA": null, "COD_ID": "EVEN-7", "ENTREGA": "E23_R1", "LATITUD": 4.4356940000000691, "LONGITUD": -73.183556, "ALTURA": 0.0, "IMAGEN_1": "C004_IMG_20250709_101103.jpg", "IMAGEN_2": "C004_IMG_20250709_101124.jpg", "IMAGEN_3": "C004_IMG_20250709_101150.jpg", "VISUALIZAR_IMAGEN_1": "https://drive.google.com/uc?export=view&id=1fUqaUsarRTVXQeuBkGU8cetXpXPBxi6Z", "VISUALIZAR_IMAGEN_2": "https://drive.google.com/uc?export=view&id=1Zo4h9LZi2MfIFme_u1ltuiCEuDZIbVJO", "VISUALIZAR_IMAGEN_3": "https://drive.google.com/uc?export=view&id=1G9WPb-trEZAGyolpUGfbFZqMK0D4dYzc" }, "geometry": { "type": "Point", "coordinates": [ -73.183556, 4.435694, 0.0 ] } },
{ "type": "Feature", "properties": { "FECHA": "4/07/2025 00:00:00 (UTC)", "DEPTO": "META", "MUNICIPIO": "BARRANCA DE UPÍA", "VEREDA": "CARUTAL", "GASODUCTO": "CUSIANA - APIAY - USME", "TRAMO": "Cusiana - PK65", "TP_DUCTO": "Troncal", "DISTRITO": "4", "DIAMETRO": "12\"", "TRM_REG": "CUSIANA - APIAY", "PK": "057+653", "PK_PAT": null, "ID_EVENTO": "1030", "TP_EVENTO": "REPTACION", "AMENAZA": "Alto", "ESTADO_EG": "Antiguo", "FX2": "20220817_FX2_C04_CAU_CUS-PK65_PK058+515_VC", "OBSERVACION_GEOTECNISTA": null, "OBSERVACIO": "No se evidencia evento geotecnico", "PROFUNDIDA": null, "COD_ID": "EVEN-8", "ENTREGA": "E23_R1", "LATITUD": 4.6799300000000699, "LONGITUD": -73.042836, "ALTURA": 0.0, "IMAGEN_1": "C004_IMG_20250704_073125.jpg", "IMAGEN_2": "C004_IMG_20250704_073139.jpg", "IMAGEN_3": "C004_IMG_20250704_073146.jpg", "VISUALIZAR_IMAGEN_1": "https://drive.google.com/uc?export=view&id=16IBVFM3tngjkk0H2cYF9mS2m0gxfu0wm", "VISUALIZAR_IMAGEN_2": "https://drive.google.com/uc?export=view&id=1ER8AHtefZ4aRzCMUJ8pld8m5Pg_ICubD", "VISUALIZAR_IMAGEN_3": "https://drive.google.com/uc?export=view&id=1Hrgw6ddiq7quy4FUM5LtFl7P7zRZ6ITw" }, "geometry": { "type": "Point", "coordinates": [ -73.042836, 4.67993, 0.0 ] } },
{ "type": "Feature", "properties": { "FECHA": "4/07/2025 00:00:00 (UTC)", "DEPTO": "META", "MUNICIPIO": "BARRANCA DE UPÍA", "VEREDA": "CARUTAL", "GASODUCTO": "CUSIANA - APIAY - USME", "TRAMO": "Cusiana - PK65", "TP_DUCTO": "Troncal", "DISTRITO": "4", "DIAMETRO": "12\"", "TRM_REG": "CUSIANA - APIAY", "PK": "059+290", "PK_PAT": null, "ID_EVENTO": "1315", "TP_EVENTO": "OTRO", "AMENAZA": "Bajo", "ESTADO_EG": "Nuevo", "FX2": "20250506_FX2_C06_CAU_CUS-PK65_PK059+474_VA", "OBSERVACION_GEOTECNISTA": null, "OBSERVACIO": "No se evidencia ningun evento", "PROFUNDIDA": null, "COD_ID": "EVEN-9", "ENTREGA": "E23_R1", "LATITUD": 4.6696840000000748, "LONGITUD": -73.051953, "ALTURA": 0.0, "IMAGEN_1": "C004_IMG_20250704_082108.jpg", "IMAGEN_2": "C004_IMG_20250704_082115.jpg", "IMAGEN_3": "C004_IMG_20250704_082129.jpg", "VISUALIZAR_IMAGEN_1": "https://drive.google.com/uc?export=view&id=1nJydKwBnTEpJSrwk815AqHxmJkeUSw1d", "VISUALIZAR_IMAGEN_2": "https://drive.google.com/uc?export=view&id=18yO7CLEnoFPmvczDFQYMEem5C45NdUJO", "VISUALIZAR_IMAGEN_3": "https://drive.google.com/uc?export=view&id=1iesXYcghHr5qEgoyUclKXFhgHyioSRGX" }, "geometry": { "type": "Point", "coordinates": [ -73.051953, 4.669684, 0.0 ] } },
{ "type": "Feature", "properties": { "FECHA": "10/07/2025 00:00:00 (UTC)", "DEPTO": "CUNDINAMARCA", "MUNICIPIO": "PARATEBUENO", "VEREDA": "MACAPAY ALTO", "GASODUCTO": "CUSIANA - APIAY - USME", "TRAMO": "PK65 - Apiay", "TP_DUCTO": "Troncal", "DISTRITO": "4", "DIAMETRO": "10\"", "TRM_REG": "CUSIANA - APIAY", "PK": "093+198", "PK_PAT": null, "ID_EVENTO": "218", "TP_EVENTO": "SOCAVACIÓN LATERAL", "AMENAZA": "Medio", "ESTADO_EG": "Antiguo", "FX2": "20240425_FX2_C06_CAU_PK65-APIAY_PK093+200_VA", "OBSERVACION_GEOTECNISTA": null, "OBSERVACIO": "Se cambia respecto a linea base de tipo de evento socavacion de fondo a socavación lateral. Margen presenta socavación lateral a 5 metros aguas abajo de la tuberia", "PROFUNDIDA": null, "COD_ID": "EVEN-10", "ENTREGA": "E23_R1", "LATITUD": 4.43098, "LONGITUD": -73.193647, "ALTURA": 0.0, "IMAGEN_1": "C004_IMG_20250710_080731.jpg", "IMAGEN_2": "C004_IMG_20250710_080735.jpg", "IMAGEN_3": "C004_IMG_20250710_080742.jpg", "VISUALIZAR_IMAGEN_1": "https://drive.google.com/uc?export=view&id=1wbQc4JQUJLZ1MplLJC451Cs8smF4hofS", "VISUALIZAR_IMAGEN_2": "https://drive.google.com/uc?export=view&id=1HcIF_RRSsmIpDS-9yHpj5OSwno-FJzbG", "VISUALIZAR_IMAGEN_3": "https://drive.google.com/uc?export=view&id=1H0-C9g1i0CD8OxNE4R4F8GutIzMCxImk" }, "geometry": { "type": "Point", "coordinates": [ -73.193647, 4.43098, 0.0 ] } },
{ "type": "Feature", "properties": { "FECHA": "11/07/2025 00:00:00 (UTC)", "DEPTO": "CUNDINAMARCA", "MUNICIPIO": "PARATEBUENO", "VEREDA": "MACAPAY ALTO", "GASODUCTO": "CUSIANA - APIAY - USME", "TRAMO": "PK65 - Apiay", "TP_DUCTO": "Troncal", "DISTRITO": "4", "DIAMETRO": "10\"", "TRM_REG": "CUSIANA - APIAY", "PK": "094+583", "PK_PAT": null, "ID_EVENTO": "220", "TP_EVENTO": "SOCAVACIÓN LATERAL", "AMENAZA": "Medio", "ESTADO_EG": "Antiguo", "FX2": "20240425_FX2_C06_CAU_PK65-APIAY_PK094+583_VB", "OBSERVACION_GEOTECNISTA": null, "OBSERVACIO": "Se cambia respecto a linea base de tipo de evento socavacion de fondo a socavación lateral. Falla de gavion, produce deslizamiento traslacional. Se encuentra socavacion lateral a 5 metros abajo de la tuberia en la margen izquierda.", "PROFUNDIDA": null, "COD_ID": "EVEN-11", "ENTREGA": "E23_R1", "LATITUD": 4.424355, "LONGITUD": -73.204282, "ALTURA": 0.0, "IMAGEN_1": "C004_IMG_20250711_074405.jpg", "IMAGEN_2": "C004_IMG_20250711_074412.jpg", "IMAGEN_3": "C004_IMG_20250711_074420.jpg", "VISUALIZAR_IMAGEN_1": "https://drive.google.com/uc?export=view&id=1mmHl8YSxC09BOLevMpNNgtwojJG8sGUS", "VISUALIZAR_IMAGEN_2": "https://drive.google.com/uc?export=view&id=1jtGYvv9I98rAXf_DkxgD7euTUOXystuL", "VISUALIZAR_IMAGEN_3": "https://drive.google.com/uc?export=view&id=14Bl-6E7_jWxeHaxx2k10MFYUb-amzW4o" }, "geometry": { "type": "Point", "coordinates": [ -73.204282, 4.424355, 0.0 ] } },
{ "type": "Feature", "properties": { "FECHA": "11/07/2025 00:00:00 (UTC)", "DEPTO": "CUNDINAMARCA", "MUNICIPIO": "PARATEBUENO", "VEREDA": "PALOMAS MARARABE", "GASODUCTO": "CUSIANA - APIAY - USME", "TRAMO": "PK65 - Apiay", "TP_DUCTO": "Troncal", "DISTRITO": "4", "DIAMETRO": "10\"", "TRM_REG": "CUSIANA - APIAY", "PK": "095+573", "PK_PAT": null, "ID_EVENTO": "221", "TP_EVENTO": "SOCAVACIÓN LATERAL", "AMENAZA": "Medio", "ESTADO_EG": "Antiguo", "FX2": "20240425_FX2_C06_CAU_PK65-APIAY_PK095+573_VA.xlsx", "OBSERVACION_GEOTECNISTA": null, "OBSERVACIO": "Socavacion lateral a 5 metros de la tuberia", "PROFUNDIDA": null, "COD_ID": "EVEN-12", "ENTREGA": "E23_R1", "LATITUD": 4.42056, "LONGITUD": -73.211785, "ALTURA": 0.0, "IMAGEN_1": "C004_IMG_20250711_085429.jpg", "IMAGEN_2": "C004_IMG_20250711_085502.jpg", "IMAGEN_3": "C004_IMG_20250711_085517.jpg", "VISUALIZAR_IMAGEN_1": "https://drive.google.com/uc?export=view&id=1poaHVVNY94q_VJiHi4QW8TreYkNvyU3I", "VISUALIZAR_IMAGEN_2": "https://drive.google.com/uc?export=view&id=1RR0rPC5IvbyehgYbs-RNNkJYCXELluML", "VISUALIZAR_IMAGEN_3": "https://drive.google.com/uc?export=view&id=1eDsfeaezbTDpH83z4nICezhZQBL1ivzL" }, "geometry": { "type": "Point", "coordinates": [ -73.211785, 4.42056, 0.0 ] } },
{ "type": "Feature", "properties": { "FECHA": "11/07/2025 00:00:00 (UTC)", "DEPTO": "CUNDINAMARCA", "MUNICIPIO": "PARATEBUENO", "VEREDA": "PALOMAS MARARABE", "GASODUCTO": "CUSIANA - APIAY - USME", "TRAMO": "PK65 - Apiay", "TP_DUCTO": "Troncal", "DISTRITO": "4", "DIAMETRO": "10\"", "TRM_REG": "CUSIANA - APIAY", "PK": "096+515", "PK_PAT": null, "ID_EVENTO": "222", "TP_EVENTO": "SOCAVACIÓN DE FONDO", "AMENAZA": "Medio", "ESTADO_EG": "Antiguo", "FX2": "20240426_FX2_C06_CAU_PK65-APIAY_PK096+515_VA", "OBSERVACION_GEOTECNISTA": null, "OBSERVACIO": "Socavacion de fondo a 10 metros de la tuberia, margen izquierdo esta ocasionando fallo del gavion", "PROFUNDIDA": null, "COD_ID": "EVEN-13", "ENTREGA": "E23_R1", "LATITUD": 4.41567, "LONGITUD": -73.21804, "ALTURA": 0.0, "IMAGEN_1": "C004_IMG_20250711_093127.jpg", "IMAGEN_2": "C004_IMG_20250711_093133.jpg", "IMAGEN_3": "C004_IMG_20250711_093145.jpg", "VISUALIZAR_IMAGEN_1": "https://drive.google.com/uc?export=view&id=1YWE3VEKigBsIydELNV2pjdSC0rjkuY_f", "VISUALIZAR_IMAGEN_2": "https://drive.google.com/uc?export=view&id=1CknPRsE_17INLPqq3NM2V1IURtPWWcmY", "VISUALIZAR_IMAGEN_3": "https://drive.google.com/uc?export=view&id=1bd9phawtJKwL3TMOz-gBhOkV9QAZ0hNt" }, "geometry": { "type": "Point", "coordinates": [ -73.21804, 4.41567, 0.0 ] } },
{ "type": "Feature", "properties": { "FECHA": "11/07/2025 00:00:00 (UTC)", "DEPTO": "CUNDINAMARCA", "MUNICIPIO": "PARATEBUENO", "VEREDA": "PALOMAS MARARABE", "GASODUCTO": "CUSIANA - APIAY - USME", "TRAMO": "PK65 - Apiay", "TP_DUCTO": "Troncal", "DISTRITO": "4", "DIAMETRO": "10\"", "TRM_REG": "CUSIANA - APIAY", "PK": "096+669", "PK_PAT": null, "ID_EVENTO": "223", "TP_EVENTO": "SOCAVACIÓN LATERAL", "AMENAZA": "Medio", "ESTADO_EG": "Antiguo", "FX2": "20240426_FX2_C06_CAU_PK65-APIAY_PK096+668_VA", "OBSERVACION_GEOTECNISTA": null, "OBSERVACIO": "Socavacion lateral de margen izquierdo por arrastre de material fino", "PROFUNDIDA": null, "COD_ID": "EVEN-14", "ENTREGA": "E23_R1", "LATITUD": 4.414819, "LONGITUD": -73.219038, "ALTURA": 0.0, "IMAGEN_1": "C004_IMG_20250711_094048.jpg", "IMAGEN_2": "C004_IMG_20250711_094120.jpg", "IMAGEN_3": "C004_IMG_20250711_094127.jpg", "VISUALIZAR_IMAGEN_1": "https://drive.google.com/uc?export=view&id=1brL4OEmxISUoSQW2epoN0T8UridYOaj9", "VISUALIZAR_IMAGEN_2": "https://drive.google.com/uc?export=view&id=1rYyywfbPeTF-F5kwxGrZ5YQTNflEYhTt", "VISUALIZAR_IMAGEN_3": "https://drive.google.com/uc?export=view&id=1ST__hfzhifG65huvoIRwdLP50jWVixwa" }, "geometry": { "type": "Point", "coordinates": [ -73.219038, 4.414819, 0.0 ] } },
{ "type": "Feature", "properties": { "FECHA": "11/07/2025 00:00:00 (UTC)", "DEPTO": "CUNDINAMARCA", "MUNICIPIO": "PARATEBUENO", "VEREDA": "BRASILIA", "GASODUCTO": "CUSIANA - APIAY - USME", "TRAMO": "PK65 - Apiay", "TP_DUCTO": "Troncal", "DISTRITO": "4", "DIAMETRO": "10\"", "TRM_REG": "CUSIANA - APIAY", "PK": "098+398", "PK_PAT": null, "ID_EVENTO": "224", "TP_EVENTO": "SOCAVACIÓN LATERAL", "AMENAZA": "Medio", "ESTADO_EG": "Antiguo", "FX2": "20240426_FX2_C06_CAU_PK65-APIAY_PK098+438_VA", "OBSERVACION_GEOTECNISTA": null, "OBSERVACIO": "No se evidencia socavacion", "PROFUNDIDA": null, "COD_ID": "EVEN-15", "ENTREGA": "E23_R1", "LATITUD": 4.4045640000000503, "LONGITUD": -73.231371, "ALTURA": 0.0, "IMAGEN_1": "C004_IMG_20250711_103512.jpg", "IMAGEN_2": "C004_IMG_20250711_103524.jpg", "IMAGEN_3": "C004_IMG_20250711_103528.jpg", "VISUALIZAR_IMAGEN_1": "https://drive.google.com/uc?export=view&id=17hQFeqxKuYd5sBIzr4sz7anH73omBwRc", "VISUALIZAR_IMAGEN_2": "https://drive.google.com/uc?export=view&id=1poYQe8JylsXdDm82MRtmk44NhMonkt-Q", "VISUALIZAR_IMAGEN_3": "https://drive.google.com/uc?export=view&id=18O-Yt5H5sVi_nuxTlJenK3MqzePID11X" }, "geometry": { "type": "Point", "coordinates": [ -73.231371, 4.404564, 0.0 ] } },
{ "type": "Feature", "properties": { "FECHA": "30/06/2025 00:00:00 (UTC)", "DEPTO": "(META)", "MUNICIPIO": "VILLAVICENCIO", "VEREDA": "APIAY", "GASODUCTO": "(CUSIANA - APIAY - USME)", "TRAMO": "Apiay - Villavicencio", "TP_DUCTO": "Troncal", "DISTRITO": "4", "DIAMETRO": "10\"", "TRM_REG": "APIAY - USME", "PK": "020+733", "PK_PAT": null, "ID_EVENTO": "1176", "TP_EVENTO": "SOCAVACIÓN DE FONDO", "AMENAZA": "Extremo", "ESTADO_EG": "Antiguo", "FX2": "20231010_FX2_C06_CAU_APIAY-VILLA_PK020+840_VA", "OBSERVACION_GEOTECNISTA": null, "OBSERVACIO": "NO SE OBSERVA LA TUBERÍA EXPUESTA POR SUCIEDAD DEL AGUA", "PROFUNDIDA": null, "COD_ID": "EVEN-1", "ENTREGA": "E27_R1", "LATITUD": 4.08597, "LONGITUD": -73.560708, "ALTURA": 0.0, "IMAGEN_1": "C001_IMG_20250630_104105.jpg", "IMAGEN_2": "C001_IMG_20250630_104124.jpg", "IMAGEN_3": "C001_IMG_20250630_104131.jpg", "VISUALIZAR_IMAGEN_1": "https://drive.google.com/uc?export=view&id=1uRjYtY7AM8wLm-EEIqenE54dJ5gCMYdd", "VISUALIZAR_IMAGEN_2": "https://drive.google.com/uc?export=view&id=1CuXh6aQtmMGwSCyxt6cHUTgNwwh5Wo2b", "VISUALIZAR_IMAGEN_3": "https://drive.google.com/uc?export=view&id=1egXoDVisFROpjQf7-HxaTuX_JNUNJjxl" }, "geometry": { "type": "Point", "coordinates": [ -73.560708, 4.08597, 0.0 ] } }
]
}
