{
"type": "FeatureCollection",
"name": "URL_Eventos",
"crs": { "type": "name", "properties": { "name": "urn:ogc:def:crs:OGC:1.3:CRS84" } },
"features": [
{ "type": "Feature", "properties": { "FECHA": "7/07/2025 00:00:00 (UTC)", "DEPTO": "(CUNDINAMARCA)", "MUNICIPIO": "PARATEBUENO", "VEREDA": "SANTA CECILIA", "GASODUCTO": "(CUSIANA - APIAY - USME)", "TRAMO": "PK65 - Apiay", "TP_DUCTO": "(Troncal)", "DISTRITO": "4", "DIAMETRO": "10\"", "TRM_REG": "(CUSIANA - APIAY)", "PK": "111+009", "TP_EVENTO": "(SOCAVACIÓN LATERAL)", "LONG_EVENT": 0.0, "OBSERVACIO": " ", "PROFUNDIDA": 1.09, "COD_ID": "HALL-1", "ENTREGA": "E24_R1", "LATITUD": 4.3492408330000671, "LONGITUD": -73.310378582999988, "IMAGEN_1": "C001_IMG_20250707_085902.jpg", "IMAGEN_2": "C001_IMG_20250707_085946.jpg", "IMAGEN_3": "C001_IMG_20250707_090023.jpg", "VISUALIZAR_IMAGEN_1": "https://drive.google.com/uc?export=view&id=14b5eqBr6f1Lqg5zf9yFhSHhHeV9d7kkf", "VISUALIZAR_IMAGEN_2": "https://drive.google.com/uc?export=view&id=1PQgzSFqeEF0U4J6lMVlxcA9ZHGsJOqer", "VISUALIZAR_IMAGEN_3": "https://drive.google.com/uc?export=view&id=155BlrBHo5Di8ojdMo2ljCA4-uLa7e9Mr" }, "geometry": { "type": "Point", "coordinates": [ -73.310378582999988, 4.349240833000067, 317.372000000003027 ] } },
{ "type": "Feature", "properties": { "FECHA": "7/07/2025 00:00:00 (UTC)", "DEPTO": "(CUNDINAMARCA)", "MUNICIPIO": "PARATEBUENO", "VEREDA": "SANTA CECILIA", "GASODUCTO": "(CUSIANA - APIAY - USME)", "TRAMO": "PK65 - Apiay", "TP_DUCTO": "(Troncal)", "DISTRITO": "4", "DIAMETRO": "10\"", "TRM_REG": "(CUSIANA - APIAY)", "PK": "114+878", "TP_EVENTO": "OTRO", "LONG_EVENT": 0.0, "OBSERVACIO": " ", "PROFUNDIDA": 1.83, "COD_ID": "HALL-2", "ENTREGA": "E24_R1", "LATITUD": 4.340370000000064, "LONGITUD": -73.342152, "IMAGEN_1": "C001_IMG_20250707_121904.jpg", "IMAGEN_2": "C001_IMG_20250707_121942.jpg", "IMAGEN_3": "C001_IMG_20250707_121946.jpg", "VISUALIZAR_IMAGEN_1": "https://drive.google.com/uc?export=view&id=1355Kjtj7QsKYjX2WHsCE827Ol5he0UDP", "VISUALIZAR_IMAGEN_2": "https://drive.google.com/uc?export=view&id=1qeTzsJhcT3EKfHRlZZK5APUoyhIsPex6", "VISUALIZAR_IMAGEN_3": "https://drive.google.com/uc?export=view&id=143Pd0XQcJt55oIpAqa-nbvMGEX_NgRno" }, "geometry": { "type": "Point", "coordinates": [ -73.342152, 4.34037, 397.137900000001537 ] } },
{ "type": "Feature", "properties": { "FECHA": "2/06/2025 00:00:00 (UTC)", "DEPTO": "(TOLIMA)", "MUNICIPIO": "VENADILLO", "VEREDA": "LA CUBANA", "GASODUCTO": "(CENTRO - ORIENTE)", "TRAMO": "Mariquita - Gualanday", "TP_DUCTO": "(Troncal)", "DISTRITO": "2", "DIAMETRO": "6\"", "TRM_REG": "(MARIQUITA - GUALANDAY)", "PK": "357+136", "TP_EVENTO": "SOCAVACIÓN LATERAL", "LONG_EVENT": null, "OBSERVACIO": "", "PROFUNDIDA": 1.4, "COD_ID": "HALL-1", "ENTREGA": "E15_R1", "LATITUD": 4.7149598330000231, "LONGITUD": -74.935924166999939, "IMAGEN_1": "C001_IMG_20250602_074912.jpg", "IMAGEN_2": "C001_IMG_20250602_074844.jpg", "IMAGEN_3": "C001_IMG_20250602_074831.jpg", "VISUALIZAR_IMAGEN_1": "https://drive.google.com/uc?export=view&id=1z0Gax-viKKvrlh9BgfM-Luo58yweB5Vc", "VISUALIZAR_IMAGEN_2": "https://drive.google.com/uc?export=view&id=1PZhGZZmfnuBf1qmX_l7_UDb9Im_EJ6dY", "VISUALIZAR_IMAGEN_3": "https://drive.google.com/uc?export=view&id=1HO_haVu_J7SgDi9pMPU0KopP7X_hDmJO" }, "geometry": { "type": "Point", "coordinates": [ -74.935924166999939, 4.714959833000023, 356.25 ] } },
{ "type": "Feature", "properties": { "FECHA": "7/06/2025 00:00:00 (UTC)", "DEPTO": "(VALLE DEL CAUCA)", "MUNICIPIO": "PRADERA", "VEREDA": "BOLO HARTONAL", "GASODUCTO": "(MARIQUITA - CALI)", "TRAMO": "Pradera", "TP_DUCTO": "(Ramal)", "DISTRITO": "8", "DIAMETRO": "6\"", "TRM_REG": "(ARMENIA - CALI)", "PK": "034+932", "TP_EVENTO": "(SOCAVACIÓN LATERAL)", "LONG_EVENT": null, "OBSERVACIO": "", "PROFUNDIDA": 2.3, "COD_ID": "HALL-1", "ENTREGA": "E17_R1_P2", "LATITUD": 3.4310608330000605, "LONGITUD": -76.257971082999973, "IMAGEN_1": "C002_IMG_20250607_090917.jpg", "IMAGEN_2": "C002_IMG_20250607_090923.jpg", "IMAGEN_3": "C002_IMG_20250607_090928.jpg", "VISUALIZAR_IMAGEN_1": "https://drive.google.com/uc?export=view&id=15BZnmTGedtcsywo8w5mVeiS19P91je2O", "VISUALIZAR_IMAGEN_2": "https://drive.google.com/uc?export=view&id=1MhXiTrybIn4KADRSFFPxE_G2S1JlRd_H", "VISUALIZAR_IMAGEN_3": "https://drive.google.com/uc?export=view&id=198undXmUv71ZaANHfS2m9pH1Baz95aim" }, "geometry": { "type": "Point", "coordinates": [ -76.257971082999973, 3.43106083300006, 1055.80000000000291 ] } },
{ "type": "Feature", "properties": { "FECHA": "28/05/2025 00:00:00 (UTC)", "DEPTO": "(VALLE DEL CAUCA)", "MUNICIPIO": "GINEBRA", "VEREDA": "ZABALETAS", "GASODUCTO": "(MARIQUITA - CALI)", "TRAMO": "Ginebra", "TP_DUCTO": "(Ramal)", "DISTRITO": "8", "DIAMETRO": "2\"", "TRM_REG": "(ARMENIA - CALI)", "PK": "007+644", "TP_EVENTO": "(OTRO)", "LONG_EVENT": null, "OBSERVACIO": "", "PROFUNDIDA": 0.5, "COD_ID": "HALL-2", "ENTREGA": "E17_R1_P1", "LATITUD": 3.7119168330000321, "LONGITUD": -76.279115582999964, "IMAGEN_1": "C002_IMG_20250528_094210.jpg", "IMAGEN_2": "C002_IMG_20250528_094216.jpg", "IMAGEN_3": "C002_IMG_20250528_094220.jpg", "VISUALIZAR_IMAGEN_1": "https://drive.google.com/uc?export=view&id=1DYfnwXRtG3Ka4T2_1G0t4J6dbq_HdyIm", "VISUALIZAR_IMAGEN_2": "https://drive.google.com/uc?export=view&id=1p2yWctB_6mvq5B8Sfz8uKqhmD1pkhZXM", "VISUALIZAR_IMAGEN_3": "https://drive.google.com/uc?export=view&id=14H0dCrGrwnEohr4qJQfrlP-kEWoUJcTQ" }, "geometry": { "type": "Point", "coordinates": [ -76.279115582999964, 3.711916833000032, 1035.600000000005821 ] } },
{ "type": "Feature", "properties": { "FECHA": "2/06/2025 00:00:00 (UTC)", "DEPTO": "(TOLIMA)", "MUNICIPIO": "GUAMO", "VEREDA": "PRINGAMOSAL CENTRO", "GASODUCTO": "(CENTRO - ORIENTE)", "TRAMO": "Gualanday - Guasimal", "TP_DUCTO": "(Troncal)", "DISTRITO": "2", "DIAMETRO": "12\"", "TRM_REG": "(GUALANDAY - NEIVA)", "PK": "445+874", "TP_EVENTO": "(CARCAVAS)", "LONG_EVENT": null, "OBSERVACIO": "", "PROFUNDIDA": 3.2, "COD_ID": "HALL-1", "ENTREGA": "E18_R1", "LATITUD": 4.0316101670000535, "LONGITUD": -74.981908332999978, "IMAGEN_1": "C004_IMG_20250602_072054.jpg", "IMAGEN_2": "C004_IMG_20250602_072105.jpg", "IMAGEN_3": "C004_IMG_20250602_072110.jpg", "VISUALIZAR_IMAGEN_1": "https://drive.google.com/uc?export=view&id=1KHUcTxpdeUOxNcBS00pth4dPJac_1Yjx", "VISUALIZAR_IMAGEN_2": "https://drive.google.com/uc?export=view&id=1yxl6L6YC4XAv0ClsXQHpi34WvXHbDsAW", "VISUALIZAR_IMAGEN_3": "https://drive.google.com/uc?export=view&id=1g_mhbQzLyS1lDA9hTBj2HR_fpNgshsig" }, "geometry": { "type": "Point", "coordinates": [ -74.981908332999978, 4.031610167000053, 335.649999999994179 ] } },
{ "type": "Feature", "properties": { "FECHA": "7/06/2025 00:00:00 (UTC)", "DEPTO": "(TOLIMA)", "MUNICIPIO": "SAN LUIS", "VEREDA": "LOS CIRUELOS", "GASODUCTO": "(CENTRO - ORIENTE)", "TRAMO": "San Luis", "TP_DUCTO": "(Ramal)", "DISTRITO": "2", "DIAMETRO": "2\"", "TRM_REG": "MONTANUELO - GUALANDAY", "PK": "000+254", "TP_EVENTO": "OTRO", "LONG_EVENT": null, "OBSERVACIO": "Excavacion mecanica a un costado del DDV", "PROFUNDIDA": 1.71, "COD_ID": "HALL-1", "ENTREGA": "E19_R1", "LATITUD": 4.1234022630000595, "LONGITUD": -75.090649181999936, "IMAGEN_1": "C003_IMG_20250607_111103.jpg", "IMAGEN_2": "C003_IMG_20250607_111110.jpg", "IMAGEN_3": "C003_IMG_20250607_111116.jpg", "VISUALIZAR_IMAGEN_1": "https://drive.google.com/uc?export=view&id=1w1wGhlJFjwzC5QCaF3Cm-XvsnvrhUtIR", "VISUALIZAR_IMAGEN_2": "https://drive.google.com/uc?export=view&id=1LIhhzmtro9Bn6HxCxnAEqGsu4vDOJFjw", "VISUALIZAR_IMAGEN_3": "https://drive.google.com/uc?export=view&id=1HwctViE9OnHh-LILpf1cs0T5Ai8c4D4J" }, "geometry": { "type": "Point", "coordinates": [ -75.090649181999936, 4.12340226300006, 482.936600000000908 ] } },
{ "type": "Feature", "properties": { "FECHA": "4/06/2025 00:00:00 (UTC)", "DEPTO": "(TOLIMA)", "MUNICIPIO": "GUAMO", "VEREDA": "LAS MERCEDES", "GASODUCTO": "CENTRO - ORIENTE", "TRAMO": "Montañuelo - Gualanday", "TP_DUCTO": "Ramal Remitente", "DISTRITO": "2", "DIAMETRO": "6\"", "TRM_REG": "MONTANUELO - GUALANDAY", "PK": "025+069", "TP_EVENTO": "SOCAVACIÓN LATERAL", "LONG_EVENT": null, "OBSERVACIO": "Existe socavación lateral en la margen final del caño", "PROFUNDIDA": 0.7, "COD_ID": "HALL-2", "ENTREGA": "E19_R1", "LATITUD": 4.206272082000055, "LONGITUD": -75.016370830999961, "IMAGEN_1": "C003_IMG_20250604_085524.jpg", "IMAGEN_2": "C003_IMG_20250604_085550.jpg", "IMAGEN_3": "C003_IMG_20250604_085555.jpg", "VISUALIZAR_IMAGEN_1": "https://drive.google.com/uc?export=view&id=1UCo0B_6vQAPtH0WW2rZrilfqn-uUiaqh", "VISUALIZAR_IMAGEN_2": "https://drive.google.com/uc?export=view&id=1HjSzjUlymMPV46t8YzP-W2xwBwkqhn4j", "VISUALIZAR_IMAGEN_3": "https://drive.google.com/uc?export=view&id=1fBOzioj9nn3mtSV0Fsqp5sW7JOVU1uDp" }, "geometry": { "type": "Point", "coordinates": [ -75.016370830999961, 4.206272082000055, 407.966700000004494 ] } },
{ "type": "Feature", "properties": { "FECHA": "4/06/2025 00:00:00 (UTC)", "DEPTO": "(TOLIMA)", "MUNICIPIO": "GUAMO", "VEREDA": "LAS MERCEDES", "GASODUCTO": "CENTRO - ORIENTE", "TRAMO": "Montañuelo - Gualanday", "TP_DUCTO": "Ramal Remitente", "DISTRITO": "2", "DIAMETRO": "6\"", "TRM_REG": "MONTANUELO - GUALANDAY", "PK": "026+241", "TP_EVENTO": "SOCAVACIÓN LATERAL", "LONG_EVENT": null, "OBSERVACIO": "Socavación lateral en ambos margenes y muro ssc deteriorado", "PROFUNDIDA": 1.35, "COD_ID": "HALL-3", "ENTREGA": "E19_R1", "LATITUD": 4.2150526170000262, "LONGITUD": -75.010538289999943, "IMAGEN_1": "C003_IMG_20250604_075440.jpg", "IMAGEN_2": "C003_IMG_20250604_075445.jpg", "IMAGEN_3": "C003_IMG_20250604_075450.jpg", "VISUALIZAR_IMAGEN_1": "https://drive.google.com/uc?export=view&id=1B8yFYjb2UrHXLwuY2OzaSDVSFpl97Zqp", "VISUALIZAR_IMAGEN_2": "https://drive.google.com/uc?export=view&id=1jtXpNmy8GVLiqj7v-IP4Bh92bq_juNEO", "VISUALIZAR_IMAGEN_3": "https://drive.google.com/uc?export=view&id=1wJfZIuIJYdWza_Nd75i6Qm9GSfmTWO8x" }, "geometry": { "type": "Point", "coordinates": [ -75.010538289999943, 4.215052617000026, 418.80000000000291 ] } },
{ "type": "Feature", "properties": { "FECHA": "7/06/2025 00:00:00 (UTC)", "DEPTO": "(TOLIMA)", "MUNICIPIO": "PURIFICACIÓN", "VEREDA": "BAURA", "GASODUCTO": "(CENTRO - ORIENTE)", "TRAMO": "Purificacion", "TP_DUCTO": "(Ramal)", "DISTRITO": "2", "DIAMETRO": "2\"", "TRM_REG": "(GUALANDAY - NEIVA)", "PK": "001+351", "TP_EVENTO": "(SOCAVACIÓN LATERAL)", "LONG_EVENT": null, "OBSERVACIO": null, "PROFUNDIDA": 3.4, "COD_ID": "HALLAZ", "ENTREGA": "E20_R1", "LATITUD": 3.8779449170000362, "LONGITUD": -74.932346166999935, "IMAGEN_1": "C004_IMG_20250607_085157.jpg", "IMAGEN_2": "C004_IMG_20250607_085212.jpg", "IMAGEN_3": "C004_IMG_20250607_085227.jpg", "VISUALIZAR_IMAGEN_1": "https://drive.google.com/uc?export=view&id=1RE6xJF3Qyz0RK7eCJzIPYB84JUTeJ1TD", "VISUALIZAR_IMAGEN_2": "https://drive.google.com/uc?export=view&id=1a6ejbQ0pwljrTJRVXmvwPct1uO_NXBoL", "VISUALIZAR_IMAGEN_3": "https://drive.google.com/uc?export=view&id=1vX2Zn3a0WAH6AgXamBi6F8zsiDGZnVX2" }, "geometry": { "type": "Point", "coordinates": [ -74.932346166999935, 3.877944917000036, 310.94999999999709 ] } },
{ "type": "Feature", "properties": { "FECHA": "8/06/2025 00:00:00 (UTC)", "DEPTO": "(TOLIMA)", "MUNICIPIO": "SALDAÑA", "VEREDA": "JABALCÓN", "GASODUCTO": "(CENTRO - ORIENTE)", "TRAMO": "Gualanday - Guasimal", "TP_DUCTO": "(Troncal)", "DISTRITO": "2", "DIAMETRO": "12\"", "TRM_REG": "(GUALANDAY - NEIVA)", "PK": "469+820", "TP_EVENTO": "(OTRO)", "LONG_EVENT": null, "OBSERVACIO": null, "PROFUNDIDA": 1.8, "COD_ID": "HALLAZ", "ENTREGA": "E20_R1", "LATITUD": 3.8546758330000443, "LONGITUD": -75.054643582999972, "IMAGEN_1": "C004_IMG_20250608_084124.jpg", "IMAGEN_2": "C004_IMG_20250608_084137.jpg", "IMAGEN_3": "C004_IMG_20250608_084142.jpg", "VISUALIZAR_IMAGEN_1": "https://drive.google.com/uc?export=view&id=1LiNbPHN9GrAwmRpMO9z3yH9PjSLQS8Jd", "VISUALIZAR_IMAGEN_2": "https://drive.google.com/uc?export=view&id=1BRxS7sl6esLfpinO5JrvgyEp_rf-y4u9", "VISUALIZAR_IMAGEN_3": "https://drive.google.com/uc?export=view&id=1o5Pc2ttOEtb4Qc0GJqoXg5mqqhKd-QiC" }, "geometry": { "type": "Point", "coordinates": [ -75.054643582999972, 3.854675833000044, 346.399999999994179 ] } },
{ "type": "Feature", "properties": { "FECHA": "30/06/2025 00:00:00 (UTC)", "DEPTO": "(HUILA)", "MUNICIPIO": "AIPE", "VEREDA": "DINDAL", "GASODUCTO": "(CENTRO - ORIENTE)", "TRAMO": "Guasimal - Dina", "TP_DUCTO": "(Troncal)", "DISTRITO": "2", "DIAMETRO": "12\"", "TRM_REG": "(GUALANDAY - NEIVA)", "PK": "556+221", "TP_EVENTO": "(DESLIZAMIENTO TRASLACIONAL)", "LONG_EVENT": null, "OBSERVACIO": null, "PROFUNDIDA": 1.57, "COD_ID": "HALL-1", "ENTREGA": "E21_R1", "LATITUD": 3.1483179170000426, "LONGITUD": -75.278859749999981, "IMAGEN_1": "C002_IMG_20250630_080514.jpg", "IMAGEN_2": "C002_IMG_20250630_080526.jpg", "IMAGEN_3": "C002_IMG_20250630_080530.jpg", "VISUALIZAR_IMAGEN_1": "https://drive.google.com/uc?export=view&id=1zcYQdSheZ2QG9veNINu__D1iatkEbTUD", "VISUALIZAR_IMAGEN_2": "https://drive.google.com/uc?export=view&id=1oSY09m-vdWqtdGYLrr-8hgyMttajWw-M", "VISUALIZAR_IMAGEN_3": "https://drive.google.com/uc?export=view&id=1O_XY-vr_5mdQg8NJ5OITErWTDQNpkxHE" }, "geometry": { "type": "Point", "coordinates": [ -75.278859749999981, 3.148317917000043, 409.80000000000291 ] } },
{ "type": "Feature", "properties": { "FECHA": "2/07/2025 00:00:00 (UTC)", "DEPTO": "(HUILA)", "MUNICIPIO": "NEIVA", "VEREDA": "GUACIRCO - SAN JORGE", "GASODUCTO": "(CENTRO - ORIENTE)", "TRAMO": "Dina - Tello", "TP_DUCTO": "(Troncal)", "DISTRITO": "2", "DIAMETRO": "6\"", "TRM_REG": "(GUALANDAY - NEIVA)", "PK": "002+172", "TP_EVENTO": "(SURCOS)", "LONG_EVENT": null, "OBSERVACIO": null, "PROFUNDIDA": 1.46, "COD_ID": "HALL-2", "ENTREGA": "E21_R1", "LATITUD": 3.0624014170000464, "LONGITUD": -75.2826455, "IMAGEN_1": "C002_IMG_20250702_081050.jpg", "IMAGEN_2": "C002_IMG_20250702_081055.jpg", "IMAGEN_3": "C002_IMG_20250702_081100.jpg", "VISUALIZAR_IMAGEN_1": "https://drive.google.com/uc?export=view&id=1qQPByiqV_XQdS5mqe8ITxQu5hiLjBTx8", "VISUALIZAR_IMAGEN_2": "https://drive.google.com/uc?export=view&id=1yUp66cNg7RgKEhAcPC47DadlFC2w8Onn", "VISUALIZAR_IMAGEN_3": "https://drive.google.com/uc?export=view&id=1rnYeiQDlHW6rLaFZVBh4YGP--rYtGetE" }, "geometry": { "type": "Point", "coordinates": [ -75.282645499999944, 3.062401417000046, 458.100000000005821 ] } },
{ "type": "Feature", "properties": { "FECHA": "2/07/2025 00:00:00 (UTC)", "DEPTO": "(HUILA)", "MUNICIPIO": "NEIVA", "VEREDA": "SAN ANDRES DE BUSIRACO", "GASODUCTO": "(CENTRO - ORIENTE)", "TRAMO": "Dina - Tello", "TP_DUCTO": "(Troncal)", "DISTRITO": "2", "DIAMETRO": "6\"", "TRM_REG": "(GUALANDAY - NEIVA)", "PK": "003+956", "TP_EVENTO": "(SOCAVACIÓN DE FONDO)", "LONG_EVENT": null, "OBSERVACIO": null, "PROFUNDIDA": 0.0, "COD_ID": "HALL-3", "ENTREGA": "E21_R1", "LATITUD": 3.0481840830000237, "LONGITUD": -75.281095166999989, "IMAGEN_1": "C002_IMG_20250702_091201.jpg", "IMAGEN_2": "C002_IMG_20250702_091224.jpg", "IMAGEN_3": "C002_IMG_20250702_091228.jpg", "VISUALIZAR_IMAGEN_1": "https://drive.google.com/uc?export=view&id=1iMspBxcKSZwYQiQSRWwQnSUimXT6CdCX", "VISUALIZAR_IMAGEN_2": "https://drive.google.com/uc?export=view&id=1-0yURSK7bJQjaZZ-HK43dLFRvjE1hsDb", "VISUALIZAR_IMAGEN_3": "https://drive.google.com/uc?export=view&id=1MVxRBdK7DrIEtBLjXPMLac2rvERF30Gi" }, "geometry": { "type": "Point", "coordinates": [ -75.281095166999989, 3.048184083000024, 464.05000000000291 ] } },
{ "type": "Feature", "properties": { "FECHA": "5/07/2025 00:00:00 (UTC)", "DEPTO": "(HUILA)", "MUNICIPIO": "NEIVA", "VEREDA": "VENADO", "GASODUCTO": "(CENTRO - ORIENTE)", "TRAMO": "Dina - Tello", "TP_DUCTO": "(Troncal)", "DISTRITO": "2", "DIAMETRO": "6\"", "TRM_REG": "(GUALANDAY - NEIVA)", "PK": "014+036", "TP_EVENTO": "(CARCAVAS)", "LONG_EVENT": null, "OBSERVACIO": null, "PROFUNDIDA": 1.5, "COD_ID": "HALL-4", "ENTREGA": "E21_R1", "LATITUD": 2.9801624170000309, "LONGITUD": -75.259030166999935, "IMAGEN_1": "C002_IMG_20250705_091422.jpg", "IMAGEN_2": "C002_IMG_20250705_091432.jpg", "IMAGEN_3": "C002_IMG_20250705_091442.jpg", "VISUALIZAR_IMAGEN_1": "https://drive.google.com/uc?export=view&id=19BgVId4BlgSAH3mRR-YpqYOcBPRtFTog", "VISUALIZAR_IMAGEN_2": "https://drive.google.com/uc?export=view&id=1kBoxqPu1TXF9PSRQBHZZcSof9EYw8O5t", "VISUALIZAR_IMAGEN_3": "https://drive.google.com/uc?export=view&id=1mCb9g0ujjPM1IUzCGk00SbnK3bDdqWZf" }, "geometry": { "type": "Point", "coordinates": [ -75.259030166999935, 2.980162417000031, 473.600000000005821 ] } },
{ "type": "Feature", "properties": { "FECHA": "11/06/2025 00:00:00 (UTC)", "DEPTO": "(TOLIMA)", "MUNICIPIO": "NATAGAIMA", "VEREDA": "GUASIMAL MESAS", "GASODUCTO": "(CENTRO - ORIENTE)", "TRAMO": "Gualanday - Guasimal", "TP_DUCTO": "(Troncal)", "DISTRITO": "2", "DIAMETRO": "12\"", "TRM_REG": "(GUALANDAY - NEIVA)", "PK": "502+361", "TP_EVENTO": "(SURCOS)", "LONG_EVENT": null, "OBSERVACIO": null, "PROFUNDIDA": 1.1, "COD_ID": "HALL-5", "ENTREGA": "E21_R1", "LATITUD": 3.5748611670000514, "LONGITUD": -75.124167332999946, "IMAGEN_1": "C002_IMG_20250611_083216.jpg", "IMAGEN_2": "C002_IMG_20250611_083224.jpg", "IMAGEN_3": "C002_IMG_20250611_083227.jpg", "VISUALIZAR_IMAGEN_1": "https://drive.google.com/uc?export=view&id=1YiH7IK3Fwwe0X5DcesUxSxygxDV0cZzx", "VISUALIZAR_IMAGEN_2": "https://drive.google.com/uc?export=view&id=1Y8falaEVbkDqMBlS6UP_v4xjlqPiGalm", "VISUALIZAR_IMAGEN_3": "https://drive.google.com/uc?export=view&id=17H_zVKsYj-3LtlLJAO7Xyr7D1-0rc9u1" }, "geometry": { "type": "Point", "coordinates": [ -75.124167332999946, 3.574861167000051, 357.19999999999709 ] } },
{ "type": "Feature", "properties": { "FECHA": "11/06/2025 00:00:00 (UTC)", "DEPTO": "(TOLIMA)", "MUNICIPIO": "NATAGAIMA", "VEREDA": "GUASIMAL MESAS", "GASODUCTO": "(CENTRO - ORIENTE)", "TRAMO": "Gualanday - Guasimal", "TP_DUCTO": "(Troncal)", "DISTRITO": "2", "DIAMETRO": "12\"", "TRM_REG": "(GUALANDAY - NEIVA)", "PK": "502+899", "TP_EVENTO": "(SURCOS)", "LONG_EVENT": null, "OBSERVACIO": null, "PROFUNDIDA": 1.25, "COD_ID": "HALL-6", "ENTREGA": "E21_R1", "LATITUD": 3.5701291670000614, "LONGITUD": -75.12337708299998, "IMAGEN_1": "C002_IMG_20250611_084736.jpg", "IMAGEN_2": "C002_IMG_20250611_084739.jpg", "IMAGEN_3": "C002_IMG_20250611_084743.jpg", "VISUALIZAR_IMAGEN_1": "https://drive.google.com/uc?export=view&id=17LK9cWsSbOQR4Q3tjUR-HmsAVv6zOjEj", "VISUALIZAR_IMAGEN_2": "https://drive.google.com/uc?export=view&id=1hmX9zLq9s1TwFnT9RnBaWWZPXAFETnEo", "VISUALIZAR_IMAGEN_3": "https://drive.google.com/uc?export=view&id=1ZEPW1d3PUzyU3AH2BJ3uf4vROI12mO5X" }, "geometry": { "type": "Point", "coordinates": [ -75.12337708299998, 3.570129167000061, 357.899999999994179 ] } },
{ "type": "Feature", "properties": { "FECHA": "11/06/2025 00:00:00 (UTC)", "DEPTO": "(TOLIMA)", "MUNICIPIO": "NATAGAIMA", "VEREDA": "GUASIMAL MESAS", "GASODUCTO": "(CENTRO - ORIENTE)", "TRAMO": "Guasimal - Dina", "TP_DUCTO": "(Troncal)", "DISTRITO": "2", "DIAMETRO": "12\"", "TRM_REG": "(GUALANDAY - NEIVA)", "PK": "503+805", "TP_EVENTO": "(OTRO)", "LONG_EVENT": null, "OBSERVACIO": null, "PROFUNDIDA": 1.4, "COD_ID": "HALL-7", "ENTREGA": "E21_R1", "LATITUD": 3.5622401670000272, "LONGITUD": -75.124204, "IMAGEN_1": "C002_IMG_20250611_093603.jpg", "IMAGEN_2": "C002_IMG_20250611_093606.jpg", "IMAGEN_3": "C002_IMG_20250611_093609.jpg", "VISUALIZAR_IMAGEN_1": "https://drive.google.com/uc?export=view&id=17JDfYC0QlhtCN5W53R1PYz-bwP-vdLCW", "VISUALIZAR_IMAGEN_2": "https://drive.google.com/uc?export=view&id=1xhV652etv4iiCcxUYVVi6XbZkeHkYbMK", "VISUALIZAR_IMAGEN_3": "https://drive.google.com/uc?export=view&id=1v2gZfSt1erllSHhfzWajWBtGGvQk_f8Y" }, "geometry": { "type": "Point", "coordinates": [ -75.124204, 3.562240167000027, 363.05000000000291 ] } },
{ "type": "Feature", "properties": { "FECHA": "2/07/2025 00:00:00 (UTC)", "DEPTO": "(CUNDINAMARCA)", "MUNICIPIO": "UNE", "VEREDA": "ÁREA URBANA", "GASODUCTO": "( )", "TRAMO": " ", "TP_DUCTO": "( )", "DISTRITO": "( )", "DIAMETRO": "( )", "TRM_REG": "( )", "PK": "105+429", "TP_EVENTO": "SOCAVACIÓN LATERAL", "LONG_EVENT": null, "OBSERVACIO": "Socavacion de margen en el caño", "PROFUNDIDA": 2.05, "COD_ID": "HALL-1", "ENTREGA": "E22_R1", "LATITUD": 4.3989645910000377, "LONGITUD": -74.027149772999962, "IMAGEN_1": "C003_IMG_20250702_094204.jpg", "IMAGEN_2": "C003_IMG_20250702_094217.jpg", "IMAGEN_3": "C003_IMG_20250702_094223.jpg", "VISUALIZAR_IMAGEN_1": "https://drive.google.com/uc?export=view&id=18FykFWvNGAVb-Eyz0FGPoNd69Z3PFL9G", "VISUALIZAR_IMAGEN_2": "https://drive.google.com/uc?export=view&id=1iWexm1RnK_W5v0FDYKOBYr2AYpl8OjY3", "VISUALIZAR_IMAGEN_3": "https://drive.google.com/uc?export=view&id=1sthWZp6uW4bUfo1CDRQ1I4SHgazK3PJW" }, "geometry": { "type": "Point", "coordinates": [ -74.027149772999962, 4.398964591000038, 0.0 ] } },
{ "type": "Feature", "properties": { "FECHA": "1/07/2025 00:00:00 (UTC)", "DEPTO": "(CUNDINAMARCA)", "MUNICIPIO": "CÁQUEZA", "VEREDA": "MERCADILLO", "GASODUCTO": "(CUSIANA - APIAY - USME)", "TRAMO": "Villavicencio - Usme", "TP_DUCTO": "(Troncal)", "DISTRITO": "4", "DIAMETRO": "6\"", "TRM_REG": "(APIAY - USME)", "PK": "101+575", "TP_EVENTO": "REPTACION", "LONG_EVENT": null, "OBSERVACIO": "Se observa tuberia descubierta aledaña a un cruce subfluvial, obra geotecnica deteriorada pero estable, por la vegetacion se asume que el evento lleva bastante tiempo", "PROFUNDIDA": 0.0, "COD_ID": "HALL-1", "ENTREGA": "E22_R1", "LATITUD": 4.4051419190000729, "LONGITUD": -74.001240142999961, "IMAGEN_1": "C003_IMG_20250701_111831.jpg", "IMAGEN_2": "C003_IMG_20250701_111857.jpg", "IMAGEN_3": "C003_IMG_20250701_211913.jpg", "VISUALIZAR_IMAGEN_1": "https://drive.google.com/uc?export=view&id=1M_uuhga15O3kGMaRi7-6Yh6wnPnq1XTT", "VISUALIZAR_IMAGEN_2": "https://drive.google.com/uc?export=view&id=17Fx_rR36Pu2vZ5CUXSkZOGGjVhKIrW8K", "VISUALIZAR_IMAGEN_3": "https://drive.google.com/uc?export=view&id=1hzZs9FOVFTNkuc8m6CgAz2tFb-HOV_xd" }, "geometry": { "type": "Point", "coordinates": [ -74.001240142999961, 4.405141919000073, 2345.165099999998347 ] } },
{ "type": "Feature", "properties": { "FECHA": "2/07/2025 00:00:00 (UTC)", "DEPTO": "(CASANARE)", "MUNICIPIO": "SABANALARGA", "VEREDA": "NUEVA ZELANDIA", "GASODUCTO": "(CUSIANA - APIAY - USME)", "TRAMO": "Villanueva", "TP_DUCTO": "Ramal", "DISTRITO": "4", "DIAMETRO": "2\"", "TRM_REG": "(CUSIANA - APIAY)", "PK": "006+257", "TP_EVENTO": "(CAIDAS)", "LONG_EVENT": null, "OBSERVACIO": "", "PROFUNDIDA": 1.9, "COD_ID": "HALL-1", "ENTREGA": "E23_R1", "LATITUD": 4.6639225000001003, "LONGITUD": -72.98622041699997, "IMAGEN_1": "C004_IMG_20250702_080320.jpg", "IMAGEN_2": "C004_IMG_20250702_080330.jpg", "IMAGEN_3": "C004_IMG_20250702_080333.jpg", "VISUALIZAR_IMAGEN_1": "https://drive.google.com/uc?export=view&id=1f8XlxD796KaQILeoqzQZ4NE2N1gLqvjD", "VISUALIZAR_IMAGEN_2": "https://drive.google.com/uc?export=view&id=1TDpbP5ctbZdrvMiyYO69ov2sB-_GxGud", "VISUALIZAR_IMAGEN_3": "https://drive.google.com/uc?export=view&id=1jW8sSXV_ftiUMF2br-JiyNuiUJ0BJ7I2" }, "geometry": { "type": "Point", "coordinates": [ -72.98622041699997, 4.663922500000069, 336.80000000000291 ] } },
{ "type": "Feature", "properties": { "FECHA": "4/07/2025 00:00:00 (UTC)", "DEPTO": "(META)", "MUNICIPIO": "BARRANCA DE UPÍA", "VEREDA": "CARUTAL", "GASODUCTO": "(CUSIANA - APIAY - USME)", "TRAMO": "Cusiana - PK65", "TP_DUCTO": "(Troncal)", "DISTRITO": "4", "DIAMETRO": "12\"", "TRM_REG": "(CUSIANA - APIAY)", "PK": "059+873", "TP_EVENTO": "(EROSIÓN LAMINAR)", "LONG_EVENT": null, "OBSERVACIO": "", "PROFUNDIDA": 0.0, "COD_ID": "HALL-2", "ENTREGA": "E23_R1", "LATITUD": 4.6654929170000514, "LONGITUD": -73.0549565, "IMAGEN_1": "C004_IMG_20250704_085924.jpg", "IMAGEN_2": "C004_IMG_20250704_085934.jpg", "IMAGEN_3": "C004_IMG_20250704_085943.jpg", "VISUALIZAR_IMAGEN_1": "https://drive.google.com/uc?export=view&id=19kOeoEqFHlcj0W2t6jkMWie2VNiJJ9k5", "VISUALIZAR_IMAGEN_2": "https://drive.google.com/uc?export=view&id=1sadYlCtEp_nSGfXE59NKpMyQPoqKd5DW", "VISUALIZAR_IMAGEN_3": "https://drive.google.com/uc?export=view&id=1o9KdIkb_x1Ncbc2AKnKN4I3JTMdYak_v" }, "geometry": { "type": "Point", "coordinates": [ -73.054956499999946, 4.665492917000051, 465.350000000005821 ] } },
{ "type": "Feature", "properties": { "FECHA": "4/07/2025 00:00:00 (UTC)", "DEPTO": "(META)", "MUNICIPIO": "BARRANCA DE UPÍA", "VEREDA": "ALIANZA", "GASODUCTO": "(CUSIANA - APIAY - USME)", "TRAMO": "Cusiana - PK65", "TP_DUCTO": "(Troncal)", "DISTRITO": "4", "DIAMETRO": "12\"", "TRM_REG": "(CUSIANA - APIAY)", "PK": "061+331", "TP_EVENTO": "(OTRO)", "LONG_EVENT": null, "OBSERVACIO": "", "PROFUNDIDA": 2.75, "COD_ID": "HALL-3", "ENTREGA": "E23_R1", "LATITUD": 4.6550119170000244, "LONGITUD": -73.049129249999964, "IMAGEN_1": "C004_IMG_20250704_103958.jpg", "IMAGEN_2": "C004_IMG_20250704_104003.jpg", "IMAGEN_3": "C004_IMG_20250704_104008.jpg", "VISUALIZAR_IMAGEN_1": "https://drive.google.com/uc?export=view&id=1qvfKMu0tBZi-biWHjkebWJ8YnY9YJYlB", "VISUALIZAR_IMAGEN_2": "https://drive.google.com/uc?export=view&id=1AM_14vQ7uA260sIMW7AFzTpLhgDOnogl", "VISUALIZAR_IMAGEN_3": "https://drive.google.com/uc?export=view&id=11sXWgkTEC9UONFcfZ-TezamtVmsN3MhU" }, "geometry": { "type": "Point", "coordinates": [ -73.049129249999964, 4.655011917000024, 307.25 ] } },
{ "type": "Feature", "properties": { "FECHA": "27\/03\/2025 00:00:00 (UTC)", "DEPTO": "(TOLIMA)", "MUNICIPIO": "HERVEO", "VEREDA": "DELGADITAS", "GASODUCTO": "(MARIQUITA - CALI)", "TRAMO": "Herveo", "TP_DUCTO": "(Ramal)", "DISTRITO": "7", "DIAMETRO": "2\"", "TRM_REG": "(MARIQUITA - PEREIRA)", "PK": "000+132", "TP_EVENTO": "(DESLIZAMIENTO TRASLACIONAL)", "LONG_EVENT": 8.0, "OBSERVACIO": "", "PROFUNDIDA": 1.27, "COD_ID": "HALLAZ", "ENTREGA": "E09_R1", "LATITUD": 5.0924386670000672, "LONGITUD": -75.233017666999956, "IMAGEN_1": "C002_IMG_20250327_073113.jpg", "IMAGEN_2": "C002_IMG_20250327_073123.jpg", "IMAGEN_3": "C002_IMG_20250327_073128.jpg", "VISUALIZAR_IMAGEN_1": "https:\/\/drive.google.com\/uc?export=view&id=1SS5IJPIaZPYgVN8CJAis5SN-HAL9PXo6", "VISUALIZAR_IMAGEN_2": "https:\/\/drive.google.com\/uc?export=view&id=1NFqAhCNH1pWk-RjQzNDT0diXrIYaSPiG", "VISUALIZAR_IMAGEN_3": "https:\/\/drive.google.com\/uc?export=view&id=1KOlsLFTyzVeQhHpDanIEvF3Nb5j7MUnQ" }, "geometry": { "type": "Point", "coordinates": [ -75.233017666999956, 5.092438667000067, 2545.649999999994179 ] } },
{ "type": "Feature", "properties": { "FECHA": "27\/03\/2025 00:00:00 (UTC)", "DEPTO": "(TOLIMA)", "MUNICIPIO": "HERVEO", "VEREDA": "EL PLAN", "GASODUCTO": "(MARIQUITA - CALI)", "TRAMO": "Herveo", "TP_DUCTO": "(Ramal)", "DISTRITO": "7", "DIAMETRO": "2\"", "TRM_REG": "(MARIQUITA - PEREIRA)", "PK": "000+876", "TP_EVENTO": "(CARCAVAS)", "LONG_EVENT": 30.0, "OBSERVACIO": "", "PROFUNDIDA": 1.6, "COD_ID": "HALLAZ", "ENTREGA": "E09_R1", "LATITUD": 5.0882054170000401, "LONGITUD": -75.229685749999987, "IMAGEN_1": "C002_IMG_20250327_080328.jpg", "IMAGEN_2": "C002_IMG_20250327_080332.jpg", "IMAGEN_3": "C002_IMG_20250327_080339.jpg", "VISUALIZAR_IMAGEN_1": "https:\/\/drive.google.com\/uc?export=view&id=1Gmmg74Yriv3fqAiXSXAJ3hhFm3oOJIya", "VISUALIZAR_IMAGEN_2": "https:\/\/drive.google.com\/uc?export=view&id=1cdwDlEoXMkWo0SCdofoddeuno6TRDSmI", "VISUALIZAR_IMAGEN_3": "https:\/\/drive.google.com\/uc?export=view&id=1R49TjvCbmKautSI9bTLf2hgIVYsSdq7N" }, "geometry": { "type": "Point", "coordinates": [ -75.229685749999987, 5.08820541700004, 2381.100000000005821 ] } },
{ "type": "Feature", "properties": { "FECHA": "27\/03\/2025 00:00:00 (UTC)", "DEPTO": "(TOLIMA)", "MUNICIPIO": "HERVEO", "VEREDA": "EL PLAN", "GASODUCTO": "(MARIQUITA - CALI)", "TRAMO": "Herveo", "TP_DUCTO": "(Ramal)", "DISTRITO": "7", "DIAMETRO": "2\"", "TRM_REG": "(MARIQUITA - PEREIRA)", "PK": "002+556", "TP_EVENTO": "(DESLIZAMIENTO TRASLACIONAL)", "LONG_EVENT": 10.0, "OBSERVACIO": "", "PROFUNDIDA": 2.11, "COD_ID": "HALLAZ", "ENTREGA": "E09_R1", "LATITUD": 5.0803720000000681, "LONGITUD": -75.2190315, "IMAGEN_1": "C002_IMG_20250327_085905.jpg", "IMAGEN_2": "C002_IMG_20250327_085911.jpg", "IMAGEN_3": "C002_IMG_20250327_085921.jpg", "VISUALIZAR_IMAGEN_1": "https:\/\/drive.google.com\/uc?export=view&id=1nAjv5P0_-KGJLspSFhG0udbLVGou_obH", "VISUALIZAR_IMAGEN_2": "https:\/\/drive.google.com\/uc?export=view&id=17ZCyloUwzZlSfqpFlv4UGYOwTOOUiFno", "VISUALIZAR_IMAGEN_3": "https:\/\/drive.google.com\/uc?export=view&id=1MmnRPRVzuVm9pjS_JMSLb7m2QttY1AuK" }, "geometry": { "type": "Point", "coordinates": [ -75.219031499999971, 5.080372, 2109.19999999999709 ] } },
{ "type": "Feature", "properties": { "FECHA": "28\/03\/2025 00:00:00 (UTC)", "DEPTO": "(TOLIMA)", "MUNICIPIO": "HERVEO", "VEREDA": "LA CRISTALINA", "GASODUCTO": "(MARIQUITA - CALI)", "TRAMO": "Herveo", "TP_DUCTO": "(Ramal)", "DISTRITO": "7", "DIAMETRO": "2\"", "TRM_REG": "(MARIQUITA - PEREIRA)", "PK": "008+651", "TP_EVENTO": "(DESLIZAMIENTO TRASLACIONAL)", "LONG_EVENT": 4.0, "OBSERVACIO": "", "PROFUNDIDA": 1.48, "COD_ID": "HALLAZ", "ENTREGA": "E09_R1", "LATITUD": 5.0647968330000595, "LONGITUD": -75.2043975, "IMAGEN_1": "C002_IMG_20250328_092752.jpg", "IMAGEN_2": "C002_IMG_20250328_092808.jpg", "IMAGEN_3": "C002_IMG_20250328_092814.jpg", "VISUALIZAR_IMAGEN_1": "https:\/\/drive.google.com\/uc?export=view&id=1bu1PNnM-5NXx2txJcSY1eWn_v2-_ANOz", "VISUALIZAR_IMAGEN_2": "https:\/\/drive.google.com\/uc?export=view&id=153EaVVyTvSiulC8iMoYdu0DVkVuCc5sM", "VISUALIZAR_IMAGEN_3": "https:\/\/drive.google.com\/uc?export=view&id=11SefidlsPJdpJWtQfOnjUI2vtUm34M6V" }, "geometry": { "type": "Point", "coordinates": [ -75.20439749999997, 5.064796833000059, 2454.69999999999709 ] } },
{ "type": "Feature", "properties": { "FECHA": "28\/03\/2025 00:00:00 (UTC)", "DEPTO": "(TOLIMA)", "MUNICIPIO": "HERVEO", "VEREDA": "LA CRISTALINA", "GASODUCTO": "(MARIQUITA - CALI)", "TRAMO": "Herveo", "TP_DUCTO": "(Ramal)", "DISTRITO": "7", "DIAMETRO": "2\"", "TRM_REG": "(MARIQUITA - PEREIRA)", "PK": "008+576", "TP_EVENTO": "(DESLIZAMIENTO TRASLACIONAL)", "LONG_EVENT": 6.0, "OBSERVACIO": "", "PROFUNDIDA": 1.6, "COD_ID": "HALLAZ", "ENTREGA": "E09_R1", "LATITUD": 5.0645999170000664, "LONGITUD": -75.205081582999981, "IMAGEN_1": "C002_IMG_20250328_093130.jpg", "IMAGEN_2": "C002_IMG_20250328_093142.jpg", "IMAGEN_3": "C002_IMG_20250328_093147.jpg", "VISUALIZAR_IMAGEN_1": "https:\/\/drive.google.com\/uc?export=view&id=1zwMNmTRCfaToH0axFtouVcUydXs46nq0", "VISUALIZAR_IMAGEN_2": "https:\/\/drive.google.com\/uc?export=view&id=1OiH7NeRQ6H9IDJDrhkQsF9s3UCHVshoK", "VISUALIZAR_IMAGEN_3": "https:\/\/drive.google.com\/uc?export=view&id=10Njke3XZfQR_vNCdDQE7LyS-Mo2JmMIU" }, "geometry": { "type": "Point", "coordinates": [ -75.205081582999981, 5.064599917000066, 2449.5 ] } },
{ "type": "Feature", "properties": { "FECHA": "31\/03\/2025 00:00:00 (UTC)", "DEPTO": "(CALDAS)", "MUNICIPIO": "MANIZALES", "VEREDA": "ÁREA URBANA", "GASODUCTO": "(MARIQUITA - CALI)", "TRAMO": "Letras - Marsella", "TP_DUCTO": "(Troncal)", "DISTRITO": "7", "DIAMETRO": "20\"", "TRM_REG": "(MARIQUITA - PEREIRA)", "PK": "079+080", "TP_EVENTO": "(REPTACION)", "LONG_EVENT": 40.0, "OBSERVACIO": "", "PROFUNDIDA": 2.18, "COD_ID": "HALLAZ", "ENTREGA": "E09_R1", "LATITUD": 5.0336080830000469, "LONGITUD": -75.425842166999985, "IMAGEN_1": "C002_IMG_20250331_075925.jpg", "IMAGEN_2": "C002_IMG_20250331_075929.jpg", "IMAGEN_3": "C002_IMG_20250331_075934.jpg", "VISUALIZAR_IMAGEN_1": "https:\/\/drive.google.com\/uc?export=view&id=1aHDvHmi_7_w3bH0yjxyfFsYyeCrs0ZZn", "VISUALIZAR_IMAGEN_2": "https:\/\/drive.google.com\/uc?export=view&id=1NpgB5sMhAC6dWD7HV_Wet81ybmQXe215", "VISUALIZAR_IMAGEN_3": "https:\/\/drive.google.com\/uc?export=view&id=1be4dAGB8QL0Eyian-mk7oWF0GsWwlfAy" }, "geometry": { "type": "Point", "coordinates": [ -75.425842166999985, 5.033608083000047, 2377.69999999999709 ] } },
{ "type": "Feature", "properties": { "FECHA": "2\/04\/2025 00:00:00 (UTC)", "DEPTO": "(CALDAS)", "MUNICIPIO": "VILLAMARÍA", "VEREDA": "LA FLORIDA", "GASODUCTO": "(MARIQUITA - CALI)", "TRAMO": "Letras - Marsella", "TP_DUCTO": "(Troncal)", "DISTRITO": "7", "DIAMETRO": "20\"", "TRM_REG": "(MARIQUITA - PEREIRA)", "PK": "081+675", "TP_EVENTO": "(SOCAVACIÓN DE FONDO)", "LONG_EVENT": 3.0, "OBSERVACIO": "", "PROFUNDIDA": 1.55, "COD_ID": "HALLAZ", "ENTREGA": "E09_R1", "LATITUD": 5.0209270830000605, "LONGITUD": -75.441349416999969, "IMAGEN_1": "C002_IMG_20250402_081029.jpg", "IMAGEN_2": "C002_IMG_20250402_081034.jpg", "IMAGEN_3": "C002_IMG_20250402_081039.jpg", "VISUALIZAR_IMAGEN_1": "https:\/\/drive.google.com\/uc?export=view&id=1pKrUg6RCF2IQjT2Di26y74n28ZIuyx9X", "VISUALIZAR_IMAGEN_2": "https:\/\/drive.google.com\/uc?export=view&id=1ywEi34iEOXhZAbgBy_A25kZxt-vzDcPX", "VISUALIZAR_IMAGEN_3": "https:\/\/drive.google.com\/uc?export=view&id=1OohyOsIJKPO1IEKoV93PynALOd5uYZH9" }, "geometry": { "type": "Point", "coordinates": [ -75.441349416999969, 5.020927083000061, 2237.80000000000291 ] } },
{ "type": "Feature", "properties": { "FECHA": "3\/04\/2025 00:00:00 (UTC)", "DEPTO": "(CALDAS)", "MUNICIPIO": "NEIRA", "VEREDA": "BUENOS AIRES", "GASODUCTO": "(MARIQUITA - CALI)", "TRAMO": "Neira", "TP_DUCTO": "(Ramal)", "DISTRITO": "7", "DIAMETRO": "2\"", "TRM_REG": "(MARIQUITA - PEREIRA)", "PK": "021+856", "TP_EVENTO": "(DESLIZAMIENTO ROTACIONAL)", "LONG_EVENT": 8.0, "OBSERVACIO": "", "PROFUNDIDA": 1.78, "COD_ID": "HALLAZ", "ENTREGA": "E09_R1", "LATITUD": 5.1560873060000745, "LONGITUD": -75.512439023999946, "IMAGEN_1": "C002_IMG_20250403_060958.jpg", "IMAGEN_2": "C002_IMG_20250403_061006.jpg", "IMAGEN_3": "C002_IMG_20250403_061010.jpg", "VISUALIZAR_IMAGEN_1": "https:\/\/drive.google.com\/uc?export=view&id=1pTfMSu6h7y5uurXeGlXfREEeUyaUmJ8h", "VISUALIZAR_IMAGEN_2": "https:\/\/drive.google.com\/uc?export=view&id=16D-YvUOnLgPvAdPPQKuLeAQNw8tZ0XNg", "VISUALIZAR_IMAGEN_3": "https:\/\/drive.google.com\/uc?export=view&id=1gW33988h4iIG58Tes8ofdQhObdTLAV9Q" }, "geometry": { "type": "Point", "coordinates": [ -75.512439023999946, 5.156087306000074, 2069.80000000000291 ] } },
{ "type": "Feature", "properties": { "FECHA": "3\/04\/2025 00:00:00 (UTC)", "DEPTO": "(CALDAS)", "MUNICIPIO": "NEIRA", "VEREDA": "BUENOS AIRES", "GASODUCTO": "(MARIQUITA - CALI)", "TRAMO": "Neira", "TP_DUCTO": "(Ramal)", "DISTRITO": "7", "DIAMETRO": "2\"", "TRM_REG": "(MARIQUITA - PEREIRA)", "PK": "018+940", "TP_EVENTO": "(SURCOS)", "LONG_EVENT": 8.0, "OBSERVACIO": "", "PROFUNDIDA": 1.78, "COD_ID": "HALLAZ", "ENTREGA": "E09_R1", "LATITUD": 5.1440260830000284, "LONGITUD": -75.49979958299997, "IMAGEN_1": "C002_IMG_20250403_084333.jpg", "IMAGEN_2": "C002_IMG_20250403_084337.jpg", "IMAGEN_3": "C002_IMG_20250403_084343.jpg", "VISUALIZAR_IMAGEN_1": "https:\/\/drive.google.com\/uc?export=view&id=1J_EhnOoWystdwfrYmL4YL5UpHEUOstW6", "VISUALIZAR_IMAGEN_2": "https:\/\/drive.google.com\/uc?export=view&id=1zBQMFlWZyMLekh3anhktWQqi7FFhneaf", "VISUALIZAR_IMAGEN_3": "https:\/\/drive.google.com\/uc?export=view&id=1xHOC9FZSk1i_rRPM3RyRPqKgZnm-MfJH" }, "geometry": { "type": "Point", "coordinates": [ -75.49979958299997, 5.144026083000028, 1890.55000000000291 ] } },
{ "type": "Feature", "properties": { "FECHA": "8\/04\/2025 00:00:00 (UTC)", "DEPTO": "(CALDAS)", "MUNICIPIO": "MANIZALES", "VEREDA": "LA ENEA PARTE", "GASODUCTO": "(MARIQUITA - CALI)", "TRAMO": "Neira", "TP_DUCTO": "(Ramal)", "DISTRITO": "7", "DIAMETRO": "2\"", "TRM_REG": "(MARIQUITA - PEREIRA)", "PK": "000+328", "TP_EVENTO": "(SOCAVACIÓN LATERAL)", "LONG_EVENT": 8.0, "OBSERVACIO": "", "PROFUNDIDA": 2.32, "COD_ID": "HALLAZ", "ENTREGA": "E09_R1", "LATITUD": 5.0398528330000545, "LONGITUD": -75.448424332999934, "IMAGEN_1": "C002_IMG_20250408_095917.jpg", "IMAGEN_2": "C002_IMG_20250408_095924.jpg", "IMAGEN_3": "C002_IMG_20250408_095936.jpg", "VISUALIZAR_IMAGEN_1": "https:\/\/drive.google.com\/uc?export=view&id=1UbdX-h8uglyl3pAT4ra55GAQa-Rgb4JH", "VISUALIZAR_IMAGEN_2": "https:\/\/drive.google.com\/uc?export=view&id=1zn8c4tUVTogTjG5etC0dNTK0STLTzcUu", "VISUALIZAR_IMAGEN_3": "https:\/\/drive.google.com\/uc?export=view&id=1F3o6ko7AKSX1OuSZMZRVwkQs1sLuK3Gg" }, "geometry": { "type": "Point", "coordinates": [ -75.448424332999934, 5.039852833000054, 2177.100000000005821 ] } }
]
}
